{"type": "FeatureCollection", "id": "http://www.wikidata.org/entity/Q158064", "name": "Steglitz-Zehlendorf", "features": [{"type": "Feature", "id": "https://gdi-de.github.io/apworkshop2026/208", "name": "", "dateprops": ["http://www.wikidata.org/prop/direct/P571", "http://www.wikidata.org/prop/direct/P571"], "properties": {"http://rdfs.org/ns/void#inDataset": ["https://gdk.gdi-de.org/inspire/srv/eng/xml_iso19139?uuid=8aaca41b-d665-447a-93ec-b76e431852fc", "https://gdi-de.github.io/apworkshop2026/gdide_dataset"], "http://www.opengis.net/ont/geosparql#hasGeometry": ["https://gdi-de.github.io/apworkshop2026/208_geom"], "http://www.w3.org/1999/02/22-rdf-syntax-ns#type": ["https://gdi-de.github.io/apworkshop2026/ont#Bituma"], "http://www.w3.org/2000/01/rdf-schema#comment": ["Betriebszeit: Mai bis Oktober, Link: https://www.bwb.de/de/trinkbrunnen.php  "], "http://www.w3.org/2000/01/rdf-schema#label": ["Brunnen 208"], "http://www.w3.org/2004/02/skos/core#scopeNote": ["nan"], "http://www.w3.org/2006/time#hasTime": ["https://gdi-de.github.io/apworkshop2026/208_openmonths"], "http://www.w3.org/ns/locn#postCode": ["14129"], "http://www.wikidata.org/prop/direct/P131": ["http://www.wikidata.org/entity/Q158064", "http://www.wikidata.org/entity/Q64"], "http://www.wikidata.org/prop/direct/P571": ["2022"], "http://xmlns.com/foaf/0.1/homepage": ["https://www.bwb.de/de/trinkbrunnen.php"]}, "geometry": {"type": "Point", "coordinates": [13.214379999999563, 52.44016903691965]}}, {"type": "Feature", "id": "https://gdi-de.github.io/apworkshop2026/81", "name": "", "dateprops": ["http://www.wikidata.org/prop/direct/P571", "http://www.wikidata.org/prop/direct/P571"], "properties": {"http://rdfs.org/ns/void#inDataset": ["https://gdk.gdi-de.org/inspire/srv/eng/xml_iso19139?uuid=8aaca41b-d665-447a-93ec-b76e431852fc", "https://gdi-de.github.io/apworkshop2026/gdide_dataset"], "http://www.opengis.net/ont/geosparql#hasGeometry": ["https://gdi-de.github.io/apworkshop2026/81_geom"], "http://www.w3.org/1999/02/22-rdf-syntax-ns#type": ["https://gdi-de.github.io/apworkshop2026/ont#Kaiser"], "http://www.w3.org/2000/01/rdf-schema#comment": ["Betriebszeit: Mai bis Oktober, Link: https://www.bwb.de/de/trinkbrunnen.php  "], "http://www.w3.org/2000/01/rdf-schema#label": ["Brunnen 81"], "http://www.w3.org/2004/02/skos/core#scopeNote": ["wegen Bauma\u00dfnahme der NBB au\u00dfer Betrieb"], "http://www.w3.org/2006/time#hasTime": ["https://gdi-de.github.io/apworkshop2026/81_openmonths"], "http://www.w3.org/ns/locn#postCode": ["12207"], "http://www.wikidata.org/prop/direct/P131": ["http://www.wikidata.org/entity/Q158064", "http://www.wikidata.org/entity/Q64"], "http://www.wikidata.org/prop/direct/P571": ["2019"], "http://xmlns.com/foaf/0.1/homepage": ["https://www.bwb.de/de/trinkbrunnen.php"]}, "geometry": {"type": "Point", "coordinates": [13.317049999999785, 52.43417503692676]}}, {"type": "Feature", "id": "https://gdi-de.github.io/apworkshop2026/7", "name": "", "dateprops": ["http://www.wikidata.org/prop/direct/P571", "http://www.wikidata.org/prop/direct/P571"], "properties": {"http://rdfs.org/ns/void#inDataset": ["https://gdk.gdi-de.org/inspire/srv/eng/xml_iso19139?uuid=8aaca41b-d665-447a-93ec-b76e431852fc", "https://gdi-de.github.io/apworkshop2026/gdide_dataset"], "http://www.opengis.net/ont/geosparql#hasGeometry": ["https://gdi-de.github.io/apworkshop2026/7_geom"], "http://www.w3.org/1999/02/22-rdf-syntax-ns#type": ["https://gdi-de.github.io/apworkshop2026/ont#Kaiser"], "http://www.w3.org/2000/01/rdf-schema#comment": ["Betriebszeit: Mai bis Oktober, Link: https://www.bwb.de/de/trinkbrunnen.php  "], "http://www.w3.org/2000/01/rdf-schema#label": ["Brunnen 7"], "http://www.w3.org/2004/02/skos/core#scopeNote": ["nan"], "http://www.w3.org/2006/time#hasTime": ["https://gdi-de.github.io/apworkshop2026/7_openmonths"], "http://www.w3.org/ns/locn#postCode": ["12207"], "http://www.wikidata.org/prop/direct/P131": ["http://www.wikidata.org/entity/Q158064", "http://www.wikidata.org/entity/Q64"], "http://www.wikidata.org/prop/direct/P571": ["1985"], "http://xmlns.com/foaf/0.1/homepage": ["https://www.bwb.de/de/trinkbrunnen.php"]}, "geometry": {"type": "Point", "coordinates": [13.318057999999787, 52.42522003693611]}}, {"type": "Feature", "id": "https://gdi-de.github.io/apworkshop2026/224", "name": "", "dateprops": ["http://www.wikidata.org/prop/direct/P571", "http://www.wikidata.org/prop/direct/P571"], "properties": {"http://rdfs.org/ns/void#inDataset": ["https://gdk.gdi-de.org/inspire/srv/eng/xml_iso19139?uuid=8aaca41b-d665-447a-93ec-b76e431852fc", "https://gdi-de.github.io/apworkshop2026/gdide_dataset"], "http://www.opengis.net/ont/geosparql#hasGeometry": ["https://gdi-de.github.io/apworkshop2026/224_geom"], "http://www.w3.org/1999/02/22-rdf-syntax-ns#type": ["https://gdi-de.github.io/apworkshop2026/ont#Bituma"], "http://www.w3.org/2000/01/rdf-schema#comment": ["Betriebszeit: Mai bis Oktober, Link: https://www.bwb.de/de/trinkbrunnen.php  "], "http://www.w3.org/2000/01/rdf-schema#label": ["Brunnen 224"], "http://www.w3.org/2004/02/skos/core#scopeNote": ["nan"], "http://www.w3.org/2006/time#hasTime": ["https://gdi-de.github.io/apworkshop2026/224_openmonths"], "http://www.w3.org/ns/locn#postCode": ["12169"], "http://www.wikidata.org/prop/direct/P131": ["http://www.wikidata.org/entity/Q158064", "http://www.wikidata.org/entity/Q64"], "http://www.wikidata.org/prop/direct/P571": ["2023"], "http://xmlns.com/foaf/0.1/homepage": ["https://www.bwb.de/de/trinkbrunnen.php"]}, "geometry": {"type": "Point", "coordinates": [13.34903099999988, 52.456734036903526]}}, {"type": "Feature", "id": "https://gdi-de.github.io/apworkshop2026/61", "name": "", "dateprops": ["http://www.wikidata.org/prop/direct/P571", "http://www.wikidata.org/prop/direct/P571"], "properties": {"http://rdfs.org/ns/void#inDataset": ["https://gdk.gdi-de.org/inspire/srv/eng/xml_iso19139?uuid=8aaca41b-d665-447a-93ec-b76e431852fc", "https://gdi-de.github.io/apworkshop2026/gdide_dataset"], "http://www.opengis.net/ont/geosparql#hasGeometry": ["https://gdi-de.github.io/apworkshop2026/61_geom"], "http://www.w3.org/1999/02/22-rdf-syntax-ns#type": ["https://gdi-de.github.io/apworkshop2026/ont#Kaiser"], "http://www.w3.org/2000/01/rdf-schema#comment": ["Betriebszeit: Mai bis Oktober, Link: https://www.bwb.de/de/trinkbrunnen.php  "], "http://www.w3.org/2000/01/rdf-schema#label": ["Brunnen 61"], "http://www.w3.org/2004/02/skos/core#scopeNote": ["nan"], "http://www.w3.org/2006/time#hasTime": ["https://gdi-de.github.io/apworkshop2026/61_openmonths"], "http://www.w3.org/ns/locn#postCode": ["12167"], "http://www.wikidata.org/prop/direct/P131": ["http://www.wikidata.org/entity/Q158064", "http://www.wikidata.org/entity/Q64"], "http://www.wikidata.org/prop/direct/P571": ["2018"], "http://xmlns.com/foaf/0.1/homepage": ["https://www.bwb.de/de/trinkbrunnen.php"]}, "geometry": {"type": "Point", "coordinates": [13.335541999999794, 52.448585036911936]}}, {"type": "Feature", "id": "https://gdi-de.github.io/apworkshop2026/74", "name": "", "dateprops": ["http://www.wikidata.org/prop/direct/P571", "http://www.wikidata.org/prop/direct/P571"], "properties": {"http://rdfs.org/ns/void#inDataset": ["https://gdk.gdi-de.org/inspire/srv/eng/xml_iso19139?uuid=8aaca41b-d665-447a-93ec-b76e431852fc", "https://gdi-de.github.io/apworkshop2026/gdide_dataset"], "http://www.opengis.net/ont/geosparql#hasGeometry": ["https://gdi-de.github.io/apworkshop2026/74_geom"], "http://www.w3.org/1999/02/22-rdf-syntax-ns#type": ["https://gdi-de.github.io/apworkshop2026/ont#Kaiser"], "http://www.w3.org/2000/01/rdf-schema#comment": ["Betriebszeit: Mai bis Oktober, Link: https://www.bwb.de/de/trinkbrunnen.php  "], "http://www.w3.org/2000/01/rdf-schema#label": ["Brunnen 74"], "http://www.w3.org/2004/02/skos/core#scopeNote": ["nan"], "http://www.w3.org/2006/time#hasTime": ["https://gdi-de.github.io/apworkshop2026/74_openmonths"], "http://www.w3.org/ns/locn#postCode": ["14195"], "http://www.wikidata.org/prop/direct/P131": ["http://www.wikidata.org/entity/Q158064", "http://www.wikidata.org/entity/Q64"], "http://www.wikidata.org/prop/direct/P571": ["2019"], "http://xmlns.com/foaf/0.1/homepage": ["https://www.bwb.de/de/trinkbrunnen.php"]}, "geometry": {"type": "Point", "coordinates": [13.304121999999746, 52.45863403690122]}}, {"type": "Feature", "id": "https://gdi-de.github.io/apworkshop2026/101", "name": "", "dateprops": ["http://www.wikidata.org/prop/direct/P571", "http://www.wikidata.org/prop/direct/P571"], "properties": {"http://rdfs.org/ns/void#inDataset": ["https://gdk.gdi-de.org/inspire/srv/eng/xml_iso19139?uuid=8aaca41b-d665-447a-93ec-b76e431852fc", "https://gdi-de.github.io/apworkshop2026/gdide_dataset"], "http://www.opengis.net/ont/geosparql#hasGeometry": ["https://gdi-de.github.io/apworkshop2026/101_geom"], "http://www.w3.org/1999/02/22-rdf-syntax-ns#type": ["https://gdi-de.github.io/apworkshop2026/ont#Kaiser"], "http://www.w3.org/2000/01/rdf-schema#comment": ["Betriebszeit: Mai bis Oktober, Link: https://www.bwb.de/de/trinkbrunnen.php  "], "http://www.w3.org/2000/01/rdf-schema#label": ["Brunnen 101"], "http://www.w3.org/2004/02/skos/core#scopeNote": ["nan"], "http://www.w3.org/2006/time#hasTime": ["https://gdi-de.github.io/apworkshop2026/101_openmonths"], "http://www.w3.org/ns/locn#postCode": ["12163"], "http://www.wikidata.org/prop/direct/P131": ["http://www.wikidata.org/entity/Q158064", "http://www.wikidata.org/entity/Q64"], "http://www.wikidata.org/prop/direct/P571": ["2019"], "http://xmlns.com/foaf/0.1/homepage": ["https://www.bwb.de/de/trinkbrunnen.php"]}, "geometry": {"type": "Point", "coordinates": [13.324598999999798, 52.461316036898566]}}, {"type": "Feature", "id": "https://gdi-de.github.io/apworkshop2026/76", "name": "", "dateprops": ["http://www.wikidata.org/prop/direct/P571", "http://www.wikidata.org/prop/direct/P571"], "properties": {"http://rdfs.org/ns/void#inDataset": ["https://gdk.gdi-de.org/inspire/srv/eng/xml_iso19139?uuid=8aaca41b-d665-447a-93ec-b76e431852fc", "https://gdi-de.github.io/apworkshop2026/gdide_dataset"], "http://www.opengis.net/ont/geosparql#hasGeometry": ["https://gdi-de.github.io/apworkshop2026/76_geom"], "http://www.w3.org/1999/02/22-rdf-syntax-ns#type": ["https://gdi-de.github.io/apworkshop2026/ont#Kaiser"], "http://www.w3.org/2000/01/rdf-schema#comment": ["Betriebszeit: Mai bis Oktober, Link: https://www.bwb.de/de/trinkbrunnen.php  "], "http://www.w3.org/2000/01/rdf-schema#label": ["Brunnen 76"], "http://www.w3.org/2004/02/skos/core#scopeNote": ["nan"], "http://www.w3.org/2006/time#hasTime": ["https://gdi-de.github.io/apworkshop2026/76_openmonths"], "http://www.w3.org/ns/locn#postCode": ["14169"], "http://www.wikidata.org/prop/direct/P131": ["http://www.wikidata.org/entity/Q158064", "http://www.wikidata.org/entity/Q64"], "http://www.wikidata.org/prop/direct/P571": ["2019"], "http://xmlns.com/foaf/0.1/homepage": ["https://www.bwb.de/de/trinkbrunnen.php"]}, "geometry": {"type": "Point", "coordinates": [13.25896399999968, 52.43335603692719]}}, {"type": "Feature", "id": "https://gdi-de.github.io/apworkshop2026/145", "name": "", "dateprops": ["http://www.wikidata.org/prop/direct/P571", "http://www.wikidata.org/prop/direct/P571"], "properties": {"http://rdfs.org/ns/void#inDataset": ["https://gdk.gdi-de.org/inspire/srv/eng/xml_iso19139?uuid=8aaca41b-d665-447a-93ec-b76e431852fc", "https://gdi-de.github.io/apworkshop2026/gdide_dataset"], "http://www.opengis.net/ont/geosparql#hasGeometry": ["https://gdi-de.github.io/apworkshop2026/145_geom"], "http://www.w3.org/1999/02/22-rdf-syntax-ns#type": ["https://gdi-de.github.io/apworkshop2026/ont#Kaiser"], "http://www.w3.org/2000/01/rdf-schema#comment": ["Betriebszeit: Mai bis Oktober, Link: https://www.bwb.de/de/trinkbrunnen.php  "], "http://www.w3.org/2000/01/rdf-schema#label": ["Brunnen 145"], "http://www.w3.org/2004/02/skos/core#scopeNote": ["nan"], "http://www.w3.org/2006/time#hasTime": ["https://gdi-de.github.io/apworkshop2026/145_openmonths"], "http://www.w3.org/ns/locn#postCode": ["12247"], "http://www.wikidata.org/prop/direct/P131": ["http://www.wikidata.org/entity/Q158064", "http://www.wikidata.org/entity/Q64"], "http://www.wikidata.org/prop/direct/P571": ["2020"], "http://xmlns.com/foaf/0.1/homepage": ["https://www.bwb.de/de/trinkbrunnen.php"]}, "geometry": {"type": "Point", "coordinates": [13.343145999999864, 52.43898903692197]}}, {"type": "Feature", "id": "https://gdi-de.github.io/apworkshop2026/94", "name": "", "dateprops": ["http://www.wikidata.org/prop/direct/P571", "http://www.wikidata.org/prop/direct/P571"], "properties": {"http://rdfs.org/ns/void#inDataset": ["https://gdk.gdi-de.org/inspire/srv/eng/xml_iso19139?uuid=8aaca41b-d665-447a-93ec-b76e431852fc", "https://gdi-de.github.io/apworkshop2026/gdide_dataset"], "http://www.opengis.net/ont/geosparql#hasGeometry": ["https://gdi-de.github.io/apworkshop2026/94_geom"], "http://www.w3.org/1999/02/22-rdf-syntax-ns#type": ["https://gdi-de.github.io/apworkshop2026/ont#Kaiser"], "http://www.w3.org/2000/01/rdf-schema#comment": ["Betriebszeit: Mai bis Oktober, Link: https://www.bwb.de/de/trinkbrunnen.php  "], "http://www.w3.org/2000/01/rdf-schema#label": ["Brunnen 94"], "http://www.w3.org/2004/02/skos/core#scopeNote": ["nan"], "http://www.w3.org/2006/time#hasTime": ["https://gdi-de.github.io/apworkshop2026/94_openmonths"], "http://www.w3.org/ns/locn#postCode": ["14163"], "http://www.wikidata.org/prop/direct/P131": ["http://www.wikidata.org/entity/Q158064", "http://www.wikidata.org/entity/Q64"], "http://www.wikidata.org/prop/direct/P571": ["2019"], "http://xmlns.com/foaf/0.1/homepage": ["https://www.bwb.de/de/trinkbrunnen.php"]}, "geometry": {"type": "Point", "coordinates": [13.257833999999646, 52.43544403692496]}}, {"type": "Feature", "id": "https://gdi-de.github.io/apworkshop2026/93", "name": "", "dateprops": ["http://www.wikidata.org/prop/direct/P571", "http://www.wikidata.org/prop/direct/P571"], "properties": {"http://rdfs.org/ns/void#inDataset": ["https://gdk.gdi-de.org/inspire/srv/eng/xml_iso19139?uuid=8aaca41b-d665-447a-93ec-b76e431852fc", "https://gdi-de.github.io/apworkshop2026/gdide_dataset"], "http://www.opengis.net/ont/geosparql#hasGeometry": ["https://gdi-de.github.io/apworkshop2026/93_geom"], "http://www.w3.org/1999/02/22-rdf-syntax-ns#type": ["https://gdi-de.github.io/apworkshop2026/ont#Kaiser"], "http://www.w3.org/2000/01/rdf-schema#comment": ["Betriebszeit: Mai bis Oktober, Link: https://www.bwb.de/de/trinkbrunnen.php  "], "http://www.w3.org/2000/01/rdf-schema#label": ["Brunnen 93"], "http://www.w3.org/2004/02/skos/core#scopeNote": ["nan"], "http://www.w3.org/2006/time#hasTime": ["https://gdi-de.github.io/apworkshop2026/93_openmonths"], "http://www.w3.org/ns/locn#postCode": ["12203"], "http://www.wikidata.org/prop/direct/P131": ["http://www.wikidata.org/entity/Q158064", "http://www.wikidata.org/entity/Q64"], "http://www.wikidata.org/prop/direct/P571": ["2019"], "http://xmlns.com/foaf/0.1/homepage": ["https://www.bwb.de/de/trinkbrunnen.php"]}, "geometry": {"type": "Point", "coordinates": [13.312793999999752, 52.44297303691761]}}, {"type": "Feature", "id": "https://gdi-de.github.io/apworkshop2026/240", "name": "", "dateprops": ["http://www.wikidata.org/prop/direct/P571", "http://www.wikidata.org/prop/direct/P571"], "properties": {"http://rdfs.org/ns/void#inDataset": ["https://gdk.gdi-de.org/inspire/srv/eng/xml_iso19139?uuid=8aaca41b-d665-447a-93ec-b76e431852fc", "https://gdi-de.github.io/apworkshop2026/gdide_dataset"], "http://www.opengis.net/ont/geosparql#hasGeometry": ["https://gdi-de.github.io/apworkshop2026/240_geom"], "http://www.w3.org/1999/02/22-rdf-syntax-ns#type": ["https://gdi-de.github.io/apworkshop2026/ont#Bituma"], "http://www.w3.org/2000/01/rdf-schema#comment": ["Betriebszeit: Mai bis Oktober, Link: https://www.bwb.de/de/trinkbrunnen.php  "], "http://www.w3.org/2000/01/rdf-schema#label": ["Brunnen 240"], "http://www.w3.org/2004/02/skos/core#scopeNote": ["nan"], "http://www.w3.org/2006/time#hasTime": ["https://gdi-de.github.io/apworkshop2026/240_openmonths"], "http://www.w3.org/ns/locn#postCode": ["14163"], "http://www.wikidata.org/prop/direct/P131": ["http://www.wikidata.org/entity/Q158064", "http://www.wikidata.org/entity/Q64"], "http://www.wikidata.org/prop/direct/P571": ["2024"], "http://xmlns.com/foaf/0.1/homepage": ["https://www.bwb.de/de/trinkbrunnen.php"]}, "geometry": {"type": "Point", "coordinates": [13.230221999999591, 52.44711403691253]}}, {"type": "Feature", "id": "https://gdi-de.github.io/apworkshop2026/75", "name": "", "dateprops": ["http://www.wikidata.org/prop/direct/P571", "http://www.wikidata.org/prop/direct/P571"], "properties": {"http://rdfs.org/ns/void#inDataset": ["https://gdk.gdi-de.org/inspire/srv/eng/xml_iso19139?uuid=8aaca41b-d665-447a-93ec-b76e431852fc", "https://gdi-de.github.io/apworkshop2026/gdide_dataset"], "http://www.opengis.net/ont/geosparql#hasGeometry": ["https://gdi-de.github.io/apworkshop2026/75_geom"], "http://www.w3.org/1999/02/22-rdf-syntax-ns#type": ["https://gdi-de.github.io/apworkshop2026/ont#Kaiser"], "http://www.w3.org/2000/01/rdf-schema#comment": ["Betriebszeit: Mai bis Oktober, Link: https://www.bwb.de/de/trinkbrunnen.php  "], "http://www.w3.org/2000/01/rdf-schema#label": ["Brunnen 75"], "http://www.w3.org/2004/02/skos/core#scopeNote": ["nan"], "http://www.w3.org/2006/time#hasTime": ["https://gdi-de.github.io/apworkshop2026/75_openmonths"], "http://www.w3.org/ns/locn#postCode": ["14195"], "http://www.wikidata.org/prop/direct/P131": ["http://www.wikidata.org/entity/Q158064", "http://www.wikidata.org/entity/Q64"], "http://www.wikidata.org/prop/direct/P571": ["2019"], "http://xmlns.com/foaf/0.1/homepage": ["https://www.bwb.de/de/trinkbrunnen.php"]}, "geometry": {"type": "Point", "coordinates": [13.290010999999689, 52.45792003690184]}}, {"type": "Feature", "id": "https://gdi-de.github.io/apworkshop2026/100", "name": "", "dateprops": ["http://www.wikidata.org/prop/direct/P571", "http://www.wikidata.org/prop/direct/P571"], "properties": {"http://rdfs.org/ns/void#inDataset": ["https://gdk.gdi-de.org/inspire/srv/eng/xml_iso19139?uuid=8aaca41b-d665-447a-93ec-b76e431852fc", "https://gdi-de.github.io/apworkshop2026/gdide_dataset"], "http://www.opengis.net/ont/geosparql#hasGeometry": ["https://gdi-de.github.io/apworkshop2026/100_geom"], "http://www.w3.org/1999/02/22-rdf-syntax-ns#type": ["https://gdi-de.github.io/apworkshop2026/ont#Bituma"], "http://www.w3.org/2000/01/rdf-schema#comment": ["Betriebszeit: Mai bis Oktober, Link: https://www.bwb.de/de/trinkbrunnen.php  "], "http://www.w3.org/2000/01/rdf-schema#label": ["Brunnen 100"], "http://www.w3.org/2004/02/skos/core#scopeNote": ["nan"], "http://www.w3.org/2006/time#hasTime": ["https://gdi-de.github.io/apworkshop2026/100_openmonths"], "http://www.w3.org/ns/locn#postCode": ["12165"], "http://www.wikidata.org/prop/direct/P131": ["http://www.wikidata.org/entity/Q158064", "http://www.wikidata.org/entity/Q64"], "http://www.wikidata.org/prop/direct/P571": ["2019"], "http://xmlns.com/foaf/0.1/homepage": ["https://www.bwb.de/de/trinkbrunnen.php"]}, "geometry": {"type": "Point", "coordinates": [13.322056999999768, 52.45674403690334]}}, {"type": "Feature", "id": "https://gdi-de.github.io/apworkshop2026/17", "name": "", "dateprops": ["http://www.wikidata.org/prop/direct/P571", "http://www.wikidata.org/prop/direct/P571"], "properties": {"http://rdfs.org/ns/void#inDataset": ["https://gdk.gdi-de.org/inspire/srv/eng/xml_iso19139?uuid=8aaca41b-d665-447a-93ec-b76e431852fc", "https://gdi-de.github.io/apworkshop2026/gdide_dataset"], "http://www.opengis.net/ont/geosparql#hasGeometry": ["https://gdi-de.github.io/apworkshop2026/17_geom"], "http://www.w3.org/1999/02/22-rdf-syntax-ns#type": ["https://gdi-de.github.io/apworkshop2026/ont#Kaiser"], "http://www.w3.org/2000/01/rdf-schema#comment": ["Betriebszeit: Mai bis Oktober, Link: https://www.bwb.de/de/trinkbrunnen.php  "], "http://www.w3.org/2000/01/rdf-schema#label": ["Brunnen 17"], "http://www.w3.org/2004/02/skos/core#scopeNote": ["nan"], "http://www.w3.org/2006/time#hasTime": ["https://gdi-de.github.io/apworkshop2026/17_openmonths"], "http://www.w3.org/ns/locn#postCode": ["14195"], "http://www.wikidata.org/prop/direct/P131": ["http://www.wikidata.org/entity/Q158064", "http://www.wikidata.org/entity/Q64"], "http://www.wikidata.org/prop/direct/P571": ["1985"], "http://xmlns.com/foaf/0.1/homepage": ["https://www.bwb.de/de/trinkbrunnen.php"]}, "geometry": {"type": "Point", "coordinates": [13.30535799999974, 52.45883403690102]}}, {"type": "Feature", "id": "https://gdi-de.github.io/apworkshop2026/141", "name": "", "dateprops": ["http://www.wikidata.org/prop/direct/P571", "http://www.wikidata.org/prop/direct/P571"], "properties": {"http://rdfs.org/ns/void#inDataset": ["https://gdk.gdi-de.org/inspire/srv/eng/xml_iso19139?uuid=8aaca41b-d665-447a-93ec-b76e431852fc", "https://gdi-de.github.io/apworkshop2026/gdide_dataset"], "http://www.opengis.net/ont/geosparql#hasGeometry": ["https://gdi-de.github.io/apworkshop2026/141_geom"], "http://www.w3.org/1999/02/22-rdf-syntax-ns#type": ["https://gdi-de.github.io/apworkshop2026/ont#Bituma"], "http://www.w3.org/2000/01/rdf-schema#comment": ["Betriebszeit: Mai bis Oktober, Link: https://www.bwb.de/de/trinkbrunnen.php  "], "http://www.w3.org/2000/01/rdf-schema#label": ["Brunnen 141"], "http://www.w3.org/2004/02/skos/core#scopeNote": ["nan"], "http://www.w3.org/2006/time#hasTime": ["https://gdi-de.github.io/apworkshop2026/141_openmonths"], "http://www.w3.org/ns/locn#postCode": ["14163"], "http://www.wikidata.org/prop/direct/P131": ["http://www.wikidata.org/entity/Q158064", "http://www.wikidata.org/entity/Q64"], "http://www.wikidata.org/prop/direct/P571": ["2020"], "http://xmlns.com/foaf/0.1/homepage": ["https://www.bwb.de/de/trinkbrunnen.php"]}, "geometry": {"type": "Point", "coordinates": [13.240268999999591, 52.44241203691755]}}], "numberMatched": 16, "numberReturned": 16, "bbox": [13.214379999999563, 52.42522003693611, 13.34903099999988, 52.461316036898566], "crs": "http://www.opengis.net/def/crs/EPSG/0/4326"}