{"type": "FeatureCollection", "id": "http://www.wikidata.org/entity/Q158893", "name": "Friedrichshain-Kreuzberg", "features": [{"type": "Feature", "id": "https://gdi-de.github.io/apworkshop2026/180", "name": "", "dateprops": ["http://www.wikidata.org/prop/direct/P571", "http://www.wikidata.org/prop/direct/P571"], "properties": {"http://rdfs.org/ns/void#inDataset": ["https://gdk.gdi-de.org/inspire/srv/eng/xml_iso19139?uuid=8aaca41b-d665-447a-93ec-b76e431852fc", "https://gdi-de.github.io/apworkshop2026/gdide_dataset"], "http://www.opengis.net/ont/geosparql#hasGeometry": ["https://gdi-de.github.io/apworkshop2026/180_geom"], "http://www.w3.org/1999/02/22-rdf-syntax-ns#type": ["https://gdi-de.github.io/apworkshop2026/ont#Kaiser"], "http://www.w3.org/2000/01/rdf-schema#comment": ["Betriebszeit: Mai bis Oktober, Link: https://www.bwb.de/de/trinkbrunnen.php  "], "http://www.w3.org/2000/01/rdf-schema#label": ["Brunnen 180"], "http://www.w3.org/2004/02/skos/core#scopeNote": ["nan"], "http://www.w3.org/2006/time#hasTime": ["https://gdi-de.github.io/apworkshop2026/180_openmonths"], "http://www.w3.org/ns/locn#postCode": ["10967"], "http://www.wikidata.org/prop/direct/P131": ["http://www.wikidata.org/entity/Q158893", "http://www.wikidata.org/entity/Q64"], "http://www.wikidata.org/prop/direct/P571": ["2021"], "http://xmlns.com/foaf/0.1/homepage": ["https://www.bwb.de/de/trinkbrunnen.php"]}, "geometry": {"type": "Point", "coordinates": [13.415032, 52.49495403686398]}}, {"type": "Feature", "id": "https://gdi-de.github.io/apworkshop2026/210", "name": "", "dateprops": ["http://www.wikidata.org/prop/direct/P571", "http://www.wikidata.org/prop/direct/P571"], "properties": {"http://rdfs.org/ns/void#inDataset": ["https://gdk.gdi-de.org/inspire/srv/eng/xml_iso19139?uuid=8aaca41b-d665-447a-93ec-b76e431852fc", "https://gdi-de.github.io/apworkshop2026/gdide_dataset"], "http://www.opengis.net/ont/geosparql#hasGeometry": ["https://gdi-de.github.io/apworkshop2026/210_geom"], "http://www.w3.org/1999/02/22-rdf-syntax-ns#type": ["https://gdi-de.github.io/apworkshop2026/ont#Bituma"], "http://www.w3.org/2000/01/rdf-schema#comment": ["Betriebszeit: Mai bis Oktober, Link: https://www.bwb.de/de/trinkbrunnen.php  "], "http://www.w3.org/2000/01/rdf-schema#label": ["Brunnen 210"], "http://www.w3.org/2004/02/skos/core#scopeNote": ["nan"], "http://www.w3.org/2006/time#hasTime": ["https://gdi-de.github.io/apworkshop2026/210_openmonths"], "http://www.w3.org/ns/locn#postCode": ["10999"], "http://www.wikidata.org/prop/direct/P131": ["http://www.wikidata.org/entity/Q158893", "http://www.wikidata.org/entity/Q64"], "http://www.wikidata.org/prop/direct/P571": ["2023"], "http://xmlns.com/foaf/0.1/homepage": ["https://www.bwb.de/de/trinkbrunnen.php"]}, "geometry": {"type": "Point", "coordinates": [13.423795, 52.49924803685959]}}, {"type": "Feature", "id": "https://gdi-de.github.io/apworkshop2026/171", "name": "", "dateprops": ["http://www.wikidata.org/prop/direct/P571", "http://www.wikidata.org/prop/direct/P571"], "properties": {"http://rdfs.org/ns/void#inDataset": ["https://gdk.gdi-de.org/inspire/srv/eng/xml_iso19139?uuid=8aaca41b-d665-447a-93ec-b76e431852fc", "https://gdi-de.github.io/apworkshop2026/gdide_dataset"], "http://www.opengis.net/ont/geosparql#hasGeometry": ["https://gdi-de.github.io/apworkshop2026/171_geom"], "http://www.w3.org/1999/02/22-rdf-syntax-ns#type": ["https://gdi-de.github.io/apworkshop2026/ont#Kaiser"], "http://www.w3.org/2000/01/rdf-schema#comment": ["Betriebszeit: Mai bis Oktober, Link: https://www.bwb.de/de/trinkbrunnen.php  "], "http://www.w3.org/2000/01/rdf-schema#label": ["Brunnen 171"], "http://www.w3.org/2004/02/skos/core#scopeNote": ["nan"], "http://www.w3.org/2006/time#hasTime": ["https://gdi-de.github.io/apworkshop2026/171_openmonths"], "http://www.w3.org/ns/locn#postCode": ["10969"], "http://www.wikidata.org/prop/direct/P131": ["http://www.wikidata.org/entity/Q158893", "http://www.wikidata.org/entity/Q64"], "http://www.wikidata.org/prop/direct/P571": ["2021"], "http://xmlns.com/foaf/0.1/homepage": ["https://www.bwb.de/de/trinkbrunnen.php"]}, "geometry": {"type": "Point", "coordinates": [13.406199, 52.497999036860804]}}, {"type": "Feature", "id": "https://gdi-de.github.io/apworkshop2026/179", "name": "", "dateprops": ["http://www.wikidata.org/prop/direct/P571", "http://www.wikidata.org/prop/direct/P571"], "properties": {"http://rdfs.org/ns/void#inDataset": ["https://gdk.gdi-de.org/inspire/srv/eng/xml_iso19139?uuid=8aaca41b-d665-447a-93ec-b76e431852fc", "https://gdi-de.github.io/apworkshop2026/gdide_dataset"], "http://www.opengis.net/ont/geosparql#hasGeometry": ["https://gdi-de.github.io/apworkshop2026/179_geom"], "http://www.w3.org/1999/02/22-rdf-syntax-ns#type": ["https://gdi-de.github.io/apworkshop2026/ont#Kaiser"], "http://www.w3.org/2000/01/rdf-schema#comment": ["Betriebszeit: Mai bis Oktober, Link: https://www.bwb.de/de/trinkbrunnen.php  "], "http://www.w3.org/2000/01/rdf-schema#label": ["Brunnen 179"], "http://www.w3.org/2004/02/skos/core#scopeNote": ["nan"], "http://www.w3.org/2006/time#hasTime": ["https://gdi-de.github.io/apworkshop2026/179_openmonths"], "http://www.w3.org/ns/locn#postCode": ["10245"], "http://www.wikidata.org/prop/direct/P131": ["http://www.wikidata.org/entity/Q158893", "http://www.wikidata.org/entity/Q64"], "http://www.wikidata.org/prop/direct/P571": ["2021"], "http://xmlns.com/foaf/0.1/homepage": ["https://www.bwb.de/de/trinkbrunnen.php"]}, "geometry": {"type": "Point", "coordinates": [13.482062, 52.48925003687029]}}, {"type": "Feature", "id": "https://gdi-de.github.io/apworkshop2026/66", "name": "", "dateprops": ["http://www.wikidata.org/prop/direct/P571", "http://www.wikidata.org/prop/direct/P571"], "properties": {"http://rdfs.org/ns/void#inDataset": ["https://gdk.gdi-de.org/inspire/srv/eng/xml_iso19139?uuid=8aaca41b-d665-447a-93ec-b76e431852fc", "https://gdi-de.github.io/apworkshop2026/gdide_dataset"], "http://www.opengis.net/ont/geosparql#hasGeometry": ["https://gdi-de.github.io/apworkshop2026/66_geom"], "http://www.w3.org/1999/02/22-rdf-syntax-ns#type": ["https://gdi-de.github.io/apworkshop2026/ont#Kaiser"], "http://www.w3.org/2000/01/rdf-schema#comment": ["Betriebszeit: Mai bis Oktober, Link: https://www.bwb.de/de/trinkbrunnen.php  "], "http://www.w3.org/2000/01/rdf-schema#label": ["Brunnen 66"], "http://www.w3.org/2004/02/skos/core#scopeNote": ["nan"], "http://www.w3.org/2006/time#hasTime": ["https://gdi-de.github.io/apworkshop2026/66_openmonths"], "http://www.w3.org/ns/locn#postCode": ["10967"], "http://www.wikidata.org/prop/direct/P131": ["http://www.wikidata.org/entity/Q158893", "http://www.wikidata.org/entity/Q64"], "http://www.wikidata.org/prop/direct/P571": ["2019"], "http://xmlns.com/foaf/0.1/homepage": ["https://www.bwb.de/de/trinkbrunnen.php"]}, "geometry": {"type": "Point", "coordinates": [13.423177, 52.49089603686831]}}, {"type": "Feature", "id": "https://gdi-de.github.io/apworkshop2026/132", "name": "", "dateprops": ["http://www.wikidata.org/prop/direct/P571", "http://www.wikidata.org/prop/direct/P571"], "properties": {"http://rdfs.org/ns/void#inDataset": ["https://gdk.gdi-de.org/inspire/srv/eng/xml_iso19139?uuid=8aaca41b-d665-447a-93ec-b76e431852fc", "https://gdi-de.github.io/apworkshop2026/gdide_dataset"], "http://www.opengis.net/ont/geosparql#hasGeometry": ["https://gdi-de.github.io/apworkshop2026/132_geom"], "http://www.w3.org/1999/02/22-rdf-syntax-ns#type": ["https://gdi-de.github.io/apworkshop2026/ont#Bituma"], "http://www.w3.org/2000/01/rdf-schema#comment": ["Betriebszeit: Mai bis Oktober, Link: https://www.bwb.de/de/trinkbrunnen.php  "], "http://www.w3.org/2000/01/rdf-schema#label": ["Brunnen 132"], "http://www.w3.org/2004/02/skos/core#scopeNote": ["nan"], "http://www.w3.org/2006/time#hasTime": ["https://gdi-de.github.io/apworkshop2026/132_openmonths"], "http://www.w3.org/ns/locn#postCode": ["10969"], "http://www.wikidata.org/prop/direct/P131": ["http://www.wikidata.org/entity/Q158893", "http://www.wikidata.org/entity/Q64"], "http://www.wikidata.org/prop/direct/P571": ["2020"], "http://xmlns.com/foaf/0.1/homepage": ["https://www.bwb.de/de/trinkbrunnen.php"]}, "geometry": {"type": "Point", "coordinates": [13.391295, 52.504158036854214]}}, {"type": "Feature", "id": "https://gdi-de.github.io/apworkshop2026/187", "name": "", "dateprops": ["http://www.wikidata.org/prop/direct/P571", "http://www.wikidata.org/prop/direct/P571"], "properties": {"http://rdfs.org/ns/void#inDataset": ["https://gdk.gdi-de.org/inspire/srv/eng/xml_iso19139?uuid=8aaca41b-d665-447a-93ec-b76e431852fc", "https://gdi-de.github.io/apworkshop2026/gdide_dataset"], "http://www.opengis.net/ont/geosparql#hasGeometry": ["https://gdi-de.github.io/apworkshop2026/187_geom"], "http://www.w3.org/1999/02/22-rdf-syntax-ns#type": ["https://gdi-de.github.io/apworkshop2026/ont#Bituma"], "http://www.w3.org/2000/01/rdf-schema#comment": ["Betriebszeit: Mai bis Oktober, Link: https://www.bwb.de/de/trinkbrunnen.php  "], "http://www.w3.org/2000/01/rdf-schema#label": ["Brunnen 187"], "http://www.w3.org/2004/02/skos/core#scopeNote": ["nan"], "http://www.w3.org/2006/time#hasTime": ["https://gdi-de.github.io/apworkshop2026/187_openmonths"], "http://www.w3.org/ns/locn#postCode": ["10997"], "http://www.wikidata.org/prop/direct/P131": ["http://www.wikidata.org/entity/Q158893", "http://www.wikidata.org/entity/Q64"], "http://www.wikidata.org/prop/direct/P571": ["2022"], "http://xmlns.com/foaf/0.1/homepage": ["https://www.bwb.de/de/trinkbrunnen.php"]}, "geometry": {"type": "Point", "coordinates": [13.431536, 52.50046703685832]}}, {"type": "Feature", "id": "https://gdi-de.github.io/apworkshop2026/103", "name": "", "dateprops": ["http://www.wikidata.org/prop/direct/P571", "http://www.wikidata.org/prop/direct/P571"], "properties": {"http://rdfs.org/ns/void#inDataset": ["https://gdk.gdi-de.org/inspire/srv/eng/xml_iso19139?uuid=8aaca41b-d665-447a-93ec-b76e431852fc", "https://gdi-de.github.io/apworkshop2026/gdide_dataset"], "http://www.opengis.net/ont/geosparql#hasGeometry": ["https://gdi-de.github.io/apworkshop2026/103_geom"], "http://www.w3.org/1999/02/22-rdf-syntax-ns#type": ["https://gdi-de.github.io/apworkshop2026/ont#Kaiser"], "http://www.w3.org/2000/01/rdf-schema#comment": ["Betriebszeit: Mai bis Oktober, Link: https://www.bwb.de/de/trinkbrunnen.php  "], "http://www.w3.org/2000/01/rdf-schema#label": ["Brunnen 103"], "http://www.w3.org/2004/02/skos/core#scopeNote": ["nan"], "http://www.w3.org/2006/time#hasTime": ["https://gdi-de.github.io/apworkshop2026/103_openmonths"], "http://www.w3.org/ns/locn#postCode": ["10243"], "http://www.wikidata.org/prop/direct/P131": ["http://www.wikidata.org/entity/Q158893", "http://www.wikidata.org/entity/Q64"], "http://www.wikidata.org/prop/direct/P571": ["2019"], "http://xmlns.com/foaf/0.1/homepage": ["https://www.bwb.de/de/trinkbrunnen.php"]}, "geometry": {"type": "Point", "coordinates": [13.429307, 52.518702036839215]}}, {"type": "Feature", "id": "https://gdi-de.github.io/apworkshop2026/104", "name": "", "dateprops": ["http://www.wikidata.org/prop/direct/P571", "http://www.wikidata.org/prop/direct/P571"], "properties": {"http://rdfs.org/ns/void#inDataset": ["https://gdk.gdi-de.org/inspire/srv/eng/xml_iso19139?uuid=8aaca41b-d665-447a-93ec-b76e431852fc", "https://gdi-de.github.io/apworkshop2026/gdide_dataset"], "http://www.opengis.net/ont/geosparql#hasGeometry": ["https://gdi-de.github.io/apworkshop2026/104_geom"], "http://www.w3.org/1999/02/22-rdf-syntax-ns#type": ["https://gdi-de.github.io/apworkshop2026/ont#Kaiser"], "http://www.w3.org/2000/01/rdf-schema#comment": ["Betriebszeit: Mai bis Oktober, Link: https://www.bwb.de/de/trinkbrunnen.php  "], "http://www.w3.org/2000/01/rdf-schema#label": ["Brunnen 104"], "http://www.w3.org/2004/02/skos/core#scopeNote": ["nan"], "http://www.w3.org/2006/time#hasTime": ["https://gdi-de.github.io/apworkshop2026/104_openmonths"], "http://www.w3.org/ns/locn#postCode": ["10243"], "http://www.wikidata.org/prop/direct/P131": ["http://www.wikidata.org/entity/Q158893", "http://www.wikidata.org/entity/Q64"], "http://www.wikidata.org/prop/direct/P571": ["2019"], "http://xmlns.com/foaf/0.1/homepage": ["https://www.bwb.de/de/trinkbrunnen.php"]}, "geometry": {"type": "Point", "coordinates": [13.438653, 52.51778703684023]}}, {"type": "Feature", "id": "https://gdi-de.github.io/apworkshop2026/4", "name": "", "dateprops": ["http://www.wikidata.org/prop/direct/P571", "http://www.wikidata.org/prop/direct/P571"], "properties": {"http://rdfs.org/ns/void#inDataset": ["https://gdk.gdi-de.org/inspire/srv/eng/xml_iso19139?uuid=8aaca41b-d665-447a-93ec-b76e431852fc", "https://gdi-de.github.io/apworkshop2026/gdide_dataset"], "http://www.opengis.net/ont/geosparql#hasGeometry": ["https://gdi-de.github.io/apworkshop2026/4_geom"], "http://www.w3.org/1999/02/22-rdf-syntax-ns#type": ["https://gdi-de.github.io/apworkshop2026/ont#Kaiser"], "http://www.w3.org/2000/01/rdf-schema#comment": ["Betriebszeit: Mai bis Oktober, Link: https://www.bwb.de/de/trinkbrunnen.php  "], "http://www.w3.org/2000/01/rdf-schema#label": ["Brunnen 4"], "http://www.w3.org/2004/02/skos/core#scopeNote": ["nan"], "http://www.w3.org/2006/time#hasTime": ["https://gdi-de.github.io/apworkshop2026/4_openmonths"], "http://www.w3.org/ns/locn#postCode": ["10243"], "http://www.wikidata.org/prop/direct/P131": ["http://www.wikidata.org/entity/Q158893", "http://www.wikidata.org/entity/Q64"], "http://www.wikidata.org/prop/direct/P571": ["1985"], "http://xmlns.com/foaf/0.1/homepage": ["https://www.bwb.de/de/trinkbrunnen.php"]}, "geometry": {"type": "Point", "coordinates": [13.435318, 52.52929003682814]}}, {"type": "Feature", "id": "https://gdi-de.github.io/apworkshop2026/108", "name": "", "dateprops": ["http://www.wikidata.org/prop/direct/P571", "http://www.wikidata.org/prop/direct/P571"], "properties": {"http://rdfs.org/ns/void#inDataset": ["https://gdk.gdi-de.org/inspire/srv/eng/xml_iso19139?uuid=8aaca41b-d665-447a-93ec-b76e431852fc", "https://gdi-de.github.io/apworkshop2026/gdide_dataset"], "http://www.opengis.net/ont/geosparql#hasGeometry": ["https://gdi-de.github.io/apworkshop2026/108_geom"], "http://www.w3.org/1999/02/22-rdf-syntax-ns#type": ["https://gdi-de.github.io/apworkshop2026/ont#Kaiser"], "http://www.w3.org/2000/01/rdf-schema#comment": ["Betriebszeit: Mai bis Oktober, Link: https://www.bwb.de/de/trinkbrunnen.php  "], "http://www.w3.org/2000/01/rdf-schema#label": ["Brunnen 108"], "http://www.w3.org/2004/02/skos/core#scopeNote": ["nan"], "http://www.w3.org/2006/time#hasTime": ["https://gdi-de.github.io/apworkshop2026/108_openmonths"], "http://www.w3.org/ns/locn#postCode": ["10243"], "http://www.wikidata.org/prop/direct/P131": ["http://www.wikidata.org/entity/Q158893", "http://www.wikidata.org/entity/Q64"], "http://www.wikidata.org/prop/direct/P571": ["2019"], "http://xmlns.com/foaf/0.1/homepage": ["https://www.bwb.de/de/trinkbrunnen.php"]}, "geometry": {"type": "Point", "coordinates": [13.442812, 52.51604703684203]}}, {"type": "Feature", "id": "https://gdi-de.github.io/apworkshop2026/65", "name": "", "dateprops": ["http://www.wikidata.org/prop/direct/P571", "http://www.wikidata.org/prop/direct/P571"], "properties": {"http://rdfs.org/ns/void#inDataset": ["https://gdk.gdi-de.org/inspire/srv/eng/xml_iso19139?uuid=8aaca41b-d665-447a-93ec-b76e431852fc", "https://gdi-de.github.io/apworkshop2026/gdide_dataset"], "http://www.opengis.net/ont/geosparql#hasGeometry": ["https://gdi-de.github.io/apworkshop2026/65_geom"], "http://www.w3.org/1999/02/22-rdf-syntax-ns#type": ["https://gdi-de.github.io/apworkshop2026/ont#Kaiser"], "http://www.w3.org/2000/01/rdf-schema#comment": ["Betriebszeit: Mai bis Oktober, Link: https://www.bwb.de/de/trinkbrunnen.php  "], "http://www.w3.org/2000/01/rdf-schema#label": ["Brunnen 65"], "http://www.w3.org/2004/02/skos/core#scopeNote": ["nan"], "http://www.w3.org/2006/time#hasTime": ["https://gdi-de.github.io/apworkshop2026/65_openmonths"], "http://www.w3.org/ns/locn#postCode": ["10243"], "http://www.wikidata.org/prop/direct/P131": ["http://www.wikidata.org/entity/Q158893", "http://www.wikidata.org/entity/Q64"], "http://www.wikidata.org/prop/direct/P571": ["2018"], "http://xmlns.com/foaf/0.1/homepage": ["https://www.bwb.de/de/trinkbrunnen.php"]}, "geometry": {"type": "Point", "coordinates": [13.433995, 52.5115750368467]}}, {"type": "Feature", "id": "https://gdi-de.github.io/apworkshop2026/189", "name": "", "dateprops": ["http://www.wikidata.org/prop/direct/P571", "http://www.wikidata.org/prop/direct/P571"], "properties": {"http://rdfs.org/ns/void#inDataset": ["https://gdk.gdi-de.org/inspire/srv/eng/xml_iso19139?uuid=8aaca41b-d665-447a-93ec-b76e431852fc", "https://gdi-de.github.io/apworkshop2026/gdide_dataset"], "http://www.opengis.net/ont/geosparql#hasGeometry": ["https://gdi-de.github.io/apworkshop2026/189_geom"], "http://www.w3.org/1999/02/22-rdf-syntax-ns#type": ["https://gdi-de.github.io/apworkshop2026/ont#Kaiser"], "http://www.w3.org/2000/01/rdf-schema#comment": ["Betriebszeit: Mai bis Oktober, Link: https://www.bwb.de/de/trinkbrunnen.php  "], "http://www.w3.org/2000/01/rdf-schema#label": ["Brunnen 189"], "http://www.w3.org/2004/02/skos/core#scopeNote": ["nan"], "http://www.w3.org/2006/time#hasTime": ["https://gdi-de.github.io/apworkshop2026/189_openmonths"], "http://www.w3.org/ns/locn#postCode": ["10969"], "http://www.wikidata.org/prop/direct/P131": ["http://www.wikidata.org/entity/Q158893", "http://www.wikidata.org/entity/Q64"], "http://www.wikidata.org/prop/direct/P571": ["2022"], "http://xmlns.com/foaf/0.1/homepage": ["https://www.bwb.de/de/trinkbrunnen.php"]}, "geometry": {"type": "Point", "coordinates": [13.405741, 52.49683603686203]}}, {"type": "Feature", "id": "https://gdi-de.github.io/apworkshop2026/124", "name": "", "dateprops": ["http://www.wikidata.org/prop/direct/P571", "http://www.wikidata.org/prop/direct/P571"], "properties": {"http://rdfs.org/ns/void#inDataset": ["https://gdk.gdi-de.org/inspire/srv/eng/xml_iso19139?uuid=8aaca41b-d665-447a-93ec-b76e431852fc", "https://gdi-de.github.io/apworkshop2026/gdide_dataset"], "http://www.opengis.net/ont/geosparql#hasGeometry": ["https://gdi-de.github.io/apworkshop2026/124_geom"], "http://www.w3.org/1999/02/22-rdf-syntax-ns#type": ["https://gdi-de.github.io/apworkshop2026/ont#Bituma"], "http://www.w3.org/2000/01/rdf-schema#comment": ["Betriebszeit: Mai bis Oktober, Link: https://www.bwb.de/de/trinkbrunnen.php  "], "http://www.w3.org/2000/01/rdf-schema#label": ["Brunnen 124"], "http://www.w3.org/2004/02/skos/core#scopeNote": ["nan"], "http://www.w3.org/2006/time#hasTime": ["https://gdi-de.github.io/apworkshop2026/124_openmonths"], "http://www.w3.org/ns/locn#postCode": ["10969"], "http://www.wikidata.org/prop/direct/P131": ["http://www.wikidata.org/entity/Q158893", "http://www.wikidata.org/entity/Q64"], "http://www.wikidata.org/prop/direct/P571": ["2020"], "http://xmlns.com/foaf/0.1/homepage": ["https://www.bwb.de/de/trinkbrunnen.php"]}, "geometry": {"type": "Point", "coordinates": [13.39162, 52.50098603685757]}}, {"type": "Feature", "id": "https://gdi-de.github.io/apworkshop2026/194", "name": "", "dateprops": ["http://www.wikidata.org/prop/direct/P571", "http://www.wikidata.org/prop/direct/P571"], "properties": {"http://rdfs.org/ns/void#inDataset": ["https://gdk.gdi-de.org/inspire/srv/eng/xml_iso19139?uuid=8aaca41b-d665-447a-93ec-b76e431852fc", "https://gdi-de.github.io/apworkshop2026/gdide_dataset"], "http://www.opengis.net/ont/geosparql#hasGeometry": ["https://gdi-de.github.io/apworkshop2026/194_geom"], "http://www.w3.org/1999/02/22-rdf-syntax-ns#type": ["https://gdi-de.github.io/apworkshop2026/ont#Bituma"], "http://www.w3.org/2000/01/rdf-schema#comment": ["Betriebszeit: Mai bis Oktober, Link: https://www.bwb.de/de/trinkbrunnen.php  "], "http://www.w3.org/2000/01/rdf-schema#label": ["Brunnen 194"], "http://www.w3.org/2004/02/skos/core#scopeNote": ["nan"], "http://www.w3.org/2006/time#hasTime": ["https://gdi-de.github.io/apworkshop2026/194_openmonths"], "http://www.w3.org/ns/locn#postCode": ["10247"], "http://www.wikidata.org/prop/direct/P131": ["http://www.wikidata.org/entity/Q158893", "http://www.wikidata.org/entity/Q64"], "http://www.wikidata.org/prop/direct/P571": ["2022"], "http://xmlns.com/foaf/0.1/homepage": ["https://www.bwb.de/de/trinkbrunnen.php"]}, "geometry": {"type": "Point", "coordinates": [13.472324, 52.51552003684278]}}, {"type": "Feature", "id": "https://gdi-de.github.io/apworkshop2026/92", "name": "", "dateprops": ["http://www.wikidata.org/prop/direct/P571", "http://www.wikidata.org/prop/direct/P571"], "properties": {"http://rdfs.org/ns/void#inDataset": ["https://gdk.gdi-de.org/inspire/srv/eng/xml_iso19139?uuid=8aaca41b-d665-447a-93ec-b76e431852fc", "https://gdi-de.github.io/apworkshop2026/gdide_dataset"], "http://www.opengis.net/ont/geosparql#hasGeometry": ["https://gdi-de.github.io/apworkshop2026/92_geom"], "http://www.w3.org/1999/02/22-rdf-syntax-ns#type": ["https://gdi-de.github.io/apworkshop2026/ont#Kaiser"], "http://www.w3.org/2000/01/rdf-schema#comment": ["Betriebszeit: Mai bis Oktober, Link: https://www.bwb.de/de/trinkbrunnen.php  "], "http://www.w3.org/2000/01/rdf-schema#label": ["Brunnen 92"], "http://www.w3.org/2004/02/skos/core#scopeNote": ["nan"], "http://www.w3.org/2006/time#hasTime": ["https://gdi-de.github.io/apworkshop2026/92_openmonths"], "http://www.w3.org/ns/locn#postCode": ["10961"], "http://www.wikidata.org/prop/direct/P131": ["http://www.wikidata.org/entity/Q158893", "http://www.wikidata.org/entity/Q64"], "http://www.wikidata.org/prop/direct/P571": ["2019"], "http://xmlns.com/foaf/0.1/homepage": ["https://www.bwb.de/de/trinkbrunnen.php"]}, "geometry": {"type": "Point", "coordinates": [13.395851, 52.489007036870106]}}, {"type": "Feature", "id": "https://gdi-de.github.io/apworkshop2026/139", "name": "", "dateprops": ["http://www.wikidata.org/prop/direct/P571", "http://www.wikidata.org/prop/direct/P571"], "properties": {"http://rdfs.org/ns/void#inDataset": ["https://gdk.gdi-de.org/inspire/srv/eng/xml_iso19139?uuid=8aaca41b-d665-447a-93ec-b76e431852fc", "https://gdi-de.github.io/apworkshop2026/gdide_dataset"], "http://www.opengis.net/ont/geosparql#hasGeometry": ["https://gdi-de.github.io/apworkshop2026/139_geom"], "http://www.w3.org/1999/02/22-rdf-syntax-ns#type": ["https://gdi-de.github.io/apworkshop2026/ont#Kaiser"], "http://www.w3.org/2000/01/rdf-schema#comment": ["Betriebszeit: Mai bis Oktober, Link: https://www.bwb.de/de/trinkbrunnen.php  "], "http://www.w3.org/2000/01/rdf-schema#label": ["Brunnen 139"], "http://www.w3.org/2004/02/skos/core#scopeNote": ["nan"], "http://www.w3.org/2006/time#hasTime": ["https://gdi-de.github.io/apworkshop2026/139_openmonths"], "http://www.w3.org/ns/locn#postCode": ["10249"], "http://www.wikidata.org/prop/direct/P131": ["http://www.wikidata.org/entity/Q158893", "http://www.wikidata.org/entity/Q64"], "http://www.wikidata.org/prop/direct/P571": ["2020"], "http://xmlns.com/foaf/0.1/homepage": ["https://www.bwb.de/de/trinkbrunnen.php"]}, "geometry": {"type": "Point", "coordinates": [13.440618, 52.526564036831005]}}, {"type": "Feature", "id": "https://gdi-de.github.io/apworkshop2026/164", "name": "", "dateprops": ["http://www.wikidata.org/prop/direct/P571", "http://www.wikidata.org/prop/direct/P571"], "properties": {"http://rdfs.org/ns/void#inDataset": ["https://gdk.gdi-de.org/inspire/srv/eng/xml_iso19139?uuid=8aaca41b-d665-447a-93ec-b76e431852fc", "https://gdi-de.github.io/apworkshop2026/gdide_dataset"], "http://www.opengis.net/ont/geosparql#hasGeometry": ["https://gdi-de.github.io/apworkshop2026/164_geom"], "http://www.w3.org/1999/02/22-rdf-syntax-ns#type": ["https://gdi-de.github.io/apworkshop2026/ont#Bituma"], "http://www.w3.org/2000/01/rdf-schema#comment": ["Betriebszeit: Mai bis Oktober, Link: https://www.bwb.de/de/trinkbrunnen.php  "], "http://www.w3.org/2000/01/rdf-schema#label": ["Brunnen 164"], "http://www.w3.org/2004/02/skos/core#scopeNote": ["nan"], "http://www.w3.org/2006/time#hasTime": ["https://gdi-de.github.io/apworkshop2026/164_openmonths"], "http://www.w3.org/ns/locn#postCode": ["10245"], "http://www.wikidata.org/prop/direct/P131": ["http://www.wikidata.org/entity/Q158893", "http://www.wikidata.org/entity/Q64"], "http://www.wikidata.org/prop/direct/P571": ["2020"], "http://xmlns.com/foaf/0.1/homepage": ["https://www.bwb.de/de/trinkbrunnen.php"]}, "geometry": {"type": "Point", "coordinates": [13.455524, 52.504335036854414]}}, {"type": "Feature", "id": "https://gdi-de.github.io/apworkshop2026/188", "name": "", "dateprops": ["http://www.wikidata.org/prop/direct/P571", "http://www.wikidata.org/prop/direct/P571"], "properties": {"http://rdfs.org/ns/void#inDataset": ["https://gdk.gdi-de.org/inspire/srv/eng/xml_iso19139?uuid=8aaca41b-d665-447a-93ec-b76e431852fc", "https://gdi-de.github.io/apworkshop2026/gdide_dataset"], "http://www.opengis.net/ont/geosparql#hasGeometry": ["https://gdi-de.github.io/apworkshop2026/188_geom"], "http://www.w3.org/1999/02/22-rdf-syntax-ns#type": ["https://gdi-de.github.io/apworkshop2026/ont#Bituma"], "http://www.w3.org/2000/01/rdf-schema#comment": ["Betriebszeit: Mai bis Oktober, Link: https://www.bwb.de/de/trinkbrunnen.php  "], "http://www.w3.org/2000/01/rdf-schema#label": ["Brunnen 188"], "http://www.w3.org/2004/02/skos/core#scopeNote": ["nan"], "http://www.w3.org/2006/time#hasTime": ["https://gdi-de.github.io/apworkshop2026/188_openmonths"], "http://www.w3.org/ns/locn#postCode": ["10997"], "http://www.wikidata.org/prop/direct/P131": ["http://www.wikidata.org/entity/Q158893", "http://www.wikidata.org/entity/Q64"], "http://www.wikidata.org/prop/direct/P571": ["2022"], "http://xmlns.com/foaf/0.1/homepage": ["https://www.bwb.de/de/trinkbrunnen.php"]}, "geometry": {"type": "Point", "coordinates": [13.430566, 52.50082503685795]}}, {"type": "Feature", "id": "https://gdi-de.github.io/apworkshop2026/44", "name": "", "dateprops": ["http://www.wikidata.org/prop/direct/P571", "http://www.wikidata.org/prop/direct/P571"], "properties": {"http://rdfs.org/ns/void#inDataset": ["https://gdk.gdi-de.org/inspire/srv/eng/xml_iso19139?uuid=8aaca41b-d665-447a-93ec-b76e431852fc", "https://gdi-de.github.io/apworkshop2026/gdide_dataset"], "http://www.opengis.net/ont/geosparql#hasGeometry": ["https://gdi-de.github.io/apworkshop2026/44_geom"], "http://www.w3.org/1999/02/22-rdf-syntax-ns#type": ["https://gdi-de.github.io/apworkshop2026/ont#Kaiser"], "http://www.w3.org/2000/01/rdf-schema#comment": ["Betriebszeit: Mai bis Oktober, Link: https://www.bwb.de/de/trinkbrunnen.php  "], "http://www.w3.org/2000/01/rdf-schema#label": ["Brunnen 44"], "http://www.w3.org/2004/02/skos/core#scopeNote": ["nan"], "http://www.w3.org/2006/time#hasTime": ["https://gdi-de.github.io/apworkshop2026/44_openmonths"], "http://www.w3.org/ns/locn#postCode": ["10243"], "http://www.wikidata.org/prop/direct/P131": ["http://www.wikidata.org/entity/Q158893", "http://www.wikidata.org/entity/Q64"], "http://www.wikidata.org/prop/direct/P571": ["2018"], "http://xmlns.com/foaf/0.1/homepage": ["https://www.bwb.de/de/trinkbrunnen.php"]}, "geometry": {"type": "Point", "coordinates": [13.448724, 52.511354036847024]}}, {"type": "Feature", "id": "https://gdi-de.github.io/apworkshop2026/122", "name": "", "dateprops": ["http://www.wikidata.org/prop/direct/P571", "http://www.wikidata.org/prop/direct/P571"], "properties": {"http://rdfs.org/ns/void#inDataset": ["https://gdk.gdi-de.org/inspire/srv/eng/xml_iso19139?uuid=8aaca41b-d665-447a-93ec-b76e431852fc", "https://gdi-de.github.io/apworkshop2026/gdide_dataset"], "http://www.opengis.net/ont/geosparql#hasGeometry": ["https://gdi-de.github.io/apworkshop2026/122_geom"], "http://www.w3.org/1999/02/22-rdf-syntax-ns#type": ["https://gdi-de.github.io/apworkshop2026/ont#Kaiser"], "http://www.w3.org/2000/01/rdf-schema#comment": ["Betriebszeit: Mai bis Oktober, Link: https://www.bwb.de/de/trinkbrunnen.php  "], "http://www.w3.org/2000/01/rdf-schema#label": ["Brunnen 122"], "http://www.w3.org/2004/02/skos/core#scopeNote": ["nan"], "http://www.w3.org/2006/time#hasTime": ["https://gdi-de.github.io/apworkshop2026/122_openmonths"], "http://www.w3.org/ns/locn#postCode": ["10963"], "http://www.wikidata.org/prop/direct/P131": ["http://www.wikidata.org/entity/Q158893", "http://www.wikidata.org/entity/Q64"], "http://www.wikidata.org/prop/direct/P571": ["2019"], "http://xmlns.com/foaf/0.1/homepage": ["https://www.bwb.de/de/trinkbrunnen.php"]}, "geometry": {"type": "Point", "coordinates": [13.377941, 52.49648403686219]}}, {"type": "Feature", "id": "https://gdi-de.github.io/apworkshop2026/109", "name": "", "dateprops": ["http://www.wikidata.org/prop/direct/P571", "http://www.wikidata.org/prop/direct/P571"], "properties": {"http://rdfs.org/ns/void#inDataset": ["https://gdk.gdi-de.org/inspire/srv/eng/xml_iso19139?uuid=8aaca41b-d665-447a-93ec-b76e431852fc", "https://gdi-de.github.io/apworkshop2026/gdide_dataset"], "http://www.opengis.net/ont/geosparql#hasGeometry": ["https://gdi-de.github.io/apworkshop2026/109_geom"], "http://www.w3.org/1999/02/22-rdf-syntax-ns#type": ["https://gdi-de.github.io/apworkshop2026/ont#Kaiser"], "http://www.w3.org/2000/01/rdf-schema#comment": ["Betriebszeit: Mai bis Oktober, Link: https://www.bwb.de/de/trinkbrunnen.php  "], "http://www.w3.org/2000/01/rdf-schema#label": ["Brunnen 109"], "http://www.w3.org/2004/02/skos/core#scopeNote": ["nan"], "http://www.w3.org/2006/time#hasTime": ["https://gdi-de.github.io/apworkshop2026/109_openmonths"], "http://www.w3.org/ns/locn#postCode": ["10961"], "http://www.wikidata.org/prop/direct/P131": ["http://www.wikidata.org/entity/Q158893", "http://www.wikidata.org/entity/Q64"], "http://www.wikidata.org/prop/direct/P571": ["2019"], "http://xmlns.com/foaf/0.1/homepage": ["https://www.bwb.de/de/trinkbrunnen.php"]}, "geometry": {"type": "Point", "coordinates": [13.407814, 52.48947903686968]}}, {"type": "Feature", "id": "https://gdi-de.github.io/apworkshop2026/24", "name": "", "dateprops": ["http://www.wikidata.org/prop/direct/P571", "http://www.wikidata.org/prop/direct/P571"], "properties": {"http://rdfs.org/ns/void#inDataset": ["https://gdk.gdi-de.org/inspire/srv/eng/xml_iso19139?uuid=8aaca41b-d665-447a-93ec-b76e431852fc", "https://gdi-de.github.io/apworkshop2026/gdide_dataset"], "http://www.opengis.net/ont/geosparql#hasGeometry": ["https://gdi-de.github.io/apworkshop2026/24_geom"], "http://www.w3.org/1999/02/22-rdf-syntax-ns#type": ["https://gdi-de.github.io/apworkshop2026/ont#Botsch"], "http://www.w3.org/2000/01/rdf-schema#comment": ["Betriebszeit: Mai bis Oktober, Link: https://www.bwb.de/de/trinkbrunnen.php  "], "http://www.w3.org/2000/01/rdf-schema#label": ["Brunnen 24"], "http://www.w3.org/2004/02/skos/core#scopeNote": ["nan"], "http://www.w3.org/2006/time#hasTime": ["https://gdi-de.github.io/apworkshop2026/24_openmonths"], "http://www.w3.org/ns/locn#postCode": ["10963"], "http://www.wikidata.org/prop/direct/P131": ["http://www.wikidata.org/entity/Q158893", "http://www.wikidata.org/entity/Q64"], "http://www.wikidata.org/prop/direct/P571": ["2013"], "http://xmlns.com/foaf/0.1/homepage": ["https://www.bwb.de/de/trinkbrunnen.php"]}, "geometry": {"type": "Point", "coordinates": [13.372957999999873, 52.499386036859114]}}, {"type": "Feature", "id": "https://gdi-de.github.io/apworkshop2026/105", "name": "", "dateprops": ["http://www.wikidata.org/prop/direct/P571", "http://www.wikidata.org/prop/direct/P571"], "properties": {"http://rdfs.org/ns/void#inDataset": ["https://gdk.gdi-de.org/inspire/srv/eng/xml_iso19139?uuid=8aaca41b-d665-447a-93ec-b76e431852fc", "https://gdi-de.github.io/apworkshop2026/gdide_dataset"], "http://www.opengis.net/ont/geosparql#hasGeometry": ["https://gdi-de.github.io/apworkshop2026/105_geom"], "http://www.w3.org/1999/02/22-rdf-syntax-ns#type": ["https://gdi-de.github.io/apworkshop2026/ont#Kaiser"], "http://www.w3.org/2000/01/rdf-schema#comment": ["Betriebszeit: Mai bis Oktober, Link: https://www.bwb.de/de/trinkbrunnen.php  "], "http://www.w3.org/2000/01/rdf-schema#label": ["Brunnen 105"], "http://www.w3.org/2004/02/skos/core#scopeNote": ["nan"], "http://www.w3.org/2006/time#hasTime": ["https://gdi-de.github.io/apworkshop2026/105_openmonths"], "http://www.w3.org/ns/locn#postCode": ["10243"], "http://www.wikidata.org/prop/direct/P131": ["http://www.wikidata.org/entity/Q158893", "http://www.wikidata.org/entity/Q64"], "http://www.wikidata.org/prop/direct/P571": ["2019"], "http://xmlns.com/foaf/0.1/homepage": ["https://www.bwb.de/de/trinkbrunnen.php"]}, "geometry": {"type": "Point", "coordinates": [13.444908, 52.517209036840846]}}, {"type": "Feature", "id": "https://gdi-de.github.io/apworkshop2026/87", "name": "", "dateprops": ["http://www.wikidata.org/prop/direct/P571", "http://www.wikidata.org/prop/direct/P571"], "properties": {"http://rdfs.org/ns/void#inDataset": ["https://gdk.gdi-de.org/inspire/srv/eng/xml_iso19139?uuid=8aaca41b-d665-447a-93ec-b76e431852fc", "https://gdi-de.github.io/apworkshop2026/gdide_dataset"], "http://www.opengis.net/ont/geosparql#hasGeometry": ["https://gdi-de.github.io/apworkshop2026/87_geom"], "http://www.w3.org/1999/02/22-rdf-syntax-ns#type": ["https://gdi-de.github.io/apworkshop2026/ont#Kaiser"], "http://www.w3.org/2000/01/rdf-schema#comment": ["Betriebszeit: Mai bis Oktober, Link: https://www.bwb.de/de/trinkbrunnen.php  "], "http://www.w3.org/2000/01/rdf-schema#label": ["Brunnen 87"], "http://www.w3.org/2004/02/skos/core#scopeNote": ["nan"], "http://www.w3.org/2006/time#hasTime": ["https://gdi-de.github.io/apworkshop2026/87_openmonths"], "http://www.w3.org/ns/locn#postCode": ["10247"], "http://www.wikidata.org/prop/direct/P131": ["http://www.wikidata.org/entity/Q158893", "http://www.wikidata.org/entity/Q64"], "http://www.wikidata.org/prop/direct/P571": ["2019"], "http://xmlns.com/foaf/0.1/homepage": ["https://www.bwb.de/de/trinkbrunnen.php"]}, "geometry": {"type": "Point", "coordinates": [13.460949, 52.519905036838075]}}, {"type": "Feature", "id": "https://gdi-de.github.io/apworkshop2026/6", "name": "", "dateprops": ["http://www.wikidata.org/prop/direct/P571", "http://www.wikidata.org/prop/direct/P571"], "properties": {"http://rdfs.org/ns/void#inDataset": ["https://gdk.gdi-de.org/inspire/srv/eng/xml_iso19139?uuid=8aaca41b-d665-447a-93ec-b76e431852fc", "https://gdi-de.github.io/apworkshop2026/gdide_dataset"], "http://www.opengis.net/ont/geosparql#hasGeometry": ["https://gdi-de.github.io/apworkshop2026/6_geom"], "http://www.w3.org/1999/02/22-rdf-syntax-ns#type": ["https://gdi-de.github.io/apworkshop2026/ont#Kaiser"], "http://www.w3.org/2000/01/rdf-schema#comment": ["Betriebszeit: Mai bis Oktober, Link: https://www.bwb.de/de/trinkbrunnen.php  "], "http://www.w3.org/2000/01/rdf-schema#label": ["Brunnen 6"], "http://www.w3.org/2004/02/skos/core#scopeNote": ["zur Zeit wegen Reparatur au\u00dfer Betrieb"], "http://www.w3.org/2006/time#hasTime": ["https://gdi-de.github.io/apworkshop2026/6_openmonths"], "http://www.w3.org/ns/locn#postCode": ["10999"], "http://www.wikidata.org/prop/direct/P131": ["http://www.wikidata.org/entity/Q158893", "http://www.wikidata.org/entity/Q64"], "http://www.wikidata.org/prop/direct/P571": ["1985"], "http://xmlns.com/foaf/0.1/homepage": ["https://www.bwb.de/de/trinkbrunnen.php"]}, "geometry": {"type": "Point", "coordinates": [13.418931, 52.498567036860244]}}, {"type": "Feature", "id": "https://gdi-de.github.io/apworkshop2026/107", "name": "", "dateprops": ["http://www.wikidata.org/prop/direct/P571", "http://www.wikidata.org/prop/direct/P571"], "properties": {"http://rdfs.org/ns/void#inDataset": ["https://gdk.gdi-de.org/inspire/srv/eng/xml_iso19139?uuid=8aaca41b-d665-447a-93ec-b76e431852fc", "https://gdi-de.github.io/apworkshop2026/gdide_dataset"], "http://www.opengis.net/ont/geosparql#hasGeometry": ["https://gdi-de.github.io/apworkshop2026/107_geom"], "http://www.w3.org/1999/02/22-rdf-syntax-ns#type": ["https://gdi-de.github.io/apworkshop2026/ont#Kaiser"], "http://www.w3.org/2000/01/rdf-schema#comment": ["Betriebszeit: Mai bis Oktober, Link: https://www.bwb.de/de/trinkbrunnen.php  "], "http://www.w3.org/2000/01/rdf-schema#label": ["Brunnen 107"], "http://www.w3.org/2004/02/skos/core#scopeNote": ["nan"], "http://www.w3.org/2006/time#hasTime": ["https://gdi-de.github.io/apworkshop2026/107_openmonths"], "http://www.w3.org/ns/locn#postCode": ["10247"], "http://www.wikidata.org/prop/direct/P131": ["http://www.wikidata.org/entity/Q158893", "http://www.wikidata.org/entity/Q64"], "http://www.wikidata.org/prop/direct/P571": ["2019"], "http://xmlns.com/foaf/0.1/homepage": ["https://www.bwb.de/de/trinkbrunnen.php"]}, "geometry": {"type": "Point", "coordinates": [13.46673, 52.517144036841074]}}, {"type": "Feature", "id": "https://gdi-de.github.io/apworkshop2026/45", "name": "", "dateprops": ["http://www.wikidata.org/prop/direct/P571", "http://www.wikidata.org/prop/direct/P571"], "properties": {"http://rdfs.org/ns/void#inDataset": ["https://gdk.gdi-de.org/inspire/srv/eng/xml_iso19139?uuid=8aaca41b-d665-447a-93ec-b76e431852fc", "https://gdi-de.github.io/apworkshop2026/gdide_dataset"], "http://www.opengis.net/ont/geosparql#hasGeometry": ["https://gdi-de.github.io/apworkshop2026/45_geom"], "http://www.w3.org/1999/02/22-rdf-syntax-ns#type": ["https://gdi-de.github.io/apworkshop2026/ont#Kaiser"], "http://www.w3.org/2000/01/rdf-schema#comment": ["Betriebszeit: Mai bis Oktober, Link: https://www.bwb.de/de/trinkbrunnen.php  "], "http://www.w3.org/2000/01/rdf-schema#label": ["Brunnen 45"], "http://www.w3.org/2004/02/skos/core#scopeNote": ["nan"], "http://www.w3.org/2006/time#hasTime": ["https://gdi-de.github.io/apworkshop2026/45_openmonths"], "http://www.w3.org/ns/locn#postCode": ["10117"], "http://www.wikidata.org/prop/direct/P131": ["http://www.wikidata.org/entity/Q158893", "http://www.wikidata.org/entity/Q64"], "http://www.wikidata.org/prop/direct/P571": ["2018"], "http://xmlns.com/foaf/0.1/homepage": ["https://www.bwb.de/de/trinkbrunnen.php"]}, "geometry": {"type": "Point", "coordinates": [13.376169999999892, 52.49530803686341]}}, {"type": "Feature", "id": "https://gdi-de.github.io/apworkshop2026/201", "name": "", "dateprops": ["http://www.wikidata.org/prop/direct/P571", "http://www.wikidata.org/prop/direct/P571"], "properties": {"http://rdfs.org/ns/void#inDataset": ["https://gdk.gdi-de.org/inspire/srv/eng/xml_iso19139?uuid=8aaca41b-d665-447a-93ec-b76e431852fc", "https://gdi-de.github.io/apworkshop2026/gdide_dataset"], "http://www.opengis.net/ont/geosparql#hasGeometry": ["https://gdi-de.github.io/apworkshop2026/201_geom"], "http://www.w3.org/1999/02/22-rdf-syntax-ns#type": ["https://gdi-de.github.io/apworkshop2026/ont#Kaiser"], "http://www.w3.org/2000/01/rdf-schema#comment": ["Betriebszeit: Mai bis Oktober, Link: https://www.bwb.de/de/trinkbrunnen.php  "], "http://www.w3.org/2000/01/rdf-schema#label": ["Brunnen 201"], "http://www.w3.org/2004/02/skos/core#scopeNote": ["nan"], "http://www.w3.org/2006/time#hasTime": ["https://gdi-de.github.io/apworkshop2026/201_openmonths"], "http://www.w3.org/ns/locn#postCode": ["10969"], "http://www.wikidata.org/prop/direct/P131": ["http://www.wikidata.org/entity/Q158893", "http://www.wikidata.org/entity/Q64"], "http://www.wikidata.org/prop/direct/P571": ["2023"], "http://xmlns.com/foaf/0.1/homepage": ["https://www.bwb.de/de/trinkbrunnen.php"]}, "geometry": {"type": "Point", "coordinates": [13.405684, 52.503115036855384]}}, {"type": "Feature", "id": "https://gdi-de.github.io/apworkshop2026/70", "name": "", "dateprops": ["http://www.wikidata.org/prop/direct/P571", "http://www.wikidata.org/prop/direct/P571"], "properties": {"http://rdfs.org/ns/void#inDataset": ["https://gdk.gdi-de.org/inspire/srv/eng/xml_iso19139?uuid=8aaca41b-d665-447a-93ec-b76e431852fc", "https://gdi-de.github.io/apworkshop2026/gdide_dataset"], "http://www.opengis.net/ont/geosparql#hasGeometry": ["https://gdi-de.github.io/apworkshop2026/70_geom"], "http://www.w3.org/1999/02/22-rdf-syntax-ns#type": ["https://gdi-de.github.io/apworkshop2026/ont#Kaiser"], "http://www.w3.org/2000/01/rdf-schema#comment": ["Betriebszeit: Mai bis Oktober, Link: https://www.bwb.de/de/trinkbrunnen.php  "], "http://www.w3.org/2000/01/rdf-schema#label": ["Brunnen 70"], "http://www.w3.org/2004/02/skos/core#scopeNote": ["nan"], "http://www.w3.org/2006/time#hasTime": ["https://gdi-de.github.io/apworkshop2026/70_openmonths"], "http://www.w3.org/ns/locn#postCode": ["10997"], "http://www.wikidata.org/prop/direct/P131": ["http://www.wikidata.org/entity/Q158893", "http://www.wikidata.org/entity/Q64"], "http://www.wikidata.org/prop/direct/P571": ["2019"], "http://xmlns.com/foaf/0.1/homepage": ["https://www.bwb.de/de/trinkbrunnen.php"]}, "geometry": {"type": "Point", "coordinates": [13.424648, 52.503674036854925]}}, {"type": "Feature", "id": "https://gdi-de.github.io/apworkshop2026/60", "name": "", "dateprops": ["http://www.wikidata.org/prop/direct/P571", "http://www.wikidata.org/prop/direct/P571"], "properties": {"http://rdfs.org/ns/void#inDataset": ["https://gdk.gdi-de.org/inspire/srv/eng/xml_iso19139?uuid=8aaca41b-d665-447a-93ec-b76e431852fc", "https://gdi-de.github.io/apworkshop2026/gdide_dataset"], "http://www.opengis.net/ont/geosparql#hasGeometry": ["https://gdi-de.github.io/apworkshop2026/60_geom"], "http://www.w3.org/1999/02/22-rdf-syntax-ns#type": ["https://gdi-de.github.io/apworkshop2026/ont#Kaiser"], "http://www.w3.org/2000/01/rdf-schema#comment": ["Betriebszeit: Mai bis Oktober, Link: https://www.bwb.de/de/trinkbrunnen.php  "], "http://www.w3.org/2000/01/rdf-schema#label": ["Brunnen 60"], "http://www.w3.org/2004/02/skos/core#scopeNote": ["nan"], "http://www.w3.org/2006/time#hasTime": ["https://gdi-de.github.io/apworkshop2026/60_openmonths"], "http://www.w3.org/ns/locn#postCode": ["10243"], "http://www.wikidata.org/prop/direct/P131": ["http://www.wikidata.org/entity/Q158893", "http://www.wikidata.org/entity/Q64"], "http://www.wikidata.org/prop/direct/P571": ["2018"], "http://xmlns.com/foaf/0.1/homepage": ["https://www.bwb.de/de/trinkbrunnen.php"]}, "geometry": {"type": "Point", "coordinates": [13.447429, 52.51020803684818]}}, {"type": "Feature", "id": "https://gdi-de.github.io/apworkshop2026/106", "name": "", "dateprops": ["http://www.wikidata.org/prop/direct/P571", "http://www.wikidata.org/prop/direct/P571"], "properties": {"http://rdfs.org/ns/void#inDataset": ["https://gdk.gdi-de.org/inspire/srv/eng/xml_iso19139?uuid=8aaca41b-d665-447a-93ec-b76e431852fc", "https://gdi-de.github.io/apworkshop2026/gdide_dataset"], "http://www.opengis.net/ont/geosparql#hasGeometry": ["https://gdi-de.github.io/apworkshop2026/106_geom"], "http://www.w3.org/1999/02/22-rdf-syntax-ns#type": ["https://gdi-de.github.io/apworkshop2026/ont#Kaiser"], "http://www.w3.org/2000/01/rdf-schema#comment": ["Betriebszeit: Mai bis Oktober, Link: https://www.bwb.de/de/trinkbrunnen.php  "], "http://www.w3.org/2000/01/rdf-schema#label": ["Brunnen 106"], "http://www.w3.org/2004/02/skos/core#scopeNote": ["nan"], "http://www.w3.org/2006/time#hasTime": ["https://gdi-de.github.io/apworkshop2026/106_openmonths"], "http://www.w3.org/ns/locn#postCode": ["10247"], "http://www.wikidata.org/prop/direct/P131": ["http://www.wikidata.org/entity/Q158893", "http://www.wikidata.org/entity/Q64"], "http://www.wikidata.org/prop/direct/P571": ["2019"], "http://xmlns.com/foaf/0.1/homepage": ["https://www.bwb.de/de/trinkbrunnen.php"]}, "geometry": {"type": "Point", "coordinates": [13.466938, 52.520094036837946]}}, {"type": "Feature", "id": "https://gdi-de.github.io/apworkshop2026/46", "name": "", "dateprops": ["http://www.wikidata.org/prop/direct/P571", "http://www.wikidata.org/prop/direct/P571"], "properties": {"http://rdfs.org/ns/void#inDataset": ["https://gdk.gdi-de.org/inspire/srv/eng/xml_iso19139?uuid=8aaca41b-d665-447a-93ec-b76e431852fc", "https://gdi-de.github.io/apworkshop2026/gdide_dataset"], "http://www.opengis.net/ont/geosparql#hasGeometry": ["https://gdi-de.github.io/apworkshop2026/46_geom"], "http://www.w3.org/1999/02/22-rdf-syntax-ns#type": ["https://gdi-de.github.io/apworkshop2026/ont#Kaiser"], "http://www.w3.org/2000/01/rdf-schema#comment": ["Betriebszeit: Mai bis Oktober, Link: https://www.bwb.de/de/trinkbrunnen.php  "], "http://www.w3.org/2000/01/rdf-schema#label": ["Brunnen 46"], "http://www.w3.org/2004/02/skos/core#scopeNote": ["nan"], "http://www.w3.org/2006/time#hasTime": ["https://gdi-de.github.io/apworkshop2026/46_openmonths"], "http://www.w3.org/ns/locn#postCode": ["10999"], "http://www.wikidata.org/prop/direct/P131": ["http://www.wikidata.org/entity/Q158893", "http://www.wikidata.org/entity/Q64"], "http://www.wikidata.org/prop/direct/P571": ["2018"], "http://xmlns.com/foaf/0.1/homepage": ["https://www.bwb.de/de/trinkbrunnen.php"]}, "geometry": {"type": "Point", "coordinates": [13.431231, 52.49311403686602]}}], "numberMatched": 33, "numberReturned": 33, "bbox": [13.372957999999873, 52.489007036870106, 13.482062, 52.52929003682814], "crs": "http://www.opengis.net/def/crs/EPSG/0/4326"}