{"type": "FeatureCollection", "id": "http://www.wikidata.org/entity/Q4071168", "name": "Neuk\u00f6lln", "features": [{"type": "Feature", "id": "https://gdi-de.github.io/apworkshop2026/213", "name": "", "dateprops": ["http://www.wikidata.org/prop/direct/P571", "http://www.wikidata.org/prop/direct/P571"], "properties": {"http://rdfs.org/ns/void#inDataset": ["https://gdk.gdi-de.org/inspire/srv/eng/xml_iso19139?uuid=8aaca41b-d665-447a-93ec-b76e431852fc", "https://gdi-de.github.io/apworkshop2026/gdide_dataset"], "http://www.opengis.net/ont/geosparql#hasGeometry": ["https://gdi-de.github.io/apworkshop2026/213_geom"], "http://www.w3.org/1999/02/22-rdf-syntax-ns#type": ["https://gdi-de.github.io/apworkshop2026/ont#Kaiser"], "http://www.w3.org/2000/01/rdf-schema#comment": ["Betriebszeit: Mai bis Oktober, Link: https://www.bwb.de/de/trinkbrunnen.php  "], "http://www.w3.org/2000/01/rdf-schema#label": ["Brunnen 213"], "http://www.w3.org/2004/02/skos/core#scopeNote": ["nan"], "http://www.w3.org/2006/time#hasTime": ["https://gdi-de.github.io/apworkshop2026/213_openmonths"], "http://www.w3.org/ns/locn#postCode": ["12051"], "http://www.wikidata.org/prop/direct/P131": ["http://www.wikidata.org/entity/Q4071168", "http://www.wikidata.org/entity/Q64"], "http://www.wikidata.org/prop/direct/P571": ["2022"], "http://xmlns.com/foaf/0.1/homepage": ["https://www.bwb.de/de/trinkbrunnen.php"]}, "geometry": {"type": "Point", "coordinates": [13.437703, 52.46298003689755]}}, {"type": "Feature", "id": "https://gdi-de.github.io/apworkshop2026/110", "name": "", "dateprops": ["http://www.wikidata.org/prop/direct/P571", "http://www.wikidata.org/prop/direct/P571"], "properties": {"http://rdfs.org/ns/void#inDataset": ["https://gdk.gdi-de.org/inspire/srv/eng/xml_iso19139?uuid=8aaca41b-d665-447a-93ec-b76e431852fc", "https://gdi-de.github.io/apworkshop2026/gdide_dataset"], "http://www.opengis.net/ont/geosparql#hasGeometry": ["https://gdi-de.github.io/apworkshop2026/110_geom"], "http://www.w3.org/1999/02/22-rdf-syntax-ns#type": ["https://gdi-de.github.io/apworkshop2026/ont#Kaiser"], "http://www.w3.org/2000/01/rdf-schema#comment": ["Betriebszeit: Mai bis Oktober, Link: https://www.bwb.de/de/trinkbrunnen.php  "], "http://www.w3.org/2000/01/rdf-schema#label": ["Brunnen 110"], "http://www.w3.org/2004/02/skos/core#scopeNote": ["nan"], "http://www.w3.org/2006/time#hasTime": ["https://gdi-de.github.io/apworkshop2026/110_openmonths"], "http://www.w3.org/ns/locn#postCode": ["12045"], "http://www.wikidata.org/prop/direct/P131": ["http://www.wikidata.org/entity/Q4071168", "http://www.wikidata.org/entity/Q64"], "http://www.wikidata.org/prop/direct/P571": ["2020"], "http://xmlns.com/foaf/0.1/homepage": ["https://www.bwb.de/de/trinkbrunnen.php"]}, "geometry": {"type": "Point", "coordinates": [13.439191, 52.48945703686993]}}, {"type": "Feature", "id": "https://gdi-de.github.io/apworkshop2026/126", "name": "", "dateprops": ["http://www.wikidata.org/prop/direct/P571", "http://www.wikidata.org/prop/direct/P571"], "properties": {"http://rdfs.org/ns/void#inDataset": ["https://gdk.gdi-de.org/inspire/srv/eng/xml_iso19139?uuid=8aaca41b-d665-447a-93ec-b76e431852fc", "https://gdi-de.github.io/apworkshop2026/gdide_dataset"], "http://www.opengis.net/ont/geosparql#hasGeometry": ["https://gdi-de.github.io/apworkshop2026/126_geom"], "http://www.w3.org/1999/02/22-rdf-syntax-ns#type": ["https://gdi-de.github.io/apworkshop2026/ont#Kaiser"], "http://www.w3.org/2000/01/rdf-schema#comment": ["Betriebszeit: Mai bis Oktober, Link: https://www.bwb.de/de/trinkbrunnen.php  "], "http://www.w3.org/2000/01/rdf-schema#label": ["Brunnen 126"], "http://www.w3.org/2004/02/skos/core#scopeNote": ["nan"], "http://www.w3.org/2006/time#hasTime": ["https://gdi-de.github.io/apworkshop2026/126_openmonths"], "http://www.w3.org/ns/locn#postCode": ["12355"], "http://www.wikidata.org/prop/direct/P131": ["http://www.wikidata.org/entity/Q4071168", "http://www.wikidata.org/entity/Q64"], "http://www.wikidata.org/prop/direct/P571": ["2020"], "http://xmlns.com/foaf/0.1/homepage": ["https://www.bwb.de/de/trinkbrunnen.php"]}, "geometry": {"type": "Point", "coordinates": [13.508135000000122, 52.40675203695632]}}, {"type": "Feature", "id": "https://gdi-de.github.io/apworkshop2026/175", "name": "", "dateprops": ["http://www.wikidata.org/prop/direct/P571", "http://www.wikidata.org/prop/direct/P571"], "properties": {"http://rdfs.org/ns/void#inDataset": ["https://gdk.gdi-de.org/inspire/srv/eng/xml_iso19139?uuid=8aaca41b-d665-447a-93ec-b76e431852fc", "https://gdi-de.github.io/apworkshop2026/gdide_dataset"], "http://www.opengis.net/ont/geosparql#hasGeometry": ["https://gdi-de.github.io/apworkshop2026/175_geom"], "http://www.w3.org/1999/02/22-rdf-syntax-ns#type": ["https://gdi-de.github.io/apworkshop2026/ont#Bituma"], "http://www.w3.org/2000/01/rdf-schema#comment": ["Betriebszeit: Mai bis Oktober, Link: https://www.bwb.de/de/trinkbrunnen.php  "], "http://www.w3.org/2000/01/rdf-schema#label": ["Brunnen 175"], "http://www.w3.org/2004/02/skos/core#scopeNote": ["nan"], "http://www.w3.org/2006/time#hasTime": ["https://gdi-de.github.io/apworkshop2026/175_openmonths"], "http://www.w3.org/ns/locn#postCode": ["12101"], "http://www.wikidata.org/prop/direct/P131": ["http://www.wikidata.org/entity/Q4071168", "http://www.wikidata.org/entity/Q64"], "http://www.wikidata.org/prop/direct/P571": ["2021"], "http://xmlns.com/foaf/0.1/homepage": ["https://www.bwb.de/de/trinkbrunnen.php"]}, "geometry": {"type": "Point", "coordinates": [13.420108, 52.4709710368891]}}, {"type": "Feature", "id": "https://gdi-de.github.io/apworkshop2026/1", "name": "", "dateprops": ["http://www.wikidata.org/prop/direct/P571", "http://www.wikidata.org/prop/direct/P571"], "properties": {"http://rdfs.org/ns/void#inDataset": ["https://gdk.gdi-de.org/inspire/srv/eng/xml_iso19139?uuid=8aaca41b-d665-447a-93ec-b76e431852fc", "https://gdi-de.github.io/apworkshop2026/gdide_dataset"], "http://www.opengis.net/ont/geosparql#hasGeometry": ["https://gdi-de.github.io/apworkshop2026/1_geom"], "http://www.w3.org/1999/02/22-rdf-syntax-ns#type": ["https://gdi-de.github.io/apworkshop2026/ont#Kaiser"], "http://www.w3.org/2000/01/rdf-schema#comment": ["Betriebszeit: Mai bis Oktober, Link: https://www.bwb.de/de/trinkbrunnen.php  "], "http://www.w3.org/2000/01/rdf-schema#label": ["Brunnen 1"], "http://www.w3.org/2004/02/skos/core#scopeNote": ["zur Zeit wegen Reparatur au\u00dfer Betrieb"], "http://www.w3.org/2006/time#hasTime": ["https://gdi-de.github.io/apworkshop2026/1_openmonths"], "http://www.w3.org/ns/locn#postCode": ["12349"], "http://www.wikidata.org/prop/direct/P131": ["http://www.wikidata.org/entity/Q4071168", "http://www.wikidata.org/entity/Q64"], "http://www.wikidata.org/prop/direct/P571": ["1985"], "http://xmlns.com/foaf/0.1/homepage": ["https://www.bwb.de/de/trinkbrunnen.php"]}, "geometry": {"type": "Point", "coordinates": [13.415048, 52.431351036930394]}}, {"type": "Feature", "id": "https://gdi-de.github.io/apworkshop2026/153", "name": "", "dateprops": ["http://www.wikidata.org/prop/direct/P571", "http://www.wikidata.org/prop/direct/P571"], "properties": {"http://rdfs.org/ns/void#inDataset": ["https://gdk.gdi-de.org/inspire/srv/eng/xml_iso19139?uuid=8aaca41b-d665-447a-93ec-b76e431852fc", "https://gdi-de.github.io/apworkshop2026/gdide_dataset"], "http://www.opengis.net/ont/geosparql#hasGeometry": ["https://gdi-de.github.io/apworkshop2026/153_geom"], "http://www.w3.org/1999/02/22-rdf-syntax-ns#type": ["https://gdi-de.github.io/apworkshop2026/ont#Kaiser"], "http://www.w3.org/2000/01/rdf-schema#comment": ["Betriebszeit: Mai bis Oktober, Link: https://www.bwb.de/de/trinkbrunnen.php  "], "http://www.w3.org/2000/01/rdf-schema#label": ["Brunnen 153"], "http://www.w3.org/2004/02/skos/core#scopeNote": ["nan"], "http://www.w3.org/2006/time#hasTime": ["https://gdi-de.github.io/apworkshop2026/153_openmonths"], "http://www.w3.org/ns/locn#postCode": ["12045"], "http://www.wikidata.org/prop/direct/P131": ["http://www.wikidata.org/entity/Q4071168", "http://www.wikidata.org/entity/Q64"], "http://www.wikidata.org/prop/direct/P571": ["2020"], "http://xmlns.com/foaf/0.1/homepage": ["https://www.bwb.de/de/trinkbrunnen.php"]}, "geometry": {"type": "Point", "coordinates": [13.446437, 52.48359203687605]}}, {"type": "Feature", "id": "https://gdi-de.github.io/apworkshop2026/99", "name": "", "dateprops": ["http://www.wikidata.org/prop/direct/P571", "http://www.wikidata.org/prop/direct/P571"], "properties": {"http://rdfs.org/ns/void#inDataset": ["https://gdk.gdi-de.org/inspire/srv/eng/xml_iso19139?uuid=8aaca41b-d665-447a-93ec-b76e431852fc", "https://gdi-de.github.io/apworkshop2026/gdide_dataset"], "http://www.opengis.net/ont/geosparql#hasGeometry": ["https://gdi-de.github.io/apworkshop2026/99_geom"], "http://www.w3.org/1999/02/22-rdf-syntax-ns#type": ["https://gdi-de.github.io/apworkshop2026/ont#Kaiser"], "http://www.w3.org/2000/01/rdf-schema#comment": ["Betriebszeit: Mai bis Oktober, Link: https://www.bwb.de/de/trinkbrunnen.php  "], "http://www.w3.org/2000/01/rdf-schema#label": ["Brunnen 99"], "http://www.w3.org/2004/02/skos/core#scopeNote": ["nan"], "http://www.w3.org/2006/time#hasTime": ["https://gdi-de.github.io/apworkshop2026/99_openmonths"], "http://www.w3.org/ns/locn#postCode": ["12051"], "http://www.wikidata.org/prop/direct/P131": ["http://www.wikidata.org/entity/Q4071168", "http://www.wikidata.org/entity/Q64"], "http://www.wikidata.org/prop/direct/P571": ["2019"], "http://xmlns.com/foaf/0.1/homepage": ["https://www.bwb.de/de/trinkbrunnen.php"]}, "geometry": {"type": "Point", "coordinates": [13.435509, 52.46981503689042]}}, {"type": "Feature", "id": "https://gdi-de.github.io/apworkshop2026/10", "name": "", "dateprops": ["http://www.wikidata.org/prop/direct/P571", "http://www.wikidata.org/prop/direct/P571"], "properties": {"http://rdfs.org/ns/void#inDataset": ["https://gdk.gdi-de.org/inspire/srv/eng/xml_iso19139?uuid=8aaca41b-d665-447a-93ec-b76e431852fc", "https://gdi-de.github.io/apworkshop2026/gdide_dataset"], "http://www.opengis.net/ont/geosparql#hasGeometry": ["https://gdi-de.github.io/apworkshop2026/10_geom"], "http://www.w3.org/1999/02/22-rdf-syntax-ns#type": ["https://gdi-de.github.io/apworkshop2026/ont#Kaiser"], "http://www.w3.org/2000/01/rdf-schema#comment": ["Betriebszeit: Mai bis Oktober, Link: https://www.bwb.de/de/trinkbrunnen.php  "], "http://www.w3.org/2000/01/rdf-schema#label": ["Brunnen 10"], "http://www.w3.org/2004/02/skos/core#scopeNote": ["zur Zeit wegen Reparatur au\u00dfer Betrieb"], "http://www.w3.org/2006/time#hasTime": ["https://gdi-de.github.io/apworkshop2026/10_openmonths"], "http://www.w3.org/ns/locn#postCode": ["12355"], "http://www.wikidata.org/prop/direct/P131": ["http://www.wikidata.org/entity/Q4071168", "http://www.wikidata.org/entity/Q64"], "http://www.wikidata.org/prop/direct/P571": ["1985"], "http://xmlns.com/foaf/0.1/homepage": ["https://www.bwb.de/de/trinkbrunnen.php"]}, "geometry": {"type": "Point", "coordinates": [13.492139, 52.42021703694232]}}, {"type": "Feature", "id": "https://gdi-de.github.io/apworkshop2026/97", "name": "", "dateprops": ["http://www.wikidata.org/prop/direct/P571", "http://www.wikidata.org/prop/direct/P571"], "properties": {"http://rdfs.org/ns/void#inDataset": ["https://gdk.gdi-de.org/inspire/srv/eng/xml_iso19139?uuid=8aaca41b-d665-447a-93ec-b76e431852fc", "https://gdi-de.github.io/apworkshop2026/gdide_dataset"], "http://www.opengis.net/ont/geosparql#hasGeometry": ["https://gdi-de.github.io/apworkshop2026/97_geom"], "http://www.w3.org/1999/02/22-rdf-syntax-ns#type": ["https://gdi-de.github.io/apworkshop2026/ont#Kaiser"], "http://www.w3.org/2000/01/rdf-schema#comment": ["Betriebszeit: Mai bis Oktober, Link: https://www.bwb.de/de/trinkbrunnen.php  "], "http://www.w3.org/2000/01/rdf-schema#label": ["Brunnen 97"], "http://www.w3.org/2004/02/skos/core#scopeNote": ["nan"], "http://www.w3.org/2006/time#hasTime": ["https://gdi-de.github.io/apworkshop2026/97_openmonths"], "http://www.w3.org/ns/locn#postCode": ["12053"], "http://www.wikidata.org/prop/direct/P131": ["http://www.wikidata.org/entity/Q4071168", "http://www.wikidata.org/entity/Q64"], "http://www.wikidata.org/prop/direct/P571": ["2019"], "http://xmlns.com/foaf/0.1/homepage": ["https://www.bwb.de/de/trinkbrunnen.php"]}, "geometry": {"type": "Point", "coordinates": [13.43812, 52.47209103688806]}}, {"type": "Feature", "id": "https://gdi-de.github.io/apworkshop2026/23", "name": "", "dateprops": ["http://www.wikidata.org/prop/direct/P571", "http://www.wikidata.org/prop/direct/P571"], "properties": {"http://rdfs.org/ns/void#inDataset": ["https://gdk.gdi-de.org/inspire/srv/eng/xml_iso19139?uuid=8aaca41b-d665-447a-93ec-b76e431852fc", "https://gdi-de.github.io/apworkshop2026/gdide_dataset"], "http://www.opengis.net/ont/geosparql#hasGeometry": ["https://gdi-de.github.io/apworkshop2026/23_geom"], "http://www.w3.org/1999/02/22-rdf-syntax-ns#type": ["https://gdi-de.github.io/apworkshop2026/ont#Botsch"], "http://www.w3.org/2000/01/rdf-schema#comment": ["Betriebszeit: Mai bis Oktober, Link: https://www.bwb.de/de/trinkbrunnen.php  "], "http://www.w3.org/2000/01/rdf-schema#label": ["Brunnen 23"], "http://www.w3.org/2004/02/skos/core#scopeNote": ["nan"], "http://www.w3.org/2006/time#hasTime": ["https://gdi-de.github.io/apworkshop2026/23_openmonths"], "http://www.w3.org/ns/locn#postCode": ["12047"], "http://www.wikidata.org/prop/direct/P131": ["http://www.wikidata.org/entity/Q4071168", "http://www.wikidata.org/entity/Q64"], "http://www.wikidata.org/prop/direct/P571": ["2010"], "http://xmlns.com/foaf/0.1/homepage": ["https://www.bwb.de/de/trinkbrunnen.php"]}, "geometry": {"type": "Point", "coordinates": [13.426999, 52.488341036870985]}}, {"type": "Feature", "id": "https://gdi-de.github.io/apworkshop2026/111", "name": "", "dateprops": ["http://www.wikidata.org/prop/direct/P571", "http://www.wikidata.org/prop/direct/P571"], "properties": {"http://rdfs.org/ns/void#inDataset": ["https://gdk.gdi-de.org/inspire/srv/eng/xml_iso19139?uuid=8aaca41b-d665-447a-93ec-b76e431852fc", "https://gdi-de.github.io/apworkshop2026/gdide_dataset"], "http://www.opengis.net/ont/geosparql#hasGeometry": ["https://gdi-de.github.io/apworkshop2026/111_geom"], "http://www.w3.org/1999/02/22-rdf-syntax-ns#type": ["https://gdi-de.github.io/apworkshop2026/ont#Kaiser"], "http://www.w3.org/2000/01/rdf-schema#comment": ["Betriebszeit: Mai bis Oktober, Link: https://www.bwb.de/de/trinkbrunnen.php  "], "http://www.w3.org/2000/01/rdf-schema#label": ["Brunnen 111"], "http://www.w3.org/2004/02/skos/core#scopeNote": ["nan"], "http://www.w3.org/2006/time#hasTime": ["https://gdi-de.github.io/apworkshop2026/111_openmonths"], "http://www.w3.org/ns/locn#postCode": ["12053"], "http://www.wikidata.org/prop/direct/P131": ["http://www.wikidata.org/entity/Q4071168", "http://www.wikidata.org/entity/Q64"], "http://www.wikidata.org/prop/direct/P571": ["2020"], "http://xmlns.com/foaf/0.1/homepage": ["https://www.bwb.de/de/trinkbrunnen.php"]}, "geometry": {"type": "Point", "coordinates": [13.422234, 52.476613036883236]}}, {"type": "Feature", "id": "https://gdi-de.github.io/apworkshop2026/98", "name": "", "dateprops": ["http://www.wikidata.org/prop/direct/P571", "http://www.wikidata.org/prop/direct/P571"], "properties": {"http://rdfs.org/ns/void#inDataset": ["https://gdk.gdi-de.org/inspire/srv/eng/xml_iso19139?uuid=8aaca41b-d665-447a-93ec-b76e431852fc", "https://gdi-de.github.io/apworkshop2026/gdide_dataset"], "http://www.opengis.net/ont/geosparql#hasGeometry": ["https://gdi-de.github.io/apworkshop2026/98_geom"], "http://www.w3.org/1999/02/22-rdf-syntax-ns#type": ["https://gdi-de.github.io/apworkshop2026/ont#Kaiser"], "http://www.w3.org/2000/01/rdf-schema#comment": ["Betriebszeit: Mai bis Oktober, Link: https://www.bwb.de/de/trinkbrunnen.php  "], "http://www.w3.org/2000/01/rdf-schema#label": ["Brunnen 98"], "http://www.w3.org/2004/02/skos/core#scopeNote": ["nan"], "http://www.w3.org/2006/time#hasTime": ["https://gdi-de.github.io/apworkshop2026/98_openmonths"], "http://www.w3.org/ns/locn#postCode": ["12051"], "http://www.wikidata.org/prop/direct/P131": ["http://www.wikidata.org/entity/Q4071168", "http://www.wikidata.org/entity/Q64"], "http://www.wikidata.org/prop/direct/P571": ["2019"], "http://xmlns.com/foaf/0.1/homepage": ["https://www.bwb.de/de/trinkbrunnen.php"]}, "geometry": {"type": "Point", "coordinates": [13.43755, 52.470041036890194]}}, {"type": "Feature", "id": "https://gdi-de.github.io/apworkshop2026/117", "name": "", "dateprops": ["http://www.wikidata.org/prop/direct/P571", "http://www.wikidata.org/prop/direct/P571"], "properties": {"http://rdfs.org/ns/void#inDataset": ["https://gdk.gdi-de.org/inspire/srv/eng/xml_iso19139?uuid=8aaca41b-d665-447a-93ec-b76e431852fc", "https://gdi-de.github.io/apworkshop2026/gdide_dataset"], "http://www.opengis.net/ont/geosparql#hasGeometry": ["https://gdi-de.github.io/apworkshop2026/117_geom"], "http://www.w3.org/1999/02/22-rdf-syntax-ns#type": ["https://gdi-de.github.io/apworkshop2026/ont#Bituma"], "http://www.w3.org/2000/01/rdf-schema#comment": ["Betriebszeit: Mai bis Oktober, Link: https://www.bwb.de/de/trinkbrunnen.php  "], "http://www.w3.org/2000/01/rdf-schema#label": ["Brunnen 117"], "http://www.w3.org/2004/02/skos/core#scopeNote": ["nan"], "http://www.w3.org/2006/time#hasTime": ["https://gdi-de.github.io/apworkshop2026/117_openmonths"], "http://www.w3.org/ns/locn#postCode": ["10965"], "http://www.wikidata.org/prop/direct/P131": ["http://www.wikidata.org/entity/Q4071168", "http://www.wikidata.org/entity/Q64"], "http://www.wikidata.org/prop/direct/P571": ["2019"], "http://xmlns.com/foaf/0.1/homepage": ["https://www.bwb.de/de/trinkbrunnen.php"]}, "geometry": {"type": "Point", "coordinates": [13.407019, 52.482318036877224]}}, {"type": "Feature", "id": "https://gdi-de.github.io/apworkshop2026/158", "name": "", "dateprops": ["http://www.wikidata.org/prop/direct/P571", "http://www.wikidata.org/prop/direct/P571"], "properties": {"http://rdfs.org/ns/void#inDataset": ["https://gdk.gdi-de.org/inspire/srv/eng/xml_iso19139?uuid=8aaca41b-d665-447a-93ec-b76e431852fc", "https://gdi-de.github.io/apworkshop2026/gdide_dataset"], "http://www.opengis.net/ont/geosparql#hasGeometry": ["https://gdi-de.github.io/apworkshop2026/158_geom"], "http://www.w3.org/1999/02/22-rdf-syntax-ns#type": ["https://gdi-de.github.io/apworkshop2026/ont#Kaiser"], "http://www.w3.org/2000/01/rdf-schema#comment": ["Betriebszeit: Mai bis Oktober, Link: https://www.bwb.de/de/trinkbrunnen.php  "], "http://www.w3.org/2000/01/rdf-schema#label": ["Brunnen 158"], "http://www.w3.org/2004/02/skos/core#scopeNote": ["nan"], "http://www.w3.org/2006/time#hasTime": ["https://gdi-de.github.io/apworkshop2026/158_openmonths"], "http://www.w3.org/ns/locn#postCode": ["12059"], "http://www.wikidata.org/prop/direct/P131": ["http://www.wikidata.org/entity/Q4071168", "http://www.wikidata.org/entity/Q64"], "http://www.wikidata.org/prop/direct/P571": ["2020"], "http://xmlns.com/foaf/0.1/homepage": ["https://www.bwb.de/de/trinkbrunnen.php"]}, "geometry": {"type": "Point", "coordinates": [13.448475, 52.48187803687785]}}, {"type": "Feature", "id": "https://gdi-de.github.io/apworkshop2026/77", "name": "", "dateprops": ["http://www.wikidata.org/prop/direct/P571", "http://www.wikidata.org/prop/direct/P571"], "properties": {"http://rdfs.org/ns/void#inDataset": ["https://gdk.gdi-de.org/inspire/srv/eng/xml_iso19139?uuid=8aaca41b-d665-447a-93ec-b76e431852fc", "https://gdi-de.github.io/apworkshop2026/gdide_dataset"], "http://www.opengis.net/ont/geosparql#hasGeometry": ["https://gdi-de.github.io/apworkshop2026/77_geom"], "http://www.w3.org/1999/02/22-rdf-syntax-ns#type": ["https://gdi-de.github.io/apworkshop2026/ont#Kaiser"], "http://www.w3.org/2000/01/rdf-schema#comment": ["Betriebszeit: Mai bis Oktober, Link: https://www.bwb.de/de/trinkbrunnen.php  "], "http://www.w3.org/2000/01/rdf-schema#label": ["Brunnen 77"], "http://www.w3.org/2004/02/skos/core#scopeNote": ["nan"], "http://www.w3.org/2006/time#hasTime": ["https://gdi-de.github.io/apworkshop2026/77_openmonths"], "http://www.w3.org/ns/locn#postCode": ["12043"], "http://www.wikidata.org/prop/direct/P131": ["http://www.wikidata.org/entity/Q4071168", "http://www.wikidata.org/entity/Q64"], "http://www.wikidata.org/prop/direct/P571": ["2019"], "http://xmlns.com/foaf/0.1/homepage": ["https://www.bwb.de/de/trinkbrunnen.php"]}, "geometry": {"type": "Point", "coordinates": [13.435418, 52.48096403687879]}}, {"type": "Feature", "id": "https://gdi-de.github.io/apworkshop2026/174", "name": "", "dateprops": ["http://www.wikidata.org/prop/direct/P571", "http://www.wikidata.org/prop/direct/P571"], "properties": {"http://rdfs.org/ns/void#inDataset": ["https://gdk.gdi-de.org/inspire/srv/eng/xml_iso19139?uuid=8aaca41b-d665-447a-93ec-b76e431852fc", "https://gdi-de.github.io/apworkshop2026/gdide_dataset"], "http://www.opengis.net/ont/geosparql#hasGeometry": ["https://gdi-de.github.io/apworkshop2026/174_geom"], "http://www.w3.org/1999/02/22-rdf-syntax-ns#type": ["https://gdi-de.github.io/apworkshop2026/ont#Bituma"], "http://www.w3.org/2000/01/rdf-schema#comment": ["Betriebszeit: Mai bis Oktober, Link: https://www.bwb.de/de/trinkbrunnen.php  "], "http://www.w3.org/2000/01/rdf-schema#label": ["Brunnen 174"], "http://www.w3.org/2004/02/skos/core#scopeNote": ["nan"], "http://www.w3.org/2006/time#hasTime": ["https://gdi-de.github.io/apworkshop2026/174_openmonths"], "http://www.w3.org/ns/locn#postCode": ["12049"], "http://www.wikidata.org/prop/direct/P131": ["http://www.wikidata.org/entity/Q4071168", "http://www.wikidata.org/entity/Q64"], "http://www.wikidata.org/prop/direct/P571": ["2021"], "http://xmlns.com/foaf/0.1/homepage": ["https://www.bwb.de/de/trinkbrunnen.php"]}, "geometry": {"type": "Point", "coordinates": [13.418498, 52.476520036883315]}}, {"type": "Feature", "id": "https://gdi-de.github.io/apworkshop2026/11", "name": "", "dateprops": ["http://www.wikidata.org/prop/direct/P571", "http://www.wikidata.org/prop/direct/P571"], "properties": {"http://rdfs.org/ns/void#inDataset": ["https://gdk.gdi-de.org/inspire/srv/eng/xml_iso19139?uuid=8aaca41b-d665-447a-93ec-b76e431852fc", "https://gdi-de.github.io/apworkshop2026/gdide_dataset"], "http://www.opengis.net/ont/geosparql#hasGeometry": ["https://gdi-de.github.io/apworkshop2026/11_geom"], "http://www.w3.org/1999/02/22-rdf-syntax-ns#type": ["https://gdi-de.github.io/apworkshop2026/ont#Kaiser"], "http://www.w3.org/2000/01/rdf-schema#comment": ["Betriebszeit: Mai bis Oktober, Link: https://www.bwb.de/de/trinkbrunnen.php  "], "http://www.w3.org/2000/01/rdf-schema#label": ["Brunnen 11"], "http://www.w3.org/2004/02/skos/core#scopeNote": ["nan"], "http://www.w3.org/2006/time#hasTime": ["https://gdi-de.github.io/apworkshop2026/11_openmonths"], "http://www.w3.org/ns/locn#postCode": ["12055"], "http://www.wikidata.org/prop/direct/P131": ["http://www.wikidata.org/entity/Q4071168", "http://www.wikidata.org/entity/Q64"], "http://www.wikidata.org/prop/direct/P571": ["1985"], "http://xmlns.com/foaf/0.1/homepage": ["https://www.bwb.de/de/trinkbrunnen.php"]}, "geometry": {"type": "Point", "coordinates": [13.446165, 52.47220903688798]}}, {"type": "Feature", "id": "https://gdi-de.github.io/apworkshop2026/200", "name": "", "dateprops": ["http://www.wikidata.org/prop/direct/P571", "http://www.wikidata.org/prop/direct/P571"], "properties": {"http://rdfs.org/ns/void#inDataset": ["https://gdk.gdi-de.org/inspire/srv/eng/xml_iso19139?uuid=8aaca41b-d665-447a-93ec-b76e431852fc", "https://gdi-de.github.io/apworkshop2026/gdide_dataset"], "http://www.opengis.net/ont/geosparql#hasGeometry": ["https://gdi-de.github.io/apworkshop2026/200_geom"], "http://www.w3.org/1999/02/22-rdf-syntax-ns#type": ["https://gdi-de.github.io/apworkshop2026/ont#Kaiser"], "http://www.w3.org/2000/01/rdf-schema#comment": ["Betriebszeit: Mai bis Oktober, Link: https://www.bwb.de/de/trinkbrunnen.php  "], "http://www.w3.org/2000/01/rdf-schema#label": ["Brunnen 200"], "http://www.w3.org/2004/02/skos/core#scopeNote": ["nan"], "http://www.w3.org/2006/time#hasTime": ["https://gdi-de.github.io/apworkshop2026/200_openmonths"], "http://www.w3.org/ns/locn#postCode": ["12355"], "http://www.wikidata.org/prop/direct/P131": ["http://www.wikidata.org/entity/Q4071168", "http://www.wikidata.org/entity/Q64"], "http://www.wikidata.org/prop/direct/P571": ["2022"], "http://xmlns.com/foaf/0.1/homepage": ["https://www.bwb.de/de/trinkbrunnen.php"]}, "geometry": {"type": "Point", "coordinates": [13.484616, 52.412293036950516]}}, {"type": "Feature", "id": "https://gdi-de.github.io/apworkshop2026/2", "name": "", "dateprops": ["http://www.wikidata.org/prop/direct/P571", "http://www.wikidata.org/prop/direct/P571"], "properties": {"http://rdfs.org/ns/void#inDataset": ["https://gdk.gdi-de.org/inspire/srv/eng/xml_iso19139?uuid=8aaca41b-d665-447a-93ec-b76e431852fc", "https://gdi-de.github.io/apworkshop2026/gdide_dataset"], "http://www.opengis.net/ont/geosparql#hasGeometry": ["https://gdi-de.github.io/apworkshop2026/2_geom"], "http://www.w3.org/1999/02/22-rdf-syntax-ns#type": ["https://gdi-de.github.io/apworkshop2026/ont#Kaiser"], "http://www.w3.org/2000/01/rdf-schema#comment": ["Betriebszeit: Mai bis Oktober, Link: https://www.bwb.de/de/trinkbrunnen.php  "], "http://www.w3.org/2000/01/rdf-schema#label": ["Brunnen 2"], "http://www.w3.org/2004/02/skos/core#scopeNote": ["nan"], "http://www.w3.org/2006/time#hasTime": ["https://gdi-de.github.io/apworkshop2026/2_openmonths"], "http://www.w3.org/ns/locn#postCode": ["12349"], "http://www.wikidata.org/prop/direct/P131": ["http://www.wikidata.org/entity/Q4071168", "http://www.wikidata.org/entity/Q64"], "http://www.wikidata.org/prop/direct/P571": ["1985"], "http://xmlns.com/foaf/0.1/homepage": ["https://www.bwb.de/de/trinkbrunnen.php"]}, "geometry": {"type": "Point", "coordinates": [13.415048, 52.431351036930394]}}], "numberMatched": 19, "numberReturned": 19, "bbox": [13.407019, 52.40675203695632, 13.508135000000122, 52.48945703686993], "crs": "http://www.opengis.net/def/crs/EPSG/0/4326"}