{"type": "FeatureCollection", "id": "http://www.wikidata.org/entity/Q158876", "name": "Reinickendorf", "features": [{"type": "Feature", "id": "https://gdi-de.github.io/apworkshop2026/18", "name": "", "dateprops": ["http://www.wikidata.org/prop/direct/P571", "http://www.wikidata.org/prop/direct/P571"], "properties": {"http://rdfs.org/ns/void#inDataset": ["https://gdk.gdi-de.org/inspire/srv/eng/xml_iso19139?uuid=8aaca41b-d665-447a-93ec-b76e431852fc", "https://gdi-de.github.io/apworkshop2026/gdide_dataset"], "http://www.opengis.net/ont/geosparql#hasGeometry": ["https://gdi-de.github.io/apworkshop2026/18_geom"], "http://www.w3.org/1999/02/22-rdf-syntax-ns#type": ["https://gdi-de.github.io/apworkshop2026/ont#Kaiser"], "http://www.w3.org/2000/01/rdf-schema#comment": ["Betriebszeit: Mai bis Oktober, Link: https://www.bwb.de/de/trinkbrunnen.php  "], "http://www.w3.org/2000/01/rdf-schema#label": ["Brunnen 18"], "http://www.w3.org/2004/02/skos/core#scopeNote": ["nan"], "http://www.w3.org/2006/time#hasTime": ["https://gdi-de.github.io/apworkshop2026/18_openmonths"], "http://www.w3.org/ns/locn#postCode": ["13507"], "http://www.wikidata.org/prop/direct/P131": ["http://www.wikidata.org/entity/Q158876", "http://www.wikidata.org/entity/Q64"], "http://www.wikidata.org/prop/direct/P571": ["1985"], "http://xmlns.com/foaf/0.1/homepage": ["https://www.bwb.de/de/trinkbrunnen.php"]}, "geometry": {"type": "Point", "coordinates": [13.265878999999718, 52.57534703677839]}}, {"type": "Feature", "id": "https://gdi-de.github.io/apworkshop2026/12", "name": "", "dateprops": ["http://www.wikidata.org/prop/direct/P571", "http://www.wikidata.org/prop/direct/P571"], "properties": {"http://rdfs.org/ns/void#inDataset": ["https://gdk.gdi-de.org/inspire/srv/eng/xml_iso19139?uuid=8aaca41b-d665-447a-93ec-b76e431852fc", "https://gdi-de.github.io/apworkshop2026/gdide_dataset"], "http://www.opengis.net/ont/geosparql#hasGeometry": ["https://gdi-de.github.io/apworkshop2026/12_geom"], "http://www.w3.org/1999/02/22-rdf-syntax-ns#type": ["https://gdi-de.github.io/apworkshop2026/ont#Kaiser"], "http://www.w3.org/2000/01/rdf-schema#comment": ["Betriebszeit: Mai bis Oktober, Link: https://www.bwb.de/de/trinkbrunnen.php   "], "http://www.w3.org/2000/01/rdf-schema#label": ["Brunnen 12"], "http://www.w3.org/2004/02/skos/core#scopeNote": ["nan"], "http://www.w3.org/2006/time#hasTime": ["https://gdi-de.github.io/apworkshop2026/12_openmonths"], "http://www.w3.org/ns/locn#postCode": ["13507"], "http://www.wikidata.org/prop/direct/P131": ["http://www.wikidata.org/entity/Q158876", "http://www.wikidata.org/entity/Q64"], "http://www.wikidata.org/prop/direct/P571": ["2022"], "http://xmlns.com/foaf/0.1/homepage": ["https://www.bwb.de/de/trinkbrunnen.php"]}, "geometry": {"type": "Point", "coordinates": [13.286386999999733, 52.59001003676306]}}, {"type": "Feature", "id": "https://gdi-de.github.io/apworkshop2026/71", "name": "", "dateprops": ["http://www.wikidata.org/prop/direct/P571", "http://www.wikidata.org/prop/direct/P571"], "properties": {"http://rdfs.org/ns/void#inDataset": ["https://gdk.gdi-de.org/inspire/srv/eng/xml_iso19139?uuid=8aaca41b-d665-447a-93ec-b76e431852fc", "https://gdi-de.github.io/apworkshop2026/gdide_dataset"], "http://www.opengis.net/ont/geosparql#hasGeometry": ["https://gdi-de.github.io/apworkshop2026/71_geom"], "http://www.w3.org/1999/02/22-rdf-syntax-ns#type": ["https://gdi-de.github.io/apworkshop2026/ont#Kaiser"], "http://www.w3.org/2000/01/rdf-schema#comment": ["Betriebszeit: Mai bis Oktober, Link: https://www.bwb.de/de/trinkbrunnen.php  "], "http://www.w3.org/2000/01/rdf-schema#label": ["Brunnen 71"], "http://www.w3.org/2004/02/skos/core#scopeNote": ["nan"], "http://www.w3.org/2006/time#hasTime": ["https://gdi-de.github.io/apworkshop2026/71_openmonths"], "http://www.w3.org/ns/locn#postCode": ["13437"], "http://www.wikidata.org/prop/direct/P131": ["http://www.wikidata.org/entity/Q158876", "http://www.wikidata.org/entity/Q64"], "http://www.wikidata.org/prop/direct/P571": ["2019"], "http://xmlns.com/foaf/0.1/homepage": ["https://www.bwb.de/de/trinkbrunnen.php"]}, "geometry": {"type": "Point", "coordinates": [13.32459499999983, 52.58879903676465]}}, {"type": "Feature", "id": "https://gdi-de.github.io/apworkshop2026/79", "name": "", "dateprops": ["http://www.wikidata.org/prop/direct/P571", "http://www.wikidata.org/prop/direct/P571"], "properties": {"http://rdfs.org/ns/void#inDataset": ["https://gdk.gdi-de.org/inspire/srv/eng/xml_iso19139?uuid=8aaca41b-d665-447a-93ec-b76e431852fc", "https://gdi-de.github.io/apworkshop2026/gdide_dataset"], "http://www.opengis.net/ont/geosparql#hasGeometry": ["https://gdi-de.github.io/apworkshop2026/79_geom"], "http://www.w3.org/1999/02/22-rdf-syntax-ns#type": ["https://gdi-de.github.io/apworkshop2026/ont#Bituma"], "http://www.w3.org/2000/01/rdf-schema#comment": ["Betriebszeit: Mai bis Oktober, Link: https://www.bwb.de/de/trinkbrunnen.php  "], "http://www.w3.org/2000/01/rdf-schema#label": ["Brunnen 79"], "http://www.w3.org/2004/02/skos/core#scopeNote": ["nan"], "http://www.w3.org/2006/time#hasTime": ["https://gdi-de.github.io/apworkshop2026/79_openmonths"], "http://www.w3.org/ns/locn#postCode": ["13465"], "http://www.wikidata.org/prop/direct/P131": ["http://www.wikidata.org/entity/Q158876", "http://www.wikidata.org/entity/Q64"], "http://www.wikidata.org/prop/direct/P571": ["2020"], "http://xmlns.com/foaf/0.1/homepage": ["https://www.bwb.de/de/trinkbrunnen.php"]}, "geometry": {"type": "Point", "coordinates": [13.290270999999724, 52.634398036716036]}}, {"type": "Feature", "id": "https://gdi-de.github.io/apworkshop2026/147", "name": "", "dateprops": ["http://www.wikidata.org/prop/direct/P571", "http://www.wikidata.org/prop/direct/P571"], "properties": {"http://rdfs.org/ns/void#inDataset": ["https://gdk.gdi-de.org/inspire/srv/eng/xml_iso19139?uuid=8aaca41b-d665-447a-93ec-b76e431852fc", "https://gdi-de.github.io/apworkshop2026/gdide_dataset"], "http://www.opengis.net/ont/geosparql#hasGeometry": ["https://gdi-de.github.io/apworkshop2026/147_geom"], "http://www.w3.org/1999/02/22-rdf-syntax-ns#type": ["https://gdi-de.github.io/apworkshop2026/ont#Bituma"], "http://www.w3.org/2000/01/rdf-schema#comment": ["Betriebszeit: Mai bis Oktober, Link: https://www.bwb.de/de/trinkbrunnen.php  "], "http://www.w3.org/2000/01/rdf-schema#label": ["Brunnen 147"], "http://www.w3.org/2004/02/skos/core#scopeNote": ["nan"], "http://www.w3.org/2006/time#hasTime": ["https://gdi-de.github.io/apworkshop2026/147_openmonths"], "http://www.w3.org/ns/locn#postCode": ["13409"], "http://www.wikidata.org/prop/direct/P131": ["http://www.wikidata.org/entity/Q158876", "http://www.wikidata.org/entity/Q64"], "http://www.wikidata.org/prop/direct/P571": ["2020"], "http://xmlns.com/foaf/0.1/homepage": ["https://www.bwb.de/de/trinkbrunnen.php"]}, "geometry": {"type": "Point", "coordinates": [13.360173999999883, 52.5722280367824]}}, {"type": "Feature", "id": "https://gdi-de.github.io/apworkshop2026/146", "name": "", "dateprops": ["http://www.wikidata.org/prop/direct/P571", "http://www.wikidata.org/prop/direct/P571"], "properties": {"http://rdfs.org/ns/void#inDataset": ["https://gdk.gdi-de.org/inspire/srv/eng/xml_iso19139?uuid=8aaca41b-d665-447a-93ec-b76e431852fc", "https://gdi-de.github.io/apworkshop2026/gdide_dataset"], "http://www.opengis.net/ont/geosparql#hasGeometry": ["https://gdi-de.github.io/apworkshop2026/146_geom"], "http://www.w3.org/1999/02/22-rdf-syntax-ns#type": ["https://gdi-de.github.io/apworkshop2026/ont#Bituma"], "http://www.w3.org/2000/01/rdf-schema#comment": ["Betriebszeit: Mai bis Oktober, Link: https://www.bwb.de/de/trinkbrunnen.php  "], "http://www.w3.org/2000/01/rdf-schema#label": ["Brunnen 146"], "http://www.w3.org/2004/02/skos/core#scopeNote": ["nan"], "http://www.w3.org/2006/time#hasTime": ["https://gdi-de.github.io/apworkshop2026/146_openmonths"], "http://www.w3.org/ns/locn#postCode": ["13435"], "http://www.wikidata.org/prop/direct/P131": ["http://www.wikidata.org/entity/Q158876", "http://www.wikidata.org/entity/Q64"], "http://www.wikidata.org/prop/direct/P571": ["2020"], "http://xmlns.com/foaf/0.1/homepage": ["https://www.bwb.de/de/trinkbrunnen.php"]}, "geometry": {"type": "Point", "coordinates": [13.353193999999856, 52.6000910367529]}}, {"type": "Feature", "id": "https://gdi-de.github.io/apworkshop2026/184", "name": "", "dateprops": ["http://www.wikidata.org/prop/direct/P571", "http://www.wikidata.org/prop/direct/P571"], "properties": {"http://rdfs.org/ns/void#inDataset": ["https://gdk.gdi-de.org/inspire/srv/eng/xml_iso19139?uuid=8aaca41b-d665-447a-93ec-b76e431852fc", "https://gdi-de.github.io/apworkshop2026/gdide_dataset"], "http://www.opengis.net/ont/geosparql#hasGeometry": ["https://gdi-de.github.io/apworkshop2026/184_geom"], "http://www.w3.org/1999/02/22-rdf-syntax-ns#type": ["https://gdi-de.github.io/apworkshop2026/ont#Kaiser"], "http://www.w3.org/2000/01/rdf-schema#comment": ["Betriebszeit: Mai bis Oktober, Link: https://www.bwb.de/de/trinkbrunnen.php  "], "http://www.w3.org/2000/01/rdf-schema#label": ["Brunnen 184"], "http://www.w3.org/2004/02/skos/core#scopeNote": ["nan"], "http://www.w3.org/2006/time#hasTime": ["https://gdi-de.github.io/apworkshop2026/184_openmonths"], "http://www.w3.org/ns/locn#postCode": ["13437"], "http://www.wikidata.org/prop/direct/P131": ["http://www.wikidata.org/entity/Q158876", "http://www.wikidata.org/entity/Q64"], "http://www.wikidata.org/prop/direct/P571": ["2021"], "http://xmlns.com/foaf/0.1/homepage": ["https://www.bwb.de/de/trinkbrunnen.php"]}, "geometry": {"type": "Point", "coordinates": [13.306169999999792, 52.60183103675072]}}, {"type": "Feature", "id": "https://gdi-de.github.io/apworkshop2026/42", "name": "", "dateprops": ["http://www.wikidata.org/prop/direct/P571", "http://www.wikidata.org/prop/direct/P571"], "properties": {"http://rdfs.org/ns/void#inDataset": ["https://gdk.gdi-de.org/inspire/srv/eng/xml_iso19139?uuid=8aaca41b-d665-447a-93ec-b76e431852fc", "https://gdi-de.github.io/apworkshop2026/gdide_dataset"], "http://www.opengis.net/ont/geosparql#hasGeometry": ["https://gdi-de.github.io/apworkshop2026/42_geom"], "http://www.w3.org/1999/02/22-rdf-syntax-ns#type": ["https://gdi-de.github.io/apworkshop2026/ont#Botsch"], "http://www.w3.org/2000/01/rdf-schema#comment": ["Betriebszeit: Mai bis Oktober, Link: https://www.bwb.de/de/trinkbrunnen.php  "], "http://www.w3.org/2000/01/rdf-schema#label": ["Brunnen 42"], "http://www.w3.org/2004/02/skos/core#scopeNote": ["nan"], "http://www.w3.org/2006/time#hasTime": ["https://gdi-de.github.io/apworkshop2026/42_openmonths"], "http://www.w3.org/ns/locn#postCode": ["13507"], "http://www.wikidata.org/prop/direct/P131": ["http://www.wikidata.org/entity/Q158876", "http://www.wikidata.org/entity/Q64"], "http://www.wikidata.org/prop/direct/P571": ["2017"], "http://xmlns.com/foaf/0.1/homepage": ["https://www.bwb.de/de/trinkbrunnen.php"]}, "geometry": {"type": "Point", "coordinates": [13.287351999999773, 52.58527203676812]}}, {"type": "Feature", "id": "https://gdi-de.github.io/apworkshop2026/43", "name": "", "dateprops": ["http://www.wikidata.org/prop/direct/P571", "http://www.wikidata.org/prop/direct/P571"], "properties": {"http://rdfs.org/ns/void#inDataset": ["https://gdk.gdi-de.org/inspire/srv/eng/xml_iso19139?uuid=8aaca41b-d665-447a-93ec-b76e431852fc", "https://gdi-de.github.io/apworkshop2026/gdide_dataset"], "http://www.opengis.net/ont/geosparql#hasGeometry": ["https://gdi-de.github.io/apworkshop2026/43_geom"], "http://www.w3.org/1999/02/22-rdf-syntax-ns#type": ["https://gdi-de.github.io/apworkshop2026/ont#Kaiser"], "http://www.w3.org/2000/01/rdf-schema#comment": ["Betriebszeit: Mai bis Oktober, Link: https://www.bwb.de/de/trinkbrunnen.php  "], "http://www.w3.org/2000/01/rdf-schema#label": ["Brunnen 43"], "http://www.w3.org/2004/02/skos/core#scopeNote": ["nan"], "http://www.w3.org/2006/time#hasTime": ["https://gdi-de.github.io/apworkshop2026/43_openmonths"], "http://www.w3.org/ns/locn#postCode": ["13507"], "http://www.wikidata.org/prop/direct/P131": ["http://www.wikidata.org/entity/Q158876", "http://www.wikidata.org/entity/Q64"], "http://www.wikidata.org/prop/direct/P571": ["2017"], "http://xmlns.com/foaf/0.1/homepage": ["https://www.bwb.de/de/trinkbrunnen.php"]}, "geometry": {"type": "Point", "coordinates": [13.274755999999703, 52.58676103676643]}}, {"type": "Feature", "id": "https://gdi-de.github.io/apworkshop2026/80", "name": "", "dateprops": ["http://www.wikidata.org/prop/direct/P571", "http://www.wikidata.org/prop/direct/P571"], "properties": {"http://rdfs.org/ns/void#inDataset": ["https://gdk.gdi-de.org/inspire/srv/eng/xml_iso19139?uuid=8aaca41b-d665-447a-93ec-b76e431852fc", "https://gdi-de.github.io/apworkshop2026/gdide_dataset"], "http://www.opengis.net/ont/geosparql#hasGeometry": ["https://gdi-de.github.io/apworkshop2026/80_geom"], "http://www.w3.org/1999/02/22-rdf-syntax-ns#type": ["https://gdi-de.github.io/apworkshop2026/ont#Kaiser"], "http://www.w3.org/2000/01/rdf-schema#comment": ["Betriebszeit: Mai bis Oktober, Link: https://www.bwb.de/de/trinkbrunnen.php  "], "http://www.w3.org/2000/01/rdf-schema#label": ["Brunnen 80"], "http://www.w3.org/2004/02/skos/core#scopeNote": ["nan"], "http://www.w3.org/2006/time#hasTime": ["https://gdi-de.github.io/apworkshop2026/80_openmonths"], "http://www.w3.org/ns/locn#postCode": ["13407"], "http://www.wikidata.org/prop/direct/P131": ["http://www.wikidata.org/entity/Q158876", "http://www.wikidata.org/entity/Q64"], "http://www.wikidata.org/prop/direct/P571": ["2019"], "http://xmlns.com/foaf/0.1/homepage": ["https://www.bwb.de/de/trinkbrunnen.php"]}, "geometry": {"type": "Point", "coordinates": [13.361911999999895, 52.56332303679182]}}], "numberMatched": 10, "numberReturned": 10, "bbox": [13.265878999999718, 52.56332303679182, 13.361911999999895, 52.634398036716036], "crs": "http://www.opengis.net/def/crs/EPSG/0/4326"}