{"type": "FeatureCollection", "id": "http://www.wikidata.org/entity/Q158095", "name": "Charlottenburg-Wilmersdorf", "features": [{"type": "Feature", "id": "https://gdi-de.github.io/apworkshop2026/214", "name": "", "dateprops": ["http://www.wikidata.org/prop/direct/P571", "http://www.wikidata.org/prop/direct/P571"], "properties": {"http://rdfs.org/ns/void#inDataset": ["https://gdk.gdi-de.org/inspire/srv/eng/xml_iso19139?uuid=8aaca41b-d665-447a-93ec-b76e431852fc", "https://gdi-de.github.io/apworkshop2026/gdide_dataset"], "http://www.opengis.net/ont/geosparql#hasGeometry": ["https://gdi-de.github.io/apworkshop2026/214_geom"], "http://www.w3.org/1999/02/22-rdf-syntax-ns#type": ["https://gdi-de.github.io/apworkshop2026/ont#Kaiser"], "http://www.w3.org/2000/01/rdf-schema#comment": ["Betriebszeit: Mai bis Oktober, Link: https://www.bwb.de/de/trinkbrunnen.php  "], "http://www.w3.org/2000/01/rdf-schema#label": ["Brunnen 214"], "http://www.w3.org/2004/02/skos/core#scopeNote": ["nan"], "http://www.w3.org/2006/time#hasTime": ["https://gdi-de.github.io/apworkshop2026/214_openmonths"], "http://www.w3.org/ns/locn#postCode": ["10779"], "http://www.wikidata.org/prop/direct/P131": ["http://www.wikidata.org/entity/Q158095", "http://www.wikidata.org/entity/Q64"], "http://www.wikidata.org/prop/direct/P571": ["2023"], "http://xmlns.com/foaf/0.1/homepage": ["https://www.bwb.de/de/trinkbrunnen.php"]}, "geometry": {"type": "Point", "coordinates": [13.333259999999795, 52.493519036864996]}}, {"type": "Feature", "id": "https://gdi-de.github.io/apworkshop2026/20", "name": "", "dateprops": ["http://www.wikidata.org/prop/direct/P571", "http://www.wikidata.org/prop/direct/P571"], "properties": {"http://rdfs.org/ns/void#inDataset": ["https://gdk.gdi-de.org/inspire/srv/eng/xml_iso19139?uuid=8aaca41b-d665-447a-93ec-b76e431852fc", "https://gdi-de.github.io/apworkshop2026/gdide_dataset"], "http://www.opengis.net/ont/geosparql#hasGeometry": ["https://gdi-de.github.io/apworkshop2026/20_geom"], "http://www.w3.org/2000/01/rdf-schema#comment": ["Betriebszeit: Mai bis Oktober, Link: https://www.bwb.de/de/trinkbrunnen.php  "], "http://www.w3.org/2000/01/rdf-schema#label": ["Brunnen 20"], "http://www.w3.org/2004/02/skos/core#scopeNote": ["nan"], "http://www.w3.org/2006/time#hasTime": ["https://gdi-de.github.io/apworkshop2026/20_openmonths"], "http://www.w3.org/ns/locn#postCode": ["10623"], "http://www.wikidata.org/prop/direct/P131": ["http://www.wikidata.org/entity/Q158095", "http://www.wikidata.org/entity/Q64"], "http://www.wikidata.org/prop/direct/P571": ["1994"], "http://xmlns.com/foaf/0.1/homepage": ["https://www.bwb.de/de/trinkbrunnen.php"]}, "geometry": {"type": "Point", "coordinates": [13.32500099999981, 52.50267903685534]}}, {"type": "Feature", "id": "https://gdi-de.github.io/apworkshop2026/26", "name": "", "dateprops": ["http://www.wikidata.org/prop/direct/P571", "http://www.wikidata.org/prop/direct/P571"], "properties": {"http://rdfs.org/ns/void#inDataset": ["https://gdk.gdi-de.org/inspire/srv/eng/xml_iso19139?uuid=8aaca41b-d665-447a-93ec-b76e431852fc", "https://gdi-de.github.io/apworkshop2026/gdide_dataset"], "http://www.opengis.net/ont/geosparql#hasGeometry": ["https://gdi-de.github.io/apworkshop2026/26_geom"], "http://www.w3.org/1999/02/22-rdf-syntax-ns#type": ["https://gdi-de.github.io/apworkshop2026/ont#Brunnen_fuer_Jogger"], "http://www.w3.org/2000/01/rdf-schema#comment": ["Betriebszeit: Mai bis Oktober, Link: https://www.bwb.de/de/trinkbrunnen.php  "], "http://www.w3.org/2000/01/rdf-schema#label": ["Brunnen 26"], "http://www.w3.org/2004/02/skos/core#scopeNote": ["nan"], "http://www.w3.org/2006/time#hasTime": ["https://gdi-de.github.io/apworkshop2026/26_openmonths"], "http://www.w3.org/ns/locn#postCode": ["14193"], "http://www.wikidata.org/prop/direct/P131": ["http://www.wikidata.org/entity/Q158095", "http://www.wikidata.org/entity/Q64"], "http://www.wikidata.org/prop/direct/P571": ["2014"], "http://xmlns.com/foaf/0.1/homepage": ["https://www.bwb.de/de/trinkbrunnen.php"]}, "geometry": {"type": "Point", "coordinates": [13.235949999999645, 52.49224003686552]}}, {"type": "Feature", "id": "https://gdi-de.github.io/apworkshop2026/78", "name": "", "dateprops": ["http://www.wikidata.org/prop/direct/P571", "http://www.wikidata.org/prop/direct/P571"], "properties": {"http://rdfs.org/ns/void#inDataset": ["https://gdk.gdi-de.org/inspire/srv/eng/xml_iso19139?uuid=8aaca41b-d665-447a-93ec-b76e431852fc", "https://gdi-de.github.io/apworkshop2026/gdide_dataset"], "http://www.opengis.net/ont/geosparql#hasGeometry": ["https://gdi-de.github.io/apworkshop2026/78_geom"], "http://www.w3.org/1999/02/22-rdf-syntax-ns#type": ["https://gdi-de.github.io/apworkshop2026/ont#Kaiser"], "http://www.w3.org/2000/01/rdf-schema#comment": ["Betriebszeit: Mai bis Oktober, Link: https://www.bwb.de/de/trinkbrunnen.php  "], "http://www.w3.org/2000/01/rdf-schema#label": ["Brunnen 78"], "http://www.w3.org/2004/02/skos/core#scopeNote": ["nan"], "http://www.w3.org/2006/time#hasTime": ["https://gdi-de.github.io/apworkshop2026/78_openmonths"], "http://www.w3.org/ns/locn#postCode": ["10713"], "http://www.wikidata.org/prop/direct/P131": ["http://www.wikidata.org/entity/Q158095", "http://www.wikidata.org/entity/Q64"], "http://www.wikidata.org/prop/direct/P571": ["2019"], "http://xmlns.com/foaf/0.1/homepage": ["https://www.bwb.de/de/trinkbrunnen.php"]}, "geometry": {"type": "Point", "coordinates": [13.318920999999838, 52.48334303687551]}}, {"type": "Feature", "id": "https://gdi-de.github.io/apworkshop2026/221", "name": "", "dateprops": ["http://www.wikidata.org/prop/direct/P571", "http://www.wikidata.org/prop/direct/P571"], "properties": {"http://rdfs.org/ns/void#inDataset": ["https://gdk.gdi-de.org/inspire/srv/eng/xml_iso19139?uuid=8aaca41b-d665-447a-93ec-b76e431852fc", "https://gdi-de.github.io/apworkshop2026/gdide_dataset"], "http://www.opengis.net/ont/geosparql#hasGeometry": ["https://gdi-de.github.io/apworkshop2026/221_geom"], "http://www.w3.org/1999/02/22-rdf-syntax-ns#type": ["https://gdi-de.github.io/apworkshop2026/ont#Kaiser"], "http://www.w3.org/2000/01/rdf-schema#comment": ["Betriebszeit: Mai bis Oktober, Link: https://www.bwb.de/de/trinkbrunnen.php  "], "http://www.w3.org/2000/01/rdf-schema#label": ["Brunnen 221"], "http://www.w3.org/2004/02/skos/core#scopeNote": ["nan"], "http://www.w3.org/2006/time#hasTime": ["https://gdi-de.github.io/apworkshop2026/221_openmonths"], "http://www.w3.org/ns/locn#postCode": ["14197"], "http://www.wikidata.org/prop/direct/P131": ["http://www.wikidata.org/entity/Q158095", "http://www.wikidata.org/entity/Q64"], "http://www.wikidata.org/prop/direct/P571": ["2023"], "http://xmlns.com/foaf/0.1/homepage": ["https://www.bwb.de/de/trinkbrunnen.php"]}, "geometry": {"type": "Point", "coordinates": [13.309488999999768, 52.473275036885994]}}, {"type": "Feature", "id": "https://gdi-de.github.io/apworkshop2026/22", "name": "", "dateprops": ["http://www.wikidata.org/prop/direct/P571", "http://www.wikidata.org/prop/direct/P571"], "properties": {"http://rdfs.org/ns/void#inDataset": ["https://gdk.gdi-de.org/inspire/srv/eng/xml_iso19139?uuid=8aaca41b-d665-447a-93ec-b76e431852fc", "https://gdi-de.github.io/apworkshop2026/gdide_dataset"], "http://www.opengis.net/ont/geosparql#hasGeometry": ["https://gdi-de.github.io/apworkshop2026/22_geom"], "http://www.w3.org/1999/02/22-rdf-syntax-ns#type": ["https://gdi-de.github.io/apworkshop2026/ont#Botsch"], "http://www.w3.org/2000/01/rdf-schema#comment": ["Betriebszeit: Mai bis Oktober, Link: https://www.bwb.de/de/trinkbrunnen.php  "], "http://www.w3.org/2000/01/rdf-schema#label": ["Brunnen 22"], "http://www.w3.org/2004/02/skos/core#scopeNote": ["nan"], "http://www.w3.org/2006/time#hasTime": ["https://gdi-de.github.io/apworkshop2026/22_openmonths"], "http://www.w3.org/ns/locn#postCode": ["10719"], "http://www.wikidata.org/prop/direct/P131": ["http://www.wikidata.org/entity/Q158095", "http://www.wikidata.org/entity/Q64"], "http://www.wikidata.org/prop/direct/P571": ["2010"], "http://xmlns.com/foaf/0.1/homepage": ["https://www.bwb.de/de/trinkbrunnen.php"]}, "geometry": {"type": "Point", "coordinates": [13.330357999999814, 52.503411036854615]}}, {"type": "Feature", "id": "https://gdi-de.github.io/apworkshop2026/95", "name": "", "dateprops": ["http://www.wikidata.org/prop/direct/P571", "http://www.wikidata.org/prop/direct/P571"], "properties": {"http://rdfs.org/ns/void#inDataset": ["https://gdk.gdi-de.org/inspire/srv/eng/xml_iso19139?uuid=8aaca41b-d665-447a-93ec-b76e431852fc", "https://gdi-de.github.io/apworkshop2026/gdide_dataset"], "http://www.opengis.net/ont/geosparql#hasGeometry": ["https://gdi-de.github.io/apworkshop2026/95_geom"], "http://www.w3.org/1999/02/22-rdf-syntax-ns#type": ["https://gdi-de.github.io/apworkshop2026/ont#Kaiser"], "http://www.w3.org/2000/01/rdf-schema#comment": ["Betriebszeit: Mai bis Oktober, Link: https://www.bwb.de/de/trinkbrunnen.php  "], "http://www.w3.org/2000/01/rdf-schema#label": ["Brunnen 95"], "http://www.w3.org/2004/02/skos/core#scopeNote": ["nan"], "http://www.w3.org/2006/time#hasTime": ["https://gdi-de.github.io/apworkshop2026/95_openmonths"], "http://www.w3.org/ns/locn#postCode": ["10717"], "http://www.wikidata.org/prop/direct/P131": ["http://www.wikidata.org/entity/Q158095", "http://www.wikidata.org/entity/Q64"], "http://www.wikidata.org/prop/direct/P571": ["2019"], "http://xmlns.com/foaf/0.1/homepage": ["https://www.bwb.de/de/trinkbrunnen.php"]}, "geometry": {"type": "Point", "coordinates": [13.319598999999766, 52.48934903686922]}}, {"type": "Feature", "id": "https://gdi-de.github.io/apworkshop2026/21", "name": "", "dateprops": ["http://www.wikidata.org/prop/direct/P571", "http://www.wikidata.org/prop/direct/P571"], "properties": {"http://rdfs.org/ns/void#inDataset": ["https://gdk.gdi-de.org/inspire/srv/eng/xml_iso19139?uuid=8aaca41b-d665-447a-93ec-b76e431852fc", "https://gdi-de.github.io/apworkshop2026/gdide_dataset"], "http://www.opengis.net/ont/geosparql#hasGeometry": ["https://gdi-de.github.io/apworkshop2026/21_geom"], "http://www.w3.org/1999/02/22-rdf-syntax-ns#type": ["https://gdi-de.github.io/apworkshop2026/ont#Brunnen_fuer_Jogger"], "http://www.w3.org/2000/01/rdf-schema#comment": ["Betriebszeit: Mai bis Oktober, Link: https://www.bwb.de/de/trinkbrunnen.php  "], "http://www.w3.org/2000/01/rdf-schema#label": ["Brunnen 21"], "http://www.w3.org/2004/02/skos/core#scopeNote": ["nan"], "http://www.w3.org/2006/time#hasTime": ["https://gdi-de.github.io/apworkshop2026/21_openmonths"], "http://www.w3.org/ns/locn#postCode": ["14193"], "http://www.wikidata.org/prop/direct/P131": ["http://www.wikidata.org/entity/Q158095", "http://www.wikidata.org/entity/Q64"], "http://www.wikidata.org/prop/direct/P571": ["2008"], "http://xmlns.com/foaf/0.1/homepage": ["https://www.bwb.de/de/trinkbrunnen.php"]}, "geometry": {"type": "Point", "coordinates": [13.210372999999553, 52.477762036880364]}}, {"type": "Feature", "id": "https://gdi-de.github.io/apworkshop2026/222", "name": "", "dateprops": ["http://www.wikidata.org/prop/direct/P571", "http://www.wikidata.org/prop/direct/P571"], "properties": {"http://rdfs.org/ns/void#inDataset": ["https://gdk.gdi-de.org/inspire/srv/eng/xml_iso19139?uuid=8aaca41b-d665-447a-93ec-b76e431852fc", "https://gdi-de.github.io/apworkshop2026/gdide_dataset"], "http://www.opengis.net/ont/geosparql#hasGeometry": ["https://gdi-de.github.io/apworkshop2026/222_geom"], "http://www.w3.org/1999/02/22-rdf-syntax-ns#type": ["https://gdi-de.github.io/apworkshop2026/ont#Kaiser"], "http://www.w3.org/2000/01/rdf-schema#comment": ["Betriebszeit: Mai bis Oktober, Link: https://www.bwb.de/de/trinkbrunnen.php  "], "http://www.w3.org/2000/01/rdf-schema#label": ["Brunnen 222"], "http://www.w3.org/2004/02/skos/core#scopeNote": ["nan"], "http://www.w3.org/2006/time#hasTime": ["https://gdi-de.github.io/apworkshop2026/222_openmonths"], "http://www.w3.org/ns/locn#postCode": ["10585"], "http://www.wikidata.org/prop/direct/P131": ["http://www.wikidata.org/entity/Q158095", "http://www.wikidata.org/entity/Q64"], "http://www.wikidata.org/prop/direct/P571": ["2023"], "http://xmlns.com/foaf/0.1/homepage": ["https://www.bwb.de/de/trinkbrunnen.php"]}, "geometry": {"type": "Point", "coordinates": [13.299112999999776, 52.51527303684191]}}, {"type": "Feature", "id": "https://gdi-de.github.io/apworkshop2026/237", "name": "", "dateprops": ["http://www.wikidata.org/prop/direct/P571", "http://www.wikidata.org/prop/direct/P571"], "properties": {"http://rdfs.org/ns/void#inDataset": ["https://gdk.gdi-de.org/inspire/srv/eng/xml_iso19139?uuid=8aaca41b-d665-447a-93ec-b76e431852fc", "https://gdi-de.github.io/apworkshop2026/gdide_dataset"], "http://www.opengis.net/ont/geosparql#hasGeometry": ["https://gdi-de.github.io/apworkshop2026/237_geom"], "http://www.w3.org/1999/02/22-rdf-syntax-ns#type": ["https://gdi-de.github.io/apworkshop2026/ont#Kaiser"], "http://www.w3.org/2000/01/rdf-schema#comment": ["Betriebszeit: Mai bis Oktober, Link: https://www.bwb.de/de/trinkbrunnen.php  "], "http://www.w3.org/2000/01/rdf-schema#label": ["Brunnen 237"], "http://www.w3.org/2004/02/skos/core#scopeNote": ["nan"], "http://www.w3.org/2006/time#hasTime": ["https://gdi-de.github.io/apworkshop2026/237_openmonths"], "http://www.w3.org/ns/locn#postCode": ["14053"], "http://www.wikidata.org/prop/direct/P131": ["http://www.wikidata.org/entity/Q158095", "http://www.wikidata.org/entity/Q64"], "http://www.wikidata.org/prop/direct/P571": ["2024"], "http://xmlns.com/foaf/0.1/homepage": ["https://www.bwb.de/de/trinkbrunnen.php"]}, "geometry": {"type": "Point", "coordinates": [13.240514999999634, 52.51202003684478]}}, {"type": "Feature", "id": "https://gdi-de.github.io/apworkshop2026/216", "name": "", "dateprops": ["http://www.wikidata.org/prop/direct/P571", "http://www.wikidata.org/prop/direct/P571"], "properties": {"http://rdfs.org/ns/void#inDataset": ["https://gdk.gdi-de.org/inspire/srv/eng/xml_iso19139?uuid=8aaca41b-d665-447a-93ec-b76e431852fc", "https://gdi-de.github.io/apworkshop2026/gdide_dataset"], "http://www.opengis.net/ont/geosparql#hasGeometry": ["https://gdi-de.github.io/apworkshop2026/216_geom"], "http://www.w3.org/1999/02/22-rdf-syntax-ns#type": ["https://gdi-de.github.io/apworkshop2026/ont#Kaiser"], "http://www.w3.org/2000/01/rdf-schema#comment": ["Betriebszeit: Mai bis Oktober, Link: https://www.bwb.de/de/trinkbrunnen.php  "], "http://www.w3.org/2000/01/rdf-schema#label": ["Brunnen 216"], "http://www.w3.org/2004/02/skos/core#scopeNote": ["nan"], "http://www.w3.org/2006/time#hasTime": ["https://gdi-de.github.io/apworkshop2026/216_openmonths"], "http://www.w3.org/ns/locn#postCode": ["14057"], "http://www.wikidata.org/prop/direct/P131": ["http://www.wikidata.org/entity/Q158095", "http://www.wikidata.org/entity/Q64"], "http://www.wikidata.org/prop/direct/P571": ["2023"], "http://xmlns.com/foaf/0.1/homepage": ["https://www.bwb.de/de/trinkbrunnen.php"]}, "geometry": {"type": "Point", "coordinates": [13.291078999999714, 52.5101850368472]}}, {"type": "Feature", "id": "https://gdi-de.github.io/apworkshop2026/88", "name": "", "dateprops": ["http://www.wikidata.org/prop/direct/P571", "http://www.wikidata.org/prop/direct/P571"], "properties": {"http://rdfs.org/ns/void#inDataset": ["https://gdk.gdi-de.org/inspire/srv/eng/xml_iso19139?uuid=8aaca41b-d665-447a-93ec-b76e431852fc", "https://gdi-de.github.io/apworkshop2026/gdide_dataset"], "http://www.opengis.net/ont/geosparql#hasGeometry": ["https://gdi-de.github.io/apworkshop2026/88_geom"], "http://www.w3.org/1999/02/22-rdf-syntax-ns#type": ["https://gdi-de.github.io/apworkshop2026/ont#Kaiser"], "http://www.w3.org/2000/01/rdf-schema#comment": ["Betriebszeit: Mai bis Oktober, Link: https://www.bwb.de/de/trinkbrunnen.php  "], "http://www.w3.org/2000/01/rdf-schema#label": ["Brunnen 88"], "http://www.w3.org/2004/02/skos/core#scopeNote": ["nan"], "http://www.w3.org/2006/time#hasTime": ["https://gdi-de.github.io/apworkshop2026/88_openmonths"], "http://www.w3.org/ns/locn#postCode": ["10707"], "http://www.wikidata.org/prop/direct/P131": ["http://www.wikidata.org/entity/Q158095", "http://www.wikidata.org/entity/Q64"], "http://www.wikidata.org/prop/direct/P571": ["2019"], "http://xmlns.com/foaf/0.1/homepage": ["https://www.bwb.de/de/trinkbrunnen.php"]}, "geometry": {"type": "Point", "coordinates": [13.30734399999978, 52.50076803685722]}}, {"type": "Feature", "id": "https://gdi-de.github.io/apworkshop2026/238", "name": "", "dateprops": ["http://www.wikidata.org/prop/direct/P571", "http://www.wikidata.org/prop/direct/P571"], "properties": {"http://rdfs.org/ns/void#inDataset": ["https://gdk.gdi-de.org/inspire/srv/eng/xml_iso19139?uuid=8aaca41b-d665-447a-93ec-b76e431852fc", "https://gdi-de.github.io/apworkshop2026/gdide_dataset"], "http://www.opengis.net/ont/geosparql#hasGeometry": ["https://gdi-de.github.io/apworkshop2026/238_geom"], "http://www.w3.org/1999/02/22-rdf-syntax-ns#type": ["https://gdi-de.github.io/apworkshop2026/ont#Kaiser"], "http://www.w3.org/2000/01/rdf-schema#comment": ["Betriebszeit: Mai bis Oktober, Link: https://www.bwb.de/de/trinkbrunnen.php  "], "http://www.w3.org/2000/01/rdf-schema#label": ["Brunnen 238"], "http://www.w3.org/2004/02/skos/core#scopeNote": ["nan"], "http://www.w3.org/2006/time#hasTime": ["https://gdi-de.github.io/apworkshop2026/238_openmonths"], "http://www.w3.org/ns/locn#postCode": ["10715"], "http://www.wikidata.org/prop/direct/P131": ["http://www.wikidata.org/entity/Q158095", "http://www.wikidata.org/entity/Q64"], "http://www.wikidata.org/prop/direct/P571": ["2024"], "http://xmlns.com/foaf/0.1/homepage": ["https://www.bwb.de/de/trinkbrunnen.php"]}, "geometry": {"type": "Point", "coordinates": [13.322136999999827, 52.484287036874534]}}, {"type": "Feature", "id": "https://gdi-de.github.io/apworkshop2026/28", "name": "", "dateprops": ["http://www.wikidata.org/prop/direct/P571", "http://www.wikidata.org/prop/direct/P571"], "properties": {"http://rdfs.org/ns/void#inDataset": ["https://gdk.gdi-de.org/inspire/srv/eng/xml_iso19139?uuid=8aaca41b-d665-447a-93ec-b76e431852fc", "https://gdi-de.github.io/apworkshop2026/gdide_dataset"], "http://www.opengis.net/ont/geosparql#hasGeometry": ["https://gdi-de.github.io/apworkshop2026/28_geom"], "http://www.w3.org/1999/02/22-rdf-syntax-ns#type": ["https://gdi-de.github.io/apworkshop2026/ont#Kaiser"], "http://www.w3.org/2000/01/rdf-schema#comment": ["Betriebszeit: Mai bis Oktober, Link: https://www.bwb.de/de/trinkbrunnen.php  "], "http://www.w3.org/2000/01/rdf-schema#label": ["Brunnen 28"], "http://www.w3.org/2004/02/skos/core#scopeNote": ["nan"], "http://www.w3.org/2006/time#hasTime": ["https://gdi-de.github.io/apworkshop2026/28_openmonths"], "http://www.w3.org/ns/locn#postCode": ["14059"], "http://www.wikidata.org/prop/direct/P131": ["http://www.wikidata.org/entity/Q158095", "http://www.wikidata.org/entity/Q64"], "http://www.wikidata.org/prop/direct/P571": ["2015"], "http://xmlns.com/foaf/0.1/homepage": ["https://www.bwb.de/de/trinkbrunnen.php"]}, "geometry": {"type": "Point", "coordinates": [13.296480999999758, 52.51845103683857]}}, {"type": "Feature", "id": "https://gdi-de.github.io/apworkshop2026/206", "name": "", "dateprops": ["http://www.wikidata.org/prop/direct/P571", "http://www.wikidata.org/prop/direct/P571"], "properties": {"http://rdfs.org/ns/void#inDataset": ["https://gdk.gdi-de.org/inspire/srv/eng/xml_iso19139?uuid=8aaca41b-d665-447a-93ec-b76e431852fc", "https://gdi-de.github.io/apworkshop2026/gdide_dataset"], "http://www.opengis.net/ont/geosparql#hasGeometry": ["https://gdi-de.github.io/apworkshop2026/206_geom"], "http://www.w3.org/1999/02/22-rdf-syntax-ns#type": ["https://gdi-de.github.io/apworkshop2026/ont#Bituma"], "http://www.w3.org/2000/01/rdf-schema#comment": ["Betriebszeit: Mai bis Oktober, Link: https://www.bwb.de/de/trinkbrunnen.php  "], "http://www.w3.org/2000/01/rdf-schema#label": ["Brunnen 206"], "http://www.w3.org/2004/02/skos/core#scopeNote": ["nan"], "http://www.w3.org/2006/time#hasTime": ["https://gdi-de.github.io/apworkshop2026/206_openmonths"], "http://www.w3.org/ns/locn#postCode": ["13627"], "http://www.wikidata.org/prop/direct/P131": ["http://www.wikidata.org/entity/Q158095", "http://www.wikidata.org/entity/Q64"], "http://www.wikidata.org/prop/direct/P571": ["2022"], "http://xmlns.com/foaf/0.1/homepage": ["https://www.bwb.de/de/trinkbrunnen.php"]}, "geometry": {"type": "Point", "coordinates": [13.279560999999687, 52.536848036819094]}}, {"type": "Feature", "id": "https://gdi-de.github.io/apworkshop2026/62", "name": "", "dateprops": ["http://www.wikidata.org/prop/direct/P571", "http://www.wikidata.org/prop/direct/P571"], "properties": {"http://rdfs.org/ns/void#inDataset": ["https://gdk.gdi-de.org/inspire/srv/eng/xml_iso19139?uuid=8aaca41b-d665-447a-93ec-b76e431852fc", "https://gdi-de.github.io/apworkshop2026/gdide_dataset"], "http://www.opengis.net/ont/geosparql#hasGeometry": ["https://gdi-de.github.io/apworkshop2026/62_geom"], "http://www.w3.org/1999/02/22-rdf-syntax-ns#type": ["https://gdi-de.github.io/apworkshop2026/ont#Kaiser"], "http://www.w3.org/2000/01/rdf-schema#comment": ["Betriebszeit: Mai bis Oktober, Link: https://www.bwb.de/de/trinkbrunnen.php  "], "http://www.w3.org/2000/01/rdf-schema#label": ["Brunnen 62"], "http://www.w3.org/2004/02/skos/core#scopeNote": ["nan"], "http://www.w3.org/2006/time#hasTime": ["https://gdi-de.github.io/apworkshop2026/62_openmonths"], "http://www.w3.org/ns/locn#postCode": ["10707"], "http://www.wikidata.org/prop/direct/P131": ["http://www.wikidata.org/entity/Q158095", "http://www.wikidata.org/entity/Q64"], "http://www.wikidata.org/prop/direct/P571": ["2018"], "http://xmlns.com/foaf/0.1/homepage": ["https://www.bwb.de/de/trinkbrunnen.php"]}, "geometry": {"type": "Point", "coordinates": [13.313540999999818, 52.49043903686809]}}, {"type": "Feature", "id": "https://gdi-de.github.io/apworkshop2026/68", "name": "", "dateprops": ["http://www.wikidata.org/prop/direct/P571", "http://www.wikidata.org/prop/direct/P571"], "properties": {"http://rdfs.org/ns/void#inDataset": ["https://gdk.gdi-de.org/inspire/srv/eng/xml_iso19139?uuid=8aaca41b-d665-447a-93ec-b76e431852fc", "https://gdi-de.github.io/apworkshop2026/gdide_dataset"], "http://www.opengis.net/ont/geosparql#hasGeometry": ["https://gdi-de.github.io/apworkshop2026/68_geom"], "http://www.w3.org/1999/02/22-rdf-syntax-ns#type": ["https://gdi-de.github.io/apworkshop2026/ont#Kaiser"], "http://www.w3.org/2000/01/rdf-schema#comment": ["Betriebszeit: Mai bis Oktober, Link: https://www.bwb.de/de/trinkbrunnen.php  "], "http://www.w3.org/2000/01/rdf-schema#label": ["Brunnen 68"], "http://www.w3.org/2004/02/skos/core#scopeNote": ["nan"], "http://www.w3.org/2006/time#hasTime": ["https://gdi-de.github.io/apworkshop2026/68_openmonths"], "http://www.w3.org/ns/locn#postCode": ["10627"], "http://www.wikidata.org/prop/direct/P131": ["http://www.wikidata.org/entity/Q158095", "http://www.wikidata.org/entity/Q64"], "http://www.wikidata.org/prop/direct/P571": ["2019"], "http://xmlns.com/foaf/0.1/homepage": ["https://www.bwb.de/de/trinkbrunnen.php"]}, "geometry": {"type": "Point", "coordinates": [13.306012999999743, 52.508771036848785]}}, {"type": "Feature", "id": "https://gdi-de.github.io/apworkshop2026/69", "name": "", "dateprops": ["http://www.wikidata.org/prop/direct/P571", "http://www.wikidata.org/prop/direct/P571"], "properties": {"http://rdfs.org/ns/void#inDataset": ["https://gdk.gdi-de.org/inspire/srv/eng/xml_iso19139?uuid=8aaca41b-d665-447a-93ec-b76e431852fc", "https://gdi-de.github.io/apworkshop2026/gdide_dataset"], "http://www.opengis.net/ont/geosparql#hasGeometry": ["https://gdi-de.github.io/apworkshop2026/69_geom"], "http://www.w3.org/1999/02/22-rdf-syntax-ns#type": ["https://gdi-de.github.io/apworkshop2026/ont#Kaiser"], "http://www.w3.org/2000/01/rdf-schema#comment": ["Betriebszeit: Mai bis Oktober, Link: https://www.bwb.de/de/trinkbrunnen.php  "], "http://www.w3.org/2000/01/rdf-schema#label": ["Brunnen 69"], "http://www.w3.org/2004/02/skos/core#scopeNote": ["nan"], "http://www.w3.org/2006/time#hasTime": ["https://gdi-de.github.io/apworkshop2026/69_openmonths"], "http://www.w3.org/ns/locn#postCode": ["10627"], "http://www.wikidata.org/prop/direct/P131": ["http://www.wikidata.org/entity/Q158095", "http://www.wikidata.org/entity/Q64"], "http://www.wikidata.org/prop/direct/P571": ["2019"], "http://xmlns.com/foaf/0.1/homepage": ["https://www.bwb.de/de/trinkbrunnen.php"]}, "geometry": {"type": "Point", "coordinates": [13.306937999999798, 52.50578003685196]}}, {"type": "Feature", "id": "https://gdi-de.github.io/apworkshop2026/64", "name": "", "dateprops": ["http://www.wikidata.org/prop/direct/P571", "http://www.wikidata.org/prop/direct/P571"], "properties": {"http://rdfs.org/ns/void#inDataset": ["https://gdk.gdi-de.org/inspire/srv/eng/xml_iso19139?uuid=8aaca41b-d665-447a-93ec-b76e431852fc", "https://gdi-de.github.io/apworkshop2026/gdide_dataset"], "http://www.opengis.net/ont/geosparql#hasGeometry": ["https://gdi-de.github.io/apworkshop2026/64_geom"], "http://www.w3.org/1999/02/22-rdf-syntax-ns#type": ["https://gdi-de.github.io/apworkshop2026/ont#Kaiser"], "http://www.w3.org/2000/01/rdf-schema#comment": ["Betriebszeit: Mai bis Oktober, Link: https://www.bwb.de/de/trinkbrunnen.php  "], "http://www.w3.org/2000/01/rdf-schema#label": ["Brunnen 64"], "http://www.w3.org/2004/02/skos/core#scopeNote": ["nan"], "http://www.w3.org/2006/time#hasTime": ["https://gdi-de.github.io/apworkshop2026/64_openmonths"], "http://www.w3.org/ns/locn#postCode": ["10719"], "http://www.wikidata.org/prop/direct/P131": ["http://www.wikidata.org/entity/Q158095", "http://www.wikidata.org/entity/Q64"], "http://www.wikidata.org/prop/direct/P571": ["2018"], "http://xmlns.com/foaf/0.1/homepage": ["https://www.bwb.de/de/trinkbrunnen.php"]}, "geometry": {"type": "Point", "coordinates": [13.322795999999801, 52.497644036860564]}}, {"type": "Feature", "id": "https://gdi-de.github.io/apworkshop2026/123", "name": "", "dateprops": ["http://www.wikidata.org/prop/direct/P571", "http://www.wikidata.org/prop/direct/P571"], "properties": {"http://rdfs.org/ns/void#inDataset": ["https://gdk.gdi-de.org/inspire/srv/eng/xml_iso19139?uuid=8aaca41b-d665-447a-93ec-b76e431852fc", "https://gdi-de.github.io/apworkshop2026/gdide_dataset"], "http://www.opengis.net/ont/geosparql#hasGeometry": ["https://gdi-de.github.io/apworkshop2026/123_geom"], "http://www.w3.org/1999/02/22-rdf-syntax-ns#type": ["https://gdi-de.github.io/apworkshop2026/ont#Kaiser"], "http://www.w3.org/2000/01/rdf-schema#comment": ["Betriebszeit: Mai bis Oktober, Link: https://www.bwb.de/de/trinkbrunnen.php  "], "http://www.w3.org/2000/01/rdf-schema#label": ["Brunnen 123"], "http://www.w3.org/2004/02/skos/core#scopeNote": ["nan"], "http://www.w3.org/2006/time#hasTime": ["https://gdi-de.github.io/apworkshop2026/123_openmonths"], "http://www.w3.org/ns/locn#postCode": ["10707"], "http://www.wikidata.org/prop/direct/P131": ["http://www.wikidata.org/entity/Q158095", "http://www.wikidata.org/entity/Q64"], "http://www.wikidata.org/prop/direct/P571": ["2020"], "http://xmlns.com/foaf/0.1/homepage": ["https://www.bwb.de/de/trinkbrunnen.php"]}, "geometry": {"type": "Point", "coordinates": [13.314956999999788, 52.49940703685871]}}, {"type": "Feature", "id": "https://gdi-de.github.io/apworkshop2026/133", "name": "", "dateprops": ["http://www.wikidata.org/prop/direct/P571", "http://www.wikidata.org/prop/direct/P571"], "properties": {"http://rdfs.org/ns/void#inDataset": ["https://gdk.gdi-de.org/inspire/srv/eng/xml_iso19139?uuid=8aaca41b-d665-447a-93ec-b76e431852fc", "https://gdi-de.github.io/apworkshop2026/gdide_dataset"], "http://www.opengis.net/ont/geosparql#hasGeometry": ["https://gdi-de.github.io/apworkshop2026/133_geom"], "http://www.w3.org/1999/02/22-rdf-syntax-ns#type": ["https://gdi-de.github.io/apworkshop2026/ont#Kaiser"], "http://www.w3.org/2000/01/rdf-schema#comment": ["Betriebszeit: Mai bis Oktober, Link: https://www.bwb.de/de/trinkbrunnen.php  "], "http://www.w3.org/2000/01/rdf-schema#label": ["Brunnen 133"], "http://www.w3.org/2004/02/skos/core#scopeNote": ["nan"], "http://www.w3.org/2006/time#hasTime": ["https://gdi-de.github.io/apworkshop2026/133_openmonths"], "http://www.w3.org/ns/locn#postCode": ["10589"], "http://www.wikidata.org/prop/direct/P131": ["http://www.wikidata.org/entity/Q158095", "http://www.wikidata.org/entity/Q64"], "http://www.wikidata.org/prop/direct/P571": ["2020"], "http://xmlns.com/foaf/0.1/homepage": ["https://www.bwb.de/de/trinkbrunnen.php"]}, "geometry": {"type": "Point", "coordinates": [13.30405399999978, 52.52578603683091]}}, {"type": "Feature", "id": "https://gdi-de.github.io/apworkshop2026/89", "name": "", "dateprops": ["http://www.wikidata.org/prop/direct/P571", "http://www.wikidata.org/prop/direct/P571"], "properties": {"http://rdfs.org/ns/void#inDataset": ["https://gdk.gdi-de.org/inspire/srv/eng/xml_iso19139?uuid=8aaca41b-d665-447a-93ec-b76e431852fc", "https://gdi-de.github.io/apworkshop2026/gdide_dataset"], "http://www.opengis.net/ont/geosparql#hasGeometry": ["https://gdi-de.github.io/apworkshop2026/89_geom"], "http://www.w3.org/1999/02/22-rdf-syntax-ns#type": ["https://gdi-de.github.io/apworkshop2026/ont#Kaiser"], "http://www.w3.org/2000/01/rdf-schema#comment": ["Betriebszeit: Mai bis Oktober, Link: https://www.bwb.de/de/trinkbrunnen.php  "], "http://www.w3.org/2000/01/rdf-schema#label": ["Brunnen 89"], "http://www.w3.org/2004/02/skos/core#scopeNote": ["nan"], "http://www.w3.org/2006/time#hasTime": ["https://gdi-de.github.io/apworkshop2026/89_openmonths"], "http://www.w3.org/ns/locn#postCode": ["10627"], "http://www.wikidata.org/prop/direct/P131": ["http://www.wikidata.org/entity/Q158095", "http://www.wikidata.org/entity/Q64"], "http://www.wikidata.org/prop/direct/P571": ["2019"], "http://xmlns.com/foaf/0.1/homepage": ["https://www.bwb.de/de/trinkbrunnen.php"]}, "geometry": {"type": "Point", "coordinates": [13.306366999999737, 52.50782003684983]}}, {"type": "Feature", "id": "https://gdi-de.github.io/apworkshop2026/3", "name": "", "dateprops": ["http://www.wikidata.org/prop/direct/P571", "http://www.wikidata.org/prop/direct/P571"], "properties": {"http://rdfs.org/ns/void#inDataset": ["https://gdk.gdi-de.org/inspire/srv/eng/xml_iso19139?uuid=8aaca41b-d665-447a-93ec-b76e431852fc", "https://gdi-de.github.io/apworkshop2026/gdide_dataset"], "http://www.opengis.net/ont/geosparql#hasGeometry": ["https://gdi-de.github.io/apworkshop2026/3_geom"], "http://www.w3.org/1999/02/22-rdf-syntax-ns#type": ["https://gdi-de.github.io/apworkshop2026/ont#Kaiser"], "http://www.w3.org/2000/01/rdf-schema#comment": ["Betriebszeit: Mai bis Oktober, Link: https://www.bwb.de/de/trinkbrunnen.php "], "http://www.w3.org/2000/01/rdf-schema#label": ["Brunnen 3"], "http://www.w3.org/2004/02/skos/core#scopeNote": ["nan"], "http://www.w3.org/2006/time#hasTime": ["https://gdi-de.github.io/apworkshop2026/3_openmonths"], "http://www.w3.org/ns/locn#postCode": ["10719"], "http://www.wikidata.org/prop/direct/P131": ["http://www.wikidata.org/entity/Q158095", "http://www.wikidata.org/entity/Q64"], "http://www.wikidata.org/prop/direct/P571": ["1985"], "http://xmlns.com/foaf/0.1/homepage": ["https://www.bwb.de/de/trinkbrunnen.php"]}, "geometry": {"type": "Point", "coordinates": [13.327724999999802, 52.50326203685477]}}, {"type": "Feature", "id": "https://gdi-de.github.io/apworkshop2026/63", "name": "", "dateprops": ["http://www.wikidata.org/prop/direct/P571", "http://www.wikidata.org/prop/direct/P571"], "properties": {"http://rdfs.org/ns/void#inDataset": ["https://gdk.gdi-de.org/inspire/srv/eng/xml_iso19139?uuid=8aaca41b-d665-447a-93ec-b76e431852fc", "https://gdi-de.github.io/apworkshop2026/gdide_dataset"], "http://www.opengis.net/ont/geosparql#hasGeometry": ["https://gdi-de.github.io/apworkshop2026/63_geom"], "http://www.w3.org/1999/02/22-rdf-syntax-ns#type": ["https://gdi-de.github.io/apworkshop2026/ont#Kaiser"], "http://www.w3.org/2000/01/rdf-schema#comment": ["Betriebszeit: Mai bis Oktober, Link: https://www.bwb.de/de/trinkbrunnen.php  "], "http://www.w3.org/2000/01/rdf-schema#label": ["Brunnen 63"], "http://www.w3.org/2004/02/skos/core#scopeNote": ["nan"], "http://www.w3.org/2006/time#hasTime": ["https://gdi-de.github.io/apworkshop2026/63_openmonths"], "http://www.w3.org/ns/locn#postCode": ["14057"], "http://www.wikidata.org/prop/direct/P131": ["http://www.wikidata.org/entity/Q158095", "http://www.wikidata.org/entity/Q64"], "http://www.wikidata.org/prop/direct/P571": ["2018"], "http://xmlns.com/foaf/0.1/homepage": ["https://www.bwb.de/de/trinkbrunnen.php"]}, "geometry": {"type": "Point", "coordinates": [13.274035999999713, 52.50868403684866]}}, {"type": "Feature", "id": "https://gdi-de.github.io/apworkshop2026/236", "name": "", "dateprops": ["http://www.wikidata.org/prop/direct/P571", "http://www.wikidata.org/prop/direct/P571"], "properties": {"http://rdfs.org/ns/void#inDataset": ["https://gdk.gdi-de.org/inspire/srv/eng/xml_iso19139?uuid=8aaca41b-d665-447a-93ec-b76e431852fc", "https://gdi-de.github.io/apworkshop2026/gdide_dataset"], "http://www.opengis.net/ont/geosparql#hasGeometry": ["https://gdi-de.github.io/apworkshop2026/236_geom"], "http://www.w3.org/1999/02/22-rdf-syntax-ns#type": ["https://gdi-de.github.io/apworkshop2026/ont#Bituma"], "http://www.w3.org/2000/01/rdf-schema#comment": ["Betriebszeit: Mai bis Oktober, Link: https://www.bwb.de/de/trinkbrunnen.php  "], "http://www.w3.org/2000/01/rdf-schema#label": ["Brunnen 236"], "http://www.w3.org/2004/02/skos/core#scopeNote": ["nan"], "http://www.w3.org/2006/time#hasTime": ["https://gdi-de.github.io/apworkshop2026/236_openmonths"], "http://www.w3.org/ns/locn#postCode": ["14053"], "http://www.wikidata.org/prop/direct/P131": ["http://www.wikidata.org/entity/Q158095", "http://www.wikidata.org/entity/Q64"], "http://www.wikidata.org/prop/direct/P571": ["2024"], "http://xmlns.com/foaf/0.1/homepage": ["https://www.bwb.de/de/trinkbrunnen.php"]}, "geometry": {"type": "Point", "coordinates": [13.243663999999654, 52.51437103684239]}}, {"type": "Feature", "id": "https://gdi-de.github.io/apworkshop2026/215", "name": "", "dateprops": ["http://www.wikidata.org/prop/direct/P571", "http://www.wikidata.org/prop/direct/P571"], "properties": {"http://rdfs.org/ns/void#inDataset": ["https://gdk.gdi-de.org/inspire/srv/eng/xml_iso19139?uuid=8aaca41b-d665-447a-93ec-b76e431852fc", "https://gdi-de.github.io/apworkshop2026/gdide_dataset"], "http://www.opengis.net/ont/geosparql#hasGeometry": ["https://gdi-de.github.io/apworkshop2026/215_geom"], "http://www.w3.org/1999/02/22-rdf-syntax-ns#type": ["https://gdi-de.github.io/apworkshop2026/ont#Kaiser"], "http://www.w3.org/2000/01/rdf-schema#comment": ["Betriebszeit: Mai bis Oktober, Link: https://www.bwb.de/de/trinkbrunnen.php  "], "http://www.w3.org/2000/01/rdf-schema#label": ["Brunnen 215"], "http://www.w3.org/2004/02/skos/core#scopeNote": ["nan"], "http://www.w3.org/2006/time#hasTime": ["https://gdi-de.github.io/apworkshop2026/215_openmonths"], "http://www.w3.org/ns/locn#postCode": ["14057"], "http://www.wikidata.org/prop/direct/P131": ["http://www.wikidata.org/entity/Q158095", "http://www.wikidata.org/entity/Q64"], "http://www.wikidata.org/prop/direct/P571": ["2023"], "http://xmlns.com/foaf/0.1/homepage": ["https://www.bwb.de/de/trinkbrunnen.php"]}, "geometry": {"type": "Point", "coordinates": [13.285659999999703, 52.5066180368509]}}, {"type": "Feature", "id": "https://gdi-de.github.io/apworkshop2026/163", "name": "", "dateprops": ["http://www.wikidata.org/prop/direct/P571", "http://www.wikidata.org/prop/direct/P571"], "properties": {"http://rdfs.org/ns/void#inDataset": ["https://gdk.gdi-de.org/inspire/srv/eng/xml_iso19139?uuid=8aaca41b-d665-447a-93ec-b76e431852fc", "https://gdi-de.github.io/apworkshop2026/gdide_dataset"], "http://www.opengis.net/ont/geosparql#hasGeometry": ["https://gdi-de.github.io/apworkshop2026/163_geom"], "http://www.w3.org/1999/02/22-rdf-syntax-ns#type": ["https://gdi-de.github.io/apworkshop2026/ont#Kaiser"], "http://www.w3.org/2000/01/rdf-schema#comment": ["Betriebszeit: Mai bis Oktober, Link: https://www.bwb.de/de/trinkbrunnen.php  "], "http://www.w3.org/2000/01/rdf-schema#label": ["Brunnen 163"], "http://www.w3.org/2004/02/skos/core#scopeNote": ["nan"], "http://www.w3.org/2006/time#hasTime": ["https://gdi-de.github.io/apworkshop2026/163_openmonths"], "http://www.w3.org/ns/locn#postCode": ["10627"], "http://www.wikidata.org/prop/direct/P131": ["http://www.wikidata.org/entity/Q158095", "http://www.wikidata.org/entity/Q64"], "http://www.wikidata.org/prop/direct/P571": ["2020"], "http://xmlns.com/foaf/0.1/homepage": ["https://www.bwb.de/de/trinkbrunnen.php"]}, "geometry": {"type": "Point", "coordinates": [13.301301999999808, 52.50511203685258]}}, {"type": "Feature", "id": "https://gdi-de.github.io/apworkshop2026/235", "name": "", "dateprops": ["http://www.wikidata.org/prop/direct/P571", "http://www.wikidata.org/prop/direct/P571"], "properties": {"http://rdfs.org/ns/void#inDataset": ["https://gdk.gdi-de.org/inspire/srv/eng/xml_iso19139?uuid=8aaca41b-d665-447a-93ec-b76e431852fc", "https://gdi-de.github.io/apworkshop2026/gdide_dataset"], "http://www.opengis.net/ont/geosparql#hasGeometry": ["https://gdi-de.github.io/apworkshop2026/235_geom"], "http://www.w3.org/1999/02/22-rdf-syntax-ns#type": ["https://gdi-de.github.io/apworkshop2026/ont#Bituma"], "http://www.w3.org/2000/01/rdf-schema#comment": ["Betriebszeit: Mai bis Oktober, Link: https://www.bwb.de/de/trinkbrunnen.php  "], "http://www.w3.org/2000/01/rdf-schema#label": ["Brunnen 235"], "http://www.w3.org/2004/02/skos/core#scopeNote": ["nan"], "http://www.w3.org/2006/time#hasTime": ["https://gdi-de.github.io/apworkshop2026/235_openmonths"], "http://www.w3.org/ns/locn#postCode": ["14053"], "http://www.wikidata.org/prop/direct/P131": ["http://www.wikidata.org/entity/Q158095", "http://www.wikidata.org/entity/Q64"], "http://www.wikidata.org/prop/direct/P571": ["2024"], "http://xmlns.com/foaf/0.1/homepage": ["https://www.bwb.de/de/trinkbrunnen.php"]}, "geometry": {"type": "Point", "coordinates": [13.241279999999664, 52.51821403683832]}}], "numberMatched": 28, "numberReturned": 28, "bbox": [13.210372999999553, 52.473275036885994, 13.333259999999795, 52.536848036819094], "crs": "http://www.opengis.net/def/crs/EPSG/0/4326"}