{"type": "FeatureCollection", "id": "https://gdi-de.github.io/apworkshop2026/Q1813339_collection", "name": "Q1813339 Instances Collection", "features": [{"type": "Feature", "id": "https://gdi-de.github.io/apworkshop2026/MOBG136", "name": "Baum MOBG136 (gdide:MOBG136)", "dateprops": [], "properties": {"http://www.w3.org/2000/01/rdf-schema#label": "Baum MOBG136", "http://rdfs.org/ns/void#inDataset.value": "72757", "http://www.w3.org/2000/01/rdf-schema#comment": "Stra\u00dfe", "http://www.wikidata.org/prop/direct/P2547.value": "6.0", "http://www.wikidata.org/prop/direct/P2547.unit": "http://www.ontology-of-units-of-measure.org/resource/om-2/meter", "http://www.wikidata.org/prop/direct/P3018": "Moorburg", "https://gdi-de.github.io/apworkshop2026/ont#stammdurchmesser.value": "36.0", "https://gdi-de.github.io/apworkshop2026/ont#stammdurchmesser.unit": "http://www.ontology-of-units-of-measure.org/resource/om-2/centimeter"}, "geometry": {"type": "MultiPoint", "coordinates": [[9.949197486509906, 53.48689817765615]]}}], "numberMatched": 1, "numberReturned": 1, "bbox": [9.949197486509906, 53.48689817765615, 9.949197486509906, 53.48689817765615], "crs": "http://www.opengis.net/def/crs/EPSG/0/4326"}