{"type": "FeatureCollection", "id": "https://gdi-de.github.io/apworkshop2026/Bituma_collection", "name": "Bituma Instances Collection", "features": [{"type": "Feature", "id": "https://gdi-de.github.io/apworkshop2026/224", "name": "Brunnen 224 (gdide:224)", "dateprops": ["timepoint", "begin", "end"], "properties": {"http://www.w3.org/2000/01/rdf-schema#label": "Brunnen 224", "http://rdfs.org/ns/void#inDataset.value": "6503", "http://www.w3.org/2000/01/rdf-schema#comment": "Betriebszeit: Mai bis Oktober, Link: https://www.bwb.de/de/trinkbrunnen.php  ", "http://www.w3.org/2004/02/skos/core#scopeNote": "nan", "timepoint": "http://www.w3.org/ns/time/gregorian/October", "begin": "http://www.w3.org/ns/time/gregorian/May", "end": "http://www.w3.org/ns/time/gregorian/October", "http://www.w3.org/ns/locn#postCode": "12169", "http://www.wikidata.org/prop/direct/P571": "2023", "http://xmlns.com/foaf/0.1/homepage": "https://www.bwb.de/de/trinkbrunnen.php"}, "geometry": {"type": "Point", "coordinates": [13.34903099999988, 52.456734036903526]}}, {"type": "Feature", "id": "https://gdi-de.github.io/apworkshop2026/166", "name": "Brunnen 166 (gdide:166)", "dateprops": ["timepoint", "begin", "end"], "properties": {"http://www.w3.org/2000/01/rdf-schema#label": "Brunnen 166", "http://rdfs.org/ns/void#inDataset.value": "6503", "http://www.w3.org/2000/01/rdf-schema#comment": "Betriebszeit: Mai bis Oktober, Link: https://www.bwb.de/de/trinkbrunnen.php  ", "http://www.w3.org/2004/02/skos/core#scopeNote": "nan", "timepoint": "http://www.w3.org/ns/time/gregorian/October", "begin": "http://www.w3.org/ns/time/gregorian/May", "end": "http://www.w3.org/ns/time/gregorian/October", "http://www.w3.org/ns/locn#postCode": "13347", "http://www.wikidata.org/prop/direct/P571": "2021", "http://xmlns.com/foaf/0.1/homepage": "https://www.bwb.de/de/trinkbrunnen.php"}, "geometry": {"type": "Point", "coordinates": [13.362864, 52.54888703680706]}}, {"type": "Feature", "id": "https://gdi-de.github.io/apworkshop2026/132", "name": "Brunnen 132 (gdide:132)", "dateprops": ["timepoint", "begin", "end"], "properties": {"http://www.w3.org/2000/01/rdf-schema#label": "Brunnen 132", "http://rdfs.org/ns/void#inDataset.value": "6503", "http://www.w3.org/2000/01/rdf-schema#comment": "Betriebszeit: Mai bis Oktober, Link: https://www.bwb.de/de/trinkbrunnen.php  ", "http://www.w3.org/2004/02/skos/core#scopeNote": "nan", "timepoint": "http://www.w3.org/ns/time/gregorian/October", "begin": "http://www.w3.org/ns/time/gregorian/May", "end": "http://www.w3.org/ns/time/gregorian/October", "http://www.w3.org/ns/locn#postCode": "10969", "http://www.wikidata.org/prop/direct/P571": "2020", "http://xmlns.com/foaf/0.1/homepage": "https://www.bwb.de/de/trinkbrunnen.php"}, "geometry": {"type": "Point", "coordinates": [13.391295, 52.504158036854214]}}, {"type": "Feature", "id": "https://gdi-de.github.io/apworkshop2026/116", "name": "Brunnen 116 (gdide:116)", "dateprops": ["timepoint", "begin", "end"], "properties": {"http://www.w3.org/2000/01/rdf-schema#label": "Brunnen 116", "http://rdfs.org/ns/void#inDataset.value": "6503", "http://www.w3.org/2000/01/rdf-schema#comment": "Betriebszeit: Mai bis Oktober, Link: https://www.bwb.de/de/trinkbrunnen.php  ", "http://www.w3.org/2004/02/skos/core#scopeNote": "nan", "timepoint": "http://www.w3.org/ns/time/gregorian/October", "begin": "http://www.w3.org/ns/time/gregorian/May", "end": "http://www.w3.org/ns/time/gregorian/October", "http://www.w3.org/ns/locn#postCode": "12101", "http://www.wikidata.org/prop/direct/P571": "2019", "http://xmlns.com/foaf/0.1/homepage": "https://www.bwb.de/de/trinkbrunnen.php"}, "geometry": {"type": "Point", "coordinates": [13.386741, 52.47160503688827]}}, {"type": "Feature", "id": "https://gdi-de.github.io/apworkshop2026/164", "name": "Brunnen 164 (gdide:164)", "dateprops": ["timepoint", "begin", "end"], "properties": {"http://www.w3.org/2000/01/rdf-schema#label": "Brunnen 164", "http://rdfs.org/ns/void#inDataset.value": "6503", "http://www.w3.org/2000/01/rdf-schema#comment": "Betriebszeit: Mai bis Oktober, Link: https://www.bwb.de/de/trinkbrunnen.php  ", "http://www.w3.org/2004/02/skos/core#scopeNote": "nan", "timepoint": "http://www.w3.org/ns/time/gregorian/October", "begin": "http://www.w3.org/ns/time/gregorian/May", "end": "http://www.w3.org/ns/time/gregorian/October", "http://www.w3.org/ns/locn#postCode": "10245", "http://www.wikidata.org/prop/direct/P571": "2020", "http://xmlns.com/foaf/0.1/homepage": "https://www.bwb.de/de/trinkbrunnen.php"}, "geometry": {"type": "Point", "coordinates": [13.455524, 52.504335036854414]}}, {"type": "Feature", "id": "https://gdi-de.github.io/apworkshop2026/33", "name": "Brunnen 33 (gdide:33)", "dateprops": ["timepoint", "begin", "end"], "properties": {"http://www.w3.org/2000/01/rdf-schema#label": "Brunnen 33", "http://rdfs.org/ns/void#inDataset.value": "6503", "http://www.w3.org/2000/01/rdf-schema#comment": "Betriebszeit: Mai bis Oktober, Link: https://www.bwb.de/de/trinkbrunnen.php  ", "http://www.w3.org/2004/02/skos/core#scopeNote": "nan", "timepoint": "http://www.w3.org/ns/time/gregorian/October", "begin": "http://www.w3.org/ns/time/gregorian/May", "end": "http://www.w3.org/ns/time/gregorian/October", "http://www.w3.org/ns/locn#postCode": "12459", "http://www.wikidata.org/prop/direct/P571": "2023", "http://xmlns.com/foaf/0.1/homepage": "https://www.bwb.de/de/trinkbrunnen.php"}, "geometry": {"type": "Point", "coordinates": [13.548048000000103, 52.46211803689896]}}, {"type": "Feature", "id": "https://gdi-de.github.io/apworkshop2026/236", "name": "Brunnen 236 (gdide:236)", "dateprops": ["timepoint", "begin", "end"], "properties": {"http://www.w3.org/2000/01/rdf-schema#label": "Brunnen 236", "http://rdfs.org/ns/void#inDataset.value": "6503", "http://www.w3.org/2000/01/rdf-schema#comment": "Betriebszeit: Mai bis Oktober, Link: https://www.bwb.de/de/trinkbrunnen.php  ", "http://www.w3.org/2004/02/skos/core#scopeNote": "nan", "timepoint": "http://www.w3.org/ns/time/gregorian/October", "begin": "http://www.w3.org/ns/time/gregorian/May", "end": "http://www.w3.org/ns/time/gregorian/October", "http://www.w3.org/ns/locn#postCode": "14053", "http://www.wikidata.org/prop/direct/P571": "2024", "http://xmlns.com/foaf/0.1/homepage": "https://www.bwb.de/de/trinkbrunnen.php"}, "geometry": {"type": "Point", "coordinates": [13.243663999999654, 52.51437103684239]}}, {"type": "Feature", "id": "https://gdi-de.github.io/apworkshop2026/240", "name": "Brunnen 240 (gdide:240)", "dateprops": ["timepoint", "begin", "end"], "properties": {"http://www.w3.org/2000/01/rdf-schema#label": "Brunnen 240", "http://rdfs.org/ns/void#inDataset.value": "6503", "http://www.w3.org/2000/01/rdf-schema#comment": "Betriebszeit: Mai bis Oktober, Link: https://www.bwb.de/de/trinkbrunnen.php  ", "http://www.w3.org/2004/02/skos/core#scopeNote": "nan", "timepoint": "http://www.w3.org/ns/time/gregorian/October", "begin": "http://www.w3.org/ns/time/gregorian/May", "end": "http://www.w3.org/ns/time/gregorian/October", "http://www.w3.org/ns/locn#postCode": "14163", "http://www.wikidata.org/prop/direct/P571": "2024", "http://xmlns.com/foaf/0.1/homepage": "https://www.bwb.de/de/trinkbrunnen.php"}, "geometry": {"type": "Point", "coordinates": [13.230221999999591, 52.44711403691253]}}, {"type": "Feature", "id": "https://gdi-de.github.io/apworkshop2026/175", "name": "Brunnen 175 (gdide:175)", "dateprops": ["timepoint", "begin", "end"], "properties": {"http://www.w3.org/2000/01/rdf-schema#label": "Brunnen 175", "http://rdfs.org/ns/void#inDataset.value": "6503", "http://www.w3.org/2000/01/rdf-schema#comment": "Betriebszeit: Mai bis Oktober, Link: https://www.bwb.de/de/trinkbrunnen.php  ", "http://www.w3.org/2004/02/skos/core#scopeNote": "nan", "timepoint": "http://www.w3.org/ns/time/gregorian/October", "begin": "http://www.w3.org/ns/time/gregorian/May", "end": "http://www.w3.org/ns/time/gregorian/October", "http://www.w3.org/ns/locn#postCode": "12101", "http://www.wikidata.org/prop/direct/P571": "2021", "http://xmlns.com/foaf/0.1/homepage": "https://www.bwb.de/de/trinkbrunnen.php"}, "geometry": {"type": "Point", "coordinates": [13.420108, 52.4709710368891]}}, {"type": "Feature", "id": "https://gdi-de.github.io/apworkshop2026/211", "name": "Brunnen 211 (gdide:211)", "dateprops": ["timepoint", "begin", "end"], "properties": {"http://www.w3.org/2000/01/rdf-schema#label": "Brunnen 211", "http://rdfs.org/ns/void#inDataset.value": "6503", "http://www.w3.org/2000/01/rdf-schema#comment": "Betriebszeit: Mai bis Oktober, Link: https://www.bwb.de/de/trinkbrunnen.php  ", "http://www.w3.org/2004/02/skos/core#scopeNote": "nan", "timepoint": "http://www.w3.org/ns/time/gregorian/October", "begin": "http://www.w3.org/ns/time/gregorian/May", "end": "http://www.w3.org/ns/time/gregorian/October", "http://www.w3.org/ns/locn#postCode": "13347", "http://www.wikidata.org/prop/direct/P571": "2023", "http://xmlns.com/foaf/0.1/homepage": "https://www.bwb.de/de/trinkbrunnen.php"}, "geometry": {"type": "Point", "coordinates": [13.3609, 52.54844203680753]}}, {"type": "Feature", "id": "https://gdi-de.github.io/apworkshop2026/231", "name": "Brunnen 231 (gdide:231)", "dateprops": ["timepoint", "begin", "end"], "properties": {"http://www.w3.org/2000/01/rdf-schema#label": "Brunnen 231", "http://rdfs.org/ns/void#inDataset.value": "6503", "http://www.w3.org/2000/01/rdf-schema#comment": "Betriebszeit: Mai bis Oktober, Link: https://www.bwb.de/de/trinkbrunnen.php  ", "http://www.w3.org/2004/02/skos/core#scopeNote": "nan", "timepoint": "http://www.w3.org/ns/time/gregorian/October", "begin": "http://www.w3.org/ns/time/gregorian/May", "end": "http://www.w3.org/ns/time/gregorian/October", "http://www.w3.org/ns/locn#postCode": "13086", "http://www.wikidata.org/prop/direct/P571": "2023", "http://xmlns.com/foaf/0.1/homepage": "https://www.bwb.de/de/trinkbrunnen.php"}, "geometry": {"type": "Point", "coordinates": [13.462334, 52.552741036803546]}}, {"type": "Feature", "id": "https://gdi-de.github.io/apworkshop2026/226", "name": "Brunnen 226 (gdide:226)", "dateprops": ["timepoint", "begin", "end"], "properties": {"http://www.w3.org/2000/01/rdf-schema#label": "Brunnen 226", "http://rdfs.org/ns/void#inDataset.value": "6503", "http://www.w3.org/2000/01/rdf-schema#comment": "Betriebszeit: Mai bis Oktober, Link: https://www.bwb.de/de/trinkbrunnen.php  ", "http://www.w3.org/2004/02/skos/core#scopeNote": "nan", "timepoint": "http://www.w3.org/ns/time/gregorian/October", "begin": "http://www.w3.org/ns/time/gregorian/May", "end": "http://www.w3.org/ns/time/gregorian/October", "http://www.w3.org/ns/locn#postCode": "12437", "http://www.wikidata.org/prop/direct/P571": "2023", "http://xmlns.com/foaf/0.1/homepage": "https://www.bwb.de/de/trinkbrunnen.php"}, "geometry": {"type": "Point", "coordinates": [13.493651, 52.482265036877656]}}, {"type": "Feature", "id": "https://gdi-de.github.io/apworkshop2026/228", "name": "Brunnen 228 (gdide:228)", "dateprops": ["timepoint", "begin", "end"], "properties": {"http://www.w3.org/2000/01/rdf-schema#label": "Brunnen 228", "http://rdfs.org/ns/void#inDataset.value": "6503", "http://www.w3.org/2000/01/rdf-schema#comment": "Betriebszeit: Mai bis Oktober, Link: https://www.bwb.de/de/trinkbrunnen.php  ", "http://www.w3.org/2004/02/skos/core#scopeNote": "nan", "timepoint": "http://www.w3.org/ns/time/gregorian/October", "begin": "http://www.w3.org/ns/time/gregorian/May", "end": "http://www.w3.org/ns/time/gregorian/October", "http://www.w3.org/ns/locn#postCode": "12524", "http://www.wikidata.org/prop/direct/P571": "2023", "http://xmlns.com/foaf/0.1/homepage": "https://www.bwb.de/de/trinkbrunnen.php"}, "geometry": {"type": "Point", "coordinates": [13.52595700000014, 52.403244036960075]}}, {"type": "Feature", "id": "https://gdi-de.github.io/apworkshop2026/239", "name": "Brunnen 239 (gdide:239)", "dateprops": ["timepoint", "begin", "end"], "properties": {"http://www.w3.org/2000/01/rdf-schema#label": "Brunnen 239", "http://rdfs.org/ns/void#inDataset.value": "6503", "http://www.w3.org/2000/01/rdf-schema#comment": "Betriebszeit: Mai bis Oktober, Link: https://www.bwb.de/de/trinkbrunnen.php  ", "http://www.w3.org/2004/02/skos/core#scopeNote": "nan", "timepoint": "http://www.w3.org/ns/time/gregorian/October", "begin": "http://www.w3.org/ns/time/gregorian/May", "end": "http://www.w3.org/ns/time/gregorian/October", "http://www.w3.org/ns/locn#postCode": "10409", "http://www.wikidata.org/prop/direct/P571": "2023", "http://xmlns.com/foaf/0.1/homepage": "https://www.bwb.de/de/trinkbrunnen.php"}, "geometry": {"type": "Point", "coordinates": [13.437521, 52.54483003681175]}}, {"type": "Feature", "id": "https://gdi-de.github.io/apworkshop2026/131", "name": "Brunnen 131 (gdide:131)", "dateprops": ["timepoint", "begin", "end"], "properties": {"http://www.w3.org/2000/01/rdf-schema#label": "Brunnen 131", "http://rdfs.org/ns/void#inDataset.value": "6503", "http://www.w3.org/2000/01/rdf-schema#comment": "Betriebszeit: Mai bis Oktober, Link: https://www.bwb.de/de/trinkbrunnen.php  ", "http://www.w3.org/2004/02/skos/core#scopeNote": "zur Zeit wegen Reparatur au\u00dfer Betrieb", "timepoint": "http://www.w3.org/ns/time/gregorian/October", "begin": "http://www.w3.org/ns/time/gregorian/May", "end": "http://www.w3.org/ns/time/gregorian/October", "http://www.w3.org/ns/locn#postCode": "13187", "http://www.wikidata.org/prop/direct/P571": "2020", "http://xmlns.com/foaf/0.1/homepage": "https://www.bwb.de/de/trinkbrunnen.php"}, "geometry": {"type": "Point", "coordinates": [13.396116, 52.56890403678617]}}, {"type": "Feature", "id": "https://gdi-de.github.io/apworkshop2026/79", "name": "Brunnen 79 (gdide:79)", "dateprops": ["timepoint", "begin", "end"], "properties": {"http://www.w3.org/2000/01/rdf-schema#label": "Brunnen 79", "http://rdfs.org/ns/void#inDataset.value": "6503", "http://www.w3.org/2000/01/rdf-schema#comment": "Betriebszeit: Mai bis Oktober, Link: https://www.bwb.de/de/trinkbrunnen.php  ", "http://www.w3.org/2004/02/skos/core#scopeNote": "nan", "timepoint": "http://www.w3.org/ns/time/gregorian/October", "begin": "http://www.w3.org/ns/time/gregorian/May", "end": "http://www.w3.org/ns/time/gregorian/October", "http://www.w3.org/ns/locn#postCode": "13465", "http://www.wikidata.org/prop/direct/P571": "2020", "http://xmlns.com/foaf/0.1/homepage": "https://www.bwb.de/de/trinkbrunnen.php"}, "geometry": {"type": "Point", "coordinates": [13.290270999999724, 52.634398036716036]}}, {"type": "Feature", "id": "https://gdi-de.github.io/apworkshop2026/199", "name": "Brunnen 199 (gdide:199)", "dateprops": ["timepoint", "begin", "end"], "properties": {"http://www.w3.org/2000/01/rdf-schema#label": "Brunnen 199", "http://rdfs.org/ns/void#inDataset.value": "6503", "http://www.w3.org/2000/01/rdf-schema#comment": "Betriebszeit: Mai bis Oktober, Link: https://www.bwb.de/de/trinkbrunnen.php  ", "http://www.w3.org/2004/02/skos/core#scopeNote": "nan", "timepoint": "http://www.w3.org/ns/time/gregorian/October", "begin": "http://www.w3.org/ns/time/gregorian/May", "end": "http://www.w3.org/ns/time/gregorian/October", "http://www.w3.org/ns/locn#postCode": "13595", "http://www.wikidata.org/prop/direct/P571": "2022", "http://xmlns.com/foaf/0.1/homepage": "https://www.bwb.de/de/trinkbrunnen.php"}, "geometry": {"type": "Point", "coordinates": [13.193373999999507, 52.52033903683564]}}, {"type": "Feature", "id": "https://gdi-de.github.io/apworkshop2026/204", "name": "Brunnen 204 (gdide:204)", "dateprops": ["timepoint", "begin", "end"], "properties": {"http://www.w3.org/2000/01/rdf-schema#label": "Brunnen 204", "http://rdfs.org/ns/void#inDataset.value": "6503", "http://www.w3.org/2000/01/rdf-schema#comment": "Betriebszeit: Mai bis Oktober, Link: https://www.bwb.de/de/trinkbrunnen.php  ", "http://www.w3.org/2004/02/skos/core#scopeNote": "nan", "timepoint": "http://www.w3.org/ns/time/gregorian/October", "begin": "http://www.w3.org/ns/time/gregorian/May", "end": "http://www.w3.org/ns/time/gregorian/October", "http://www.w3.org/ns/locn#postCode": "10437", "http://www.wikidata.org/prop/direct/P571": "2022", "http://xmlns.com/foaf/0.1/homepage": "https://www.bwb.de/de/trinkbrunnen.php"}, "geometry": {"type": "Point", "coordinates": [13.400392, 52.543922036812525]}}, {"type": "Feature", "id": "https://gdi-de.github.io/apworkshop2026/188", "name": "Brunnen 188 (gdide:188)", "dateprops": ["timepoint", "begin", "end"], "properties": {"http://www.w3.org/2000/01/rdf-schema#label": "Brunnen 188", "http://rdfs.org/ns/void#inDataset.value": "6503", "http://www.w3.org/2000/01/rdf-schema#comment": "Betriebszeit: Mai bis Oktober, Link: https://www.bwb.de/de/trinkbrunnen.php  ", "http://www.w3.org/2004/02/skos/core#scopeNote": "nan", "timepoint": "http://www.w3.org/ns/time/gregorian/October", "begin": "http://www.w3.org/ns/time/gregorian/May", "end": "http://www.w3.org/ns/time/gregorian/October", "http://www.w3.org/ns/locn#postCode": "10997", "http://www.wikidata.org/prop/direct/P571": "2022", "http://xmlns.com/foaf/0.1/homepage": "https://www.bwb.de/de/trinkbrunnen.php"}, "geometry": {"type": "Point", "coordinates": [13.430566, 52.50082503685795]}}, {"type": "Feature", "id": "https://gdi-de.github.io/apworkshop2026/146", "name": "Brunnen 146 (gdide:146)", "dateprops": ["timepoint", "begin", "end"], "properties": {"http://www.w3.org/2000/01/rdf-schema#label": "Brunnen 146", "http://rdfs.org/ns/void#inDataset.value": "6503", "http://www.w3.org/2000/01/rdf-schema#comment": "Betriebszeit: Mai bis Oktober, Link: https://www.bwb.de/de/trinkbrunnen.php  ", "http://www.w3.org/2004/02/skos/core#scopeNote": "nan", "timepoint": "http://www.w3.org/ns/time/gregorian/October", "begin": "http://www.w3.org/ns/time/gregorian/May", "end": "http://www.w3.org/ns/time/gregorian/October", "http://www.w3.org/ns/locn#postCode": "13435", "http://www.wikidata.org/prop/direct/P571": "2020", "http://xmlns.com/foaf/0.1/homepage": "https://www.bwb.de/de/trinkbrunnen.php"}, "geometry": {"type": "Point", "coordinates": [13.353193999999856, 52.6000910367529]}}, {"type": "Feature", "id": "https://gdi-de.github.io/apworkshop2026/117", "name": "Brunnen 117 (gdide:117)", "dateprops": ["timepoint", "begin", "end"], "properties": {"http://www.w3.org/2000/01/rdf-schema#label": "Brunnen 117", "http://rdfs.org/ns/void#inDataset.value": "6503", "http://www.w3.org/2000/01/rdf-schema#comment": "Betriebszeit: Mai bis Oktober, Link: https://www.bwb.de/de/trinkbrunnen.php  ", "http://www.w3.org/2004/02/skos/core#scopeNote": "nan", "timepoint": "http://www.w3.org/ns/time/gregorian/October", "begin": "http://www.w3.org/ns/time/gregorian/May", "end": "http://www.w3.org/ns/time/gregorian/October", "http://www.w3.org/ns/locn#postCode": "10965", "http://www.wikidata.org/prop/direct/P571": "2019", "http://xmlns.com/foaf/0.1/homepage": "https://www.bwb.de/de/trinkbrunnen.php"}, "geometry": {"type": "Point", "coordinates": [13.407019, 52.482318036877224]}}, {"type": "Feature", "id": "https://gdi-de.github.io/apworkshop2026/176", "name": "Brunnen 176 (gdide:176)", "dateprops": ["timepoint", "begin", "end"], "properties": {"http://www.w3.org/2000/01/rdf-schema#label": "Brunnen 176", "http://rdfs.org/ns/void#inDataset.value": "6503", "http://www.w3.org/2000/01/rdf-schema#comment": "Betriebszeit: Mai bis Oktober, Link: https://www.bwb.de/de/trinkbrunnen.php  ", "http://www.w3.org/2004/02/skos/core#scopeNote": "nan", "timepoint": "http://www.w3.org/ns/time/gregorian/October", "begin": "http://www.w3.org/ns/time/gregorian/May", "end": "http://www.w3.org/ns/time/gregorian/October", "http://www.w3.org/ns/locn#postCode": "13587", "http://www.wikidata.org/prop/direct/P571": "2021", "http://xmlns.com/foaf/0.1/homepage": "https://www.bwb.de/de/trinkbrunnen.php"}, "geometry": {"type": "Point", "coordinates": [13.217566999999582, 52.559422036794714]}}, {"type": "Feature", "id": "https://gdi-de.github.io/apworkshop2026/187", "name": "Brunnen 187 (gdide:187)", "dateprops": ["timepoint", "begin", "end"], "properties": {"http://www.w3.org/2000/01/rdf-schema#label": "Brunnen 187", "http://rdfs.org/ns/void#inDataset.value": "6503", "http://www.w3.org/2000/01/rdf-schema#comment": "Betriebszeit: Mai bis Oktober, Link: https://www.bwb.de/de/trinkbrunnen.php  ", "http://www.w3.org/2004/02/skos/core#scopeNote": "nan", "timepoint": "http://www.w3.org/ns/time/gregorian/October", "begin": "http://www.w3.org/ns/time/gregorian/May", "end": "http://www.w3.org/ns/time/gregorian/October", "http://www.w3.org/ns/locn#postCode": "10997", "http://www.wikidata.org/prop/direct/P571": "2022", "http://xmlns.com/foaf/0.1/homepage": "https://www.bwb.de/de/trinkbrunnen.php"}, "geometry": {"type": "Point", "coordinates": [13.431536, 52.50046703685832]}}, {"type": "Feature", "id": "https://gdi-de.github.io/apworkshop2026/210", "name": "Brunnen 210 (gdide:210)", "dateprops": ["timepoint", "begin", "end"], "properties": {"http://www.w3.org/2000/01/rdf-schema#label": "Brunnen 210", "http://rdfs.org/ns/void#inDataset.value": "6503", "http://www.w3.org/2000/01/rdf-schema#comment": "Betriebszeit: Mai bis Oktober, Link: https://www.bwb.de/de/trinkbrunnen.php  ", "http://www.w3.org/2004/02/skos/core#scopeNote": "nan", "timepoint": "http://www.w3.org/ns/time/gregorian/October", "begin": "http://www.w3.org/ns/time/gregorian/May", "end": "http://www.w3.org/ns/time/gregorian/October", "http://www.w3.org/ns/locn#postCode": "10999", "http://www.wikidata.org/prop/direct/P571": "2023", "http://xmlns.com/foaf/0.1/homepage": "https://www.bwb.de/de/trinkbrunnen.php"}, "geometry": {"type": "Point", "coordinates": [13.423795, 52.49924803685959]}}, {"type": "Feature", "id": "https://gdi-de.github.io/apworkshop2026/232", "name": "Brunnen 232 (gdide:232)", "dateprops": ["timepoint", "begin", "end"], "properties": {"http://www.w3.org/2000/01/rdf-schema#label": "Brunnen 232", "http://rdfs.org/ns/void#inDataset.value": "6503", "http://www.w3.org/2000/01/rdf-schema#comment": "Betriebszeit: Mai bis Oktober, Link: https://www.bwb.de/de/trinkbrunnen.php  ", "http://www.w3.org/2004/02/skos/core#scopeNote": "nan", "timepoint": "http://www.w3.org/ns/time/gregorian/October", "begin": "http://www.w3.org/ns/time/gregorian/May", "end": "http://www.w3.org/ns/time/gregorian/October", "http://www.w3.org/ns/locn#postCode": "10555", "http://www.wikidata.org/prop/direct/P571": "2023", "http://xmlns.com/foaf/0.1/homepage": "https://www.bwb.de/de/trinkbrunnen.php"}, "geometry": {"type": "Point", "coordinates": [13.336132999999803, 52.52339103683365]}}, {"type": "Feature", "id": "https://gdi-de.github.io/apworkshop2026/190", "name": "Brunnen 190 (gdide:190)", "dateprops": ["timepoint", "begin", "end"], "properties": {"http://www.w3.org/2000/01/rdf-schema#label": "Brunnen 190", "http://rdfs.org/ns/void#inDataset.value": "6503", "http://www.w3.org/2000/01/rdf-schema#comment": "Betriebszeit: Mai bis Oktober, Link: https://www.bwb.de/de/trinkbrunnen.php  ", "http://www.w3.org/2004/02/skos/core#scopeNote": "nan", "timepoint": "http://www.w3.org/ns/time/gregorian/October", "begin": "http://www.w3.org/ns/time/gregorian/May", "end": "http://www.w3.org/ns/time/gregorian/October", "http://www.w3.org/ns/locn#postCode": "10437", "http://www.wikidata.org/prop/direct/P571": "2021", "http://xmlns.com/foaf/0.1/homepage": "https://www.bwb.de/de/trinkbrunnen.php"}, "geometry": {"type": "Point", "coordinates": [13.402045, 52.54310803681337]}}, {"type": "Feature", "id": "https://gdi-de.github.io/apworkshop2026/100", "name": "Brunnen 100 (gdide:100)", "dateprops": ["timepoint", "begin", "end"], "properties": {"http://www.w3.org/2000/01/rdf-schema#label": "Brunnen 100", "http://rdfs.org/ns/void#inDataset.value": "6503", "http://www.w3.org/2000/01/rdf-schema#comment": "Betriebszeit: Mai bis Oktober, Link: https://www.bwb.de/de/trinkbrunnen.php  ", "http://www.w3.org/2004/02/skos/core#scopeNote": "nan", "timepoint": "http://www.w3.org/ns/time/gregorian/October", "begin": "http://www.w3.org/ns/time/gregorian/May", "end": "http://www.w3.org/ns/time/gregorian/October", "http://www.w3.org/ns/locn#postCode": "12165", "http://www.wikidata.org/prop/direct/P571": "2019", "http://xmlns.com/foaf/0.1/homepage": "https://www.bwb.de/de/trinkbrunnen.php"}, "geometry": {"type": "Point", "coordinates": [13.322056999999768, 52.45674403690334]}}, {"type": "Feature", "id": "https://gdi-de.github.io/apworkshop2026/124", "name": "Brunnen 124 (gdide:124)", "dateprops": ["timepoint", "begin", "end"], "properties": {"http://www.w3.org/2000/01/rdf-schema#label": "Brunnen 124", "http://rdfs.org/ns/void#inDataset.value": "6503", "http://www.w3.org/2000/01/rdf-schema#comment": "Betriebszeit: Mai bis Oktober, Link: https://www.bwb.de/de/trinkbrunnen.php  ", "http://www.w3.org/2004/02/skos/core#scopeNote": "nan", "timepoint": "http://www.w3.org/ns/time/gregorian/October", "begin": "http://www.w3.org/ns/time/gregorian/May", "end": "http://www.w3.org/ns/time/gregorian/October", "http://www.w3.org/ns/locn#postCode": "10969", "http://www.wikidata.org/prop/direct/P571": "2020", "http://xmlns.com/foaf/0.1/homepage": "https://www.bwb.de/de/trinkbrunnen.php"}, "geometry": {"type": "Point", "coordinates": [13.39162, 52.50098603685757]}}, {"type": "Feature", "id": "https://gdi-de.github.io/apworkshop2026/147", "name": "Brunnen 147 (gdide:147)", "dateprops": ["timepoint", "begin", "end"], "properties": {"http://www.w3.org/2000/01/rdf-schema#label": "Brunnen 147", "http://rdfs.org/ns/void#inDataset.value": "6503", "http://www.w3.org/2000/01/rdf-schema#comment": "Betriebszeit: Mai bis Oktober, Link: https://www.bwb.de/de/trinkbrunnen.php  ", "http://www.w3.org/2004/02/skos/core#scopeNote": "nan", "timepoint": "http://www.w3.org/ns/time/gregorian/October", "begin": "http://www.w3.org/ns/time/gregorian/May", "end": "http://www.w3.org/ns/time/gregorian/October", "http://www.w3.org/ns/locn#postCode": "13409", "http://www.wikidata.org/prop/direct/P571": "2020", "http://xmlns.com/foaf/0.1/homepage": "https://www.bwb.de/de/trinkbrunnen.php"}, "geometry": {"type": "Point", "coordinates": [13.360173999999883, 52.5722280367824]}}, {"type": "Feature", "id": "https://gdi-de.github.io/apworkshop2026/174", "name": "Brunnen 174 (gdide:174)", "dateprops": ["timepoint", "begin", "end"], "properties": {"http://www.w3.org/2000/01/rdf-schema#label": "Brunnen 174", "http://rdfs.org/ns/void#inDataset.value": "6503", "http://www.w3.org/2000/01/rdf-schema#comment": "Betriebszeit: Mai bis Oktober, Link: https://www.bwb.de/de/trinkbrunnen.php  ", "http://www.w3.org/2004/02/skos/core#scopeNote": "nan", "timepoint": "http://www.w3.org/ns/time/gregorian/October", "begin": "http://www.w3.org/ns/time/gregorian/May", "end": "http://www.w3.org/ns/time/gregorian/October", "http://www.w3.org/ns/locn#postCode": "12049", "http://www.wikidata.org/prop/direct/P571": "2021", "http://xmlns.com/foaf/0.1/homepage": "https://www.bwb.de/de/trinkbrunnen.php"}, "geometry": {"type": "Point", "coordinates": [13.418498, 52.476520036883315]}}, {"type": "Feature", "id": "https://gdi-de.github.io/apworkshop2026/203", "name": "Brunnen 203 (gdide:203)", "dateprops": ["timepoint", "begin", "end"], "properties": {"http://www.w3.org/2000/01/rdf-schema#label": "Brunnen 203", "http://rdfs.org/ns/void#inDataset.value": "6503", "http://www.w3.org/2000/01/rdf-schema#comment": "Betriebszeit: Mai bis Oktober, Link: https://www.bwb.de/de/trinkbrunnen.php  ", "http://www.w3.org/2004/02/skos/core#scopeNote": "nan", "timepoint": "http://www.w3.org/ns/time/gregorian/October", "begin": "http://www.w3.org/ns/time/gregorian/May", "end": "http://www.w3.org/ns/time/gregorian/October", "http://www.w3.org/ns/locn#postCode": "12459", "http://www.wikidata.org/prop/direct/P571": "2022", "http://xmlns.com/foaf/0.1/homepage": "https://www.bwb.de/de/trinkbrunnen.php"}, "geometry": {"type": "Point", "coordinates": [13.534770000000131, 52.464268036896655]}}, {"type": "Feature", "id": "https://gdi-de.github.io/apworkshop2026/208", "name": "Brunnen 208 (gdide:208)", "dateprops": ["timepoint", "begin", "end"], "properties": {"http://www.w3.org/2000/01/rdf-schema#label": "Brunnen 208", "http://rdfs.org/ns/void#inDataset.value": "6503", "http://www.w3.org/2000/01/rdf-schema#comment": "Betriebszeit: Mai bis Oktober, Link: https://www.bwb.de/de/trinkbrunnen.php  ", "http://www.w3.org/2004/02/skos/core#scopeNote": "nan", "timepoint": "http://www.w3.org/ns/time/gregorian/October", "begin": "http://www.w3.org/ns/time/gregorian/May", "end": "http://www.w3.org/ns/time/gregorian/October", "http://www.w3.org/ns/locn#postCode": "14129", "http://www.wikidata.org/prop/direct/P571": "2022", "http://xmlns.com/foaf/0.1/homepage": "https://www.bwb.de/de/trinkbrunnen.php"}, "geometry": {"type": "Point", "coordinates": [13.214379999999563, 52.44016903691965]}}, {"type": "Feature", "id": "https://gdi-de.github.io/apworkshop2026/86", "name": "Brunnen 86 (gdide:86)", "dateprops": ["timepoint", "begin", "end"], "properties": {"http://www.w3.org/2000/01/rdf-schema#label": "Brunnen 86", "http://rdfs.org/ns/void#inDataset.value": "6503", "http://www.w3.org/2000/01/rdf-schema#comment": "Betriebszeit: Mai bis Oktober, Link: https://www.bwb.de/de/trinkbrunnen.php  ", "http://www.w3.org/2004/02/skos/core#scopeNote": "nan", "timepoint": "http://www.w3.org/ns/time/gregorian/October", "begin": "http://www.w3.org/ns/time/gregorian/May", "end": "http://www.w3.org/ns/time/gregorian/October", "http://www.w3.org/ns/locn#postCode": "13597", "http://www.wikidata.org/prop/direct/P571": "2019", "http://xmlns.com/foaf/0.1/homepage": "https://www.bwb.de/de/trinkbrunnen.php"}, "geometry": {"type": "Point", "coordinates": [13.198918999999517, 52.53605103681916]}}, {"type": "Feature", "id": "https://gdi-de.github.io/apworkshop2026/229", "name": "Brunnen 229 (gdide:229)", "dateprops": ["timepoint", "begin", "end"], "properties": {"http://www.w3.org/2000/01/rdf-schema#label": "Brunnen 229", "http://rdfs.org/ns/void#inDataset.value": "6503", "http://www.w3.org/2000/01/rdf-schema#comment": "Betriebszeit: Mai bis Oktober, Link: https://www.bwb.de/de/trinkbrunnen.php  ", "http://www.w3.org/2004/02/skos/core#scopeNote": "nan", "timepoint": "http://www.w3.org/ns/time/gregorian/October", "begin": "http://www.w3.org/ns/time/gregorian/May", "end": "http://www.w3.org/ns/time/gregorian/October", "http://www.w3.org/ns/locn#postCode": "12103", "http://www.wikidata.org/prop/direct/P571": "2023", "http://xmlns.com/foaf/0.1/homepage": "https://www.bwb.de/de/trinkbrunnen.php"}, "geometry": {"type": "Point", "coordinates": [13.382990999999883, 52.46329303689689]}}, {"type": "Feature", "id": "https://gdi-de.github.io/apworkshop2026/194", "name": "Brunnen 194 (gdide:194)", "dateprops": ["timepoint", "begin", "end"], "properties": {"http://www.w3.org/2000/01/rdf-schema#label": "Brunnen 194", "http://rdfs.org/ns/void#inDataset.value": "6503", "http://www.w3.org/2000/01/rdf-schema#comment": "Betriebszeit: Mai bis Oktober, Link: https://www.bwb.de/de/trinkbrunnen.php  ", "http://www.w3.org/2004/02/skos/core#scopeNote": "nan", "timepoint": "http://www.w3.org/ns/time/gregorian/October", "begin": "http://www.w3.org/ns/time/gregorian/May", "end": "http://www.w3.org/ns/time/gregorian/October", "http://www.w3.org/ns/locn#postCode": "10247", "http://www.wikidata.org/prop/direct/P571": "2022", "http://xmlns.com/foaf/0.1/homepage": "https://www.bwb.de/de/trinkbrunnen.php"}, "geometry": {"type": "Point", "coordinates": [13.472324, 52.51552003684278]}}, {"type": "Feature", "id": "https://gdi-de.github.io/apworkshop2026/185", "name": "Brunnen 185 (gdide:185)", "dateprops": ["timepoint", "begin", "end"], "properties": {"http://www.w3.org/2000/01/rdf-schema#label": "Brunnen 185", "http://rdfs.org/ns/void#inDataset.value": "6503", "http://www.w3.org/2000/01/rdf-schema#comment": "Betriebszeit: Mai bis Oktober, Link: https://www.bwb.de/de/trinkbrunnen.php  ", "http://www.w3.org/2004/02/skos/core#scopeNote": "nan", "timepoint": "http://www.w3.org/ns/time/gregorian/October", "begin": "http://www.w3.org/ns/time/gregorian/May", "end": "http://www.w3.org/ns/time/gregorian/October", "http://www.w3.org/ns/locn#postCode": "13353", "http://www.wikidata.org/prop/direct/P571": "2021", "http://xmlns.com/foaf/0.1/homepage": "https://www.bwb.de/de/trinkbrunnen.php"}, "geometry": {"type": "Point", "coordinates": [13.35221999999988, 52.54626003680978]}}, {"type": "Feature", "id": "https://gdi-de.github.io/apworkshop2026/141", "name": "Brunnen 141 (gdide:141)", "dateprops": ["timepoint", "begin", "end"], "properties": {"http://www.w3.org/2000/01/rdf-schema#label": "Brunnen 141", "http://rdfs.org/ns/void#inDataset.value": "6503", "http://www.w3.org/2000/01/rdf-schema#comment": "Betriebszeit: Mai bis Oktober, Link: https://www.bwb.de/de/trinkbrunnen.php  ", "http://www.w3.org/2004/02/skos/core#scopeNote": "nan", "timepoint": "http://www.w3.org/ns/time/gregorian/October", "begin": "http://www.w3.org/ns/time/gregorian/May", "end": "http://www.w3.org/ns/time/gregorian/October", "http://www.w3.org/ns/locn#postCode": "14163", "http://www.wikidata.org/prop/direct/P571": "2020", "http://xmlns.com/foaf/0.1/homepage": "https://www.bwb.de/de/trinkbrunnen.php"}, "geometry": {"type": "Point", "coordinates": [13.240268999999591, 52.44241203691755]}}, {"type": "Feature", "id": "https://gdi-de.github.io/apworkshop2026/223", "name": "Brunnen 223 (gdide:223)", "dateprops": ["timepoint", "begin", "end"], "properties": {"http://www.w3.org/2000/01/rdf-schema#label": "Brunnen 223", "http://rdfs.org/ns/void#inDataset.value": "6503", "http://www.w3.org/2000/01/rdf-schema#comment": "Betriebszeit: Mai bis Oktober, Link: https://www.bwb.de/de/trinkbrunnen.php  ", "http://www.w3.org/2004/02/skos/core#scopeNote": "nan", "timepoint": "http://www.w3.org/ns/time/gregorian/October", "begin": "http://www.w3.org/ns/time/gregorian/May", "end": "http://www.w3.org/ns/time/gregorian/October", "http://www.w3.org/ns/locn#postCode": "12157", "http://www.wikidata.org/prop/direct/P571": "2023", "http://xmlns.com/foaf/0.1/homepage": "https://www.bwb.de/de/trinkbrunnen.php"}, "geometry": {"type": "Point", "coordinates": [13.347817999999808, 52.467601036892205]}}, {"type": "Feature", "id": "https://gdi-de.github.io/apworkshop2026/186", "name": "Brunnen 186 (gdide:186)", "dateprops": ["timepoint", "begin", "end"], "properties": {"http://www.w3.org/2000/01/rdf-schema#label": "Brunnen 186", "http://rdfs.org/ns/void#inDataset.value": "6503", "http://www.w3.org/2000/01/rdf-schema#comment": "Betriebszeit: Mai bis Oktober, Link: https://www.bwb.de/de/trinkbrunnen.php  ", "http://www.w3.org/2004/02/skos/core#scopeNote": "nan", "timepoint": "http://www.w3.org/ns/time/gregorian/October", "begin": "http://www.w3.org/ns/time/gregorian/May", "end": "http://www.w3.org/ns/time/gregorian/October", "http://www.w3.org/ns/locn#postCode": "13353", "http://www.wikidata.org/prop/direct/P571": "2021", "http://xmlns.com/foaf/0.1/homepage": "https://www.bwb.de/de/trinkbrunnen.php"}, "geometry": {"type": "Point", "coordinates": [13.352907999999827, 52.53987803681647]}}, {"type": "Feature", "id": "https://gdi-de.github.io/apworkshop2026/235", "name": "Brunnen 235 (gdide:235)", "dateprops": ["timepoint", "begin", "end"], "properties": {"http://www.w3.org/2000/01/rdf-schema#label": "Brunnen 235", "http://rdfs.org/ns/void#inDataset.value": "6503", "http://www.w3.org/2000/01/rdf-schema#comment": "Betriebszeit: Mai bis Oktober, Link: https://www.bwb.de/de/trinkbrunnen.php  ", "http://www.w3.org/2004/02/skos/core#scopeNote": "nan", "timepoint": "http://www.w3.org/ns/time/gregorian/October", "begin": "http://www.w3.org/ns/time/gregorian/May", "end": "http://www.w3.org/ns/time/gregorian/October", "http://www.w3.org/ns/locn#postCode": "14053", "http://www.wikidata.org/prop/direct/P571": "2024", "http://xmlns.com/foaf/0.1/homepage": "https://www.bwb.de/de/trinkbrunnen.php"}, "geometry": {"type": "Point", "coordinates": [13.241279999999664, 52.51821403683832]}}, {"type": "Feature", "id": "https://gdi-de.github.io/apworkshop2026/159", "name": "Brunnen 159 (gdide:159)", "dateprops": ["timepoint", "begin", "end"], "properties": {"http://www.w3.org/2000/01/rdf-schema#label": "Brunnen 159", "http://rdfs.org/ns/void#inDataset.value": "6503", "http://www.w3.org/2000/01/rdf-schema#comment": "Betriebszeit: Mai bis Oktober, Link: https://www.bwb.de/de/trinkbrunnen.php  ", "http://www.w3.org/2004/02/skos/core#scopeNote": "nan", "timepoint": "http://www.w3.org/ns/time/gregorian/October", "begin": "http://www.w3.org/ns/time/gregorian/May", "end": "http://www.w3.org/ns/time/gregorian/October", "http://www.w3.org/ns/locn#postCode": "13587", "http://www.wikidata.org/prop/direct/P571": "2020", "http://xmlns.com/foaf/0.1/homepage": "https://www.bwb.de/de/trinkbrunnen.php"}, "geometry": {"type": "Point", "coordinates": [13.207904999999533, 52.55548803679881]}}, {"type": "Feature", "id": "https://gdi-de.github.io/apworkshop2026/206", "name": "Brunnen 206 (gdide:206)", "dateprops": ["timepoint", "begin", "end"], "properties": {"http://www.w3.org/2000/01/rdf-schema#label": "Brunnen 206", "http://rdfs.org/ns/void#inDataset.value": "6503", "http://www.w3.org/2000/01/rdf-schema#comment": "Betriebszeit: Mai bis Oktober, Link: https://www.bwb.de/de/trinkbrunnen.php  ", "http://www.w3.org/2004/02/skos/core#scopeNote": "nan", "timepoint": "http://www.w3.org/ns/time/gregorian/October", "begin": "http://www.w3.org/ns/time/gregorian/May", "end": "http://www.w3.org/ns/time/gregorian/October", "http://www.w3.org/ns/locn#postCode": "13627", "http://www.wikidata.org/prop/direct/P571": "2022", "http://xmlns.com/foaf/0.1/homepage": "https://www.bwb.de/de/trinkbrunnen.php"}, "geometry": {"type": "Point", "coordinates": [13.279560999999687, 52.536848036819094]}}], "numberMatched": 42, "numberReturned": 42, "bbox": [13.193373999999507, 52.403244036960075, 13.548048000000103, 52.634398036716036], "crs": "http://www.opengis.net/def/crs/EPSG/0/4326"}