{"type": "FeatureCollection", "id": "https://gdi-de.github.io/apworkshop2026/Q15546565_collection", "name": "Q15546565 Instances Collection", "features": [{"type": "Feature", "id": "https://gdi-de.github.io/apworkshop2026/ENTW7", "name": "Baum ENTW7 (gdide:ENTW7)", "dateprops": [], "properties": {"http://www.w3.org/2000/01/rdf-schema#label": "Baum ENTW7", "http://rdfs.org/ns/void#inDataset.value": "72757", "http://www.w3.org/2000/01/rdf-schema#comment": "Bezirksamt", "http://www.wikidata.org/prop/direct/P2547.value": "7.0", "http://www.wikidata.org/prop/direct/P2547.unit": "http://www.ontology-of-units-of-measure.org/resource/om-2/meter", "http://www.wikidata.org/prop/direct/P3018": "Entenwerder", "https://gdi-de.github.io/apworkshop2026/ont#stammdurchmesser.value": "21.0", "https://gdi-de.github.io/apworkshop2026/ont#stammdurchmesser.unit": "http://www.ontology-of-units-of-measure.org/resource/om-2/centimeter"}, "geometry": {"type": "MultiPoint", "coordinates": [[10.040676713799142, 53.530267794173845]]}}, {"type": "Feature", "id": "https://gdi-de.github.io/apworkshop2026/ENTW9", "name": "Baum ENTW9 (gdide:ENTW9)", "dateprops": [], "properties": {"http://www.w3.org/2000/01/rdf-schema#label": "Baum ENTW9", "http://rdfs.org/ns/void#inDataset.value": "72757", "http://www.w3.org/2000/01/rdf-schema#comment": "Bezirksamt", "http://www.wikidata.org/prop/direct/P2547.value": "8.0", "http://www.wikidata.org/prop/direct/P2547.unit": "http://www.ontology-of-units-of-measure.org/resource/om-2/meter", "http://www.wikidata.org/prop/direct/P3018": "Entenwerder", "https://gdi-de.github.io/apworkshop2026/ont#stammdurchmesser.value": "28.0", "https://gdi-de.github.io/apworkshop2026/ont#stammdurchmesser.unit": "http://www.ontology-of-units-of-measure.org/resource/om-2/centimeter"}, "geometry": {"type": "MultiPoint", "coordinates": [[10.040289872288342, 53.53039348743017]]}}, {"type": "Feature", "id": "https://gdi-de.github.io/apworkshop2026/ENTW6", "name": "Baum ENTW6 (gdide:ENTW6)", "dateprops": [], "properties": {"http://www.w3.org/2000/01/rdf-schema#label": "Baum ENTW6", "http://rdfs.org/ns/void#inDataset.value": "72757", "http://www.w3.org/2000/01/rdf-schema#comment": "Bezirksamt", "http://www.wikidata.org/prop/direct/P2547.value": "7.0", "http://www.wikidata.org/prop/direct/P2547.unit": "http://www.ontology-of-units-of-measure.org/resource/om-2/meter", "http://www.wikidata.org/prop/direct/P3018": "Entenwerder", "https://gdi-de.github.io/apworkshop2026/ont#stammdurchmesser.value": "25.0", "https://gdi-de.github.io/apworkshop2026/ont#stammdurchmesser.unit": "http://www.ontology-of-units-of-measure.org/resource/om-2/centimeter"}, "geometry": {"type": "MultiPoint", "coordinates": [[10.041090379004327, 53.530132190274735]]}}, {"type": "Feature", "id": "https://gdi-de.github.io/apworkshop2026/ENTW10", "name": "Baum ENTW10 (gdide:ENTW10)", "dateprops": [], "properties": {"http://www.w3.org/2000/01/rdf-schema#label": "Baum ENTW10", "http://rdfs.org/ns/void#inDataset.value": "72757", "http://www.w3.org/2000/01/rdf-schema#comment": "Bezirksamt", "http://www.wikidata.org/prop/direct/P2547.value": "7.0", "http://www.wikidata.org/prop/direct/P2547.unit": "http://www.ontology-of-units-of-measure.org/resource/om-2/meter", "http://www.wikidata.org/prop/direct/P3018": "Entenwerder", "https://gdi-de.github.io/apworkshop2026/ont#stammdurchmesser.value": "25.0", "https://gdi-de.github.io/apworkshop2026/ont#stammdurchmesser.unit": "http://www.ontology-of-units-of-measure.org/resource/om-2/centimeter"}, "geometry": {"type": "MultiPoint", "coordinates": [[10.040326218124738, 53.53030305133007]]}}, {"type": "Feature", "id": "https://gdi-de.github.io/apworkshop2026/FRHD6", "name": "Baum FRHD6 (gdide:FRHD6)", "dateprops": [], "properties": {"http://www.w3.org/2000/01/rdf-schema#label": "Baum FRHD6", "http://rdfs.org/ns/void#inDataset.value": "72757", "http://www.w3.org/2000/01/rdf-schema#comment": "Wasserwirtschaft", "http://www.wikidata.org/prop/direct/P2547.value": "7.0", "http://www.wikidata.org/prop/direct/P2547.unit": "http://www.ontology-of-units-of-measure.org/resource/om-2/meter", "http://www.wikidata.org/prop/direct/P3018": "Finkenrieker Hauptdeich", "https://gdi-de.github.io/apworkshop2026/ont#stammdurchmesser.value": "40.0", "https://gdi-de.github.io/apworkshop2026/ont#stammdurchmesser.unit": "http://www.ontology-of-units-of-measure.org/resource/om-2/centimeter"}, "geometry": {"type": "MultiPoint", "coordinates": [[10.014290058784209, 53.47449063308737]]}}, {"type": "Feature", "id": "https://gdi-de.github.io/apworkshop2026/FRHD5", "name": "Baum FRHD5 (gdide:FRHD5)", "dateprops": [], "properties": {"http://www.w3.org/2000/01/rdf-schema#label": "Baum FRHD5", "http://rdfs.org/ns/void#inDataset.value": "72757", "http://www.w3.org/2000/01/rdf-schema#comment": "Wasserwirtschaft", "http://www.wikidata.org/prop/direct/P2547.value": "14.0", "http://www.wikidata.org/prop/direct/P2547.unit": "http://www.ontology-of-units-of-measure.org/resource/om-2/meter", "http://www.wikidata.org/prop/direct/P3018": "Finkenrieker Hauptdeich", "https://gdi-de.github.io/apworkshop2026/ont#stammdurchmesser.value": "64.0", "https://gdi-de.github.io/apworkshop2026/ont#stammdurchmesser.unit": "http://www.ontology-of-units-of-measure.org/resource/om-2/centimeter"}, "geometry": {"type": "MultiPoint", "coordinates": [[10.014405824674876, 53.474507346551]]}}, {"type": "Feature", "id": "https://gdi-de.github.io/apworkshop2026/ENTW8", "name": "Baum ENTW8 (gdide:ENTW8)", "dateprops": [], "properties": {"http://www.w3.org/2000/01/rdf-schema#label": "Baum ENTW8", "http://rdfs.org/ns/void#inDataset.value": "72757", "http://www.w3.org/2000/01/rdf-schema#comment": "Bezirksamt", "http://www.wikidata.org/prop/direct/P2547.value": "6.0", "http://www.wikidata.org/prop/direct/P2547.unit": "http://www.ontology-of-units-of-measure.org/resource/om-2/meter", "http://www.wikidata.org/prop/direct/P3018": "Entenwerder", "https://gdi-de.github.io/apworkshop2026/ont#stammdurchmesser.value": "25.0", "https://gdi-de.github.io/apworkshop2026/ont#stammdurchmesser.unit": "http://www.ontology-of-units-of-measure.org/resource/om-2/centimeter"}, "geometry": {"type": "MultiPoint", "coordinates": [[10.04047308369054, 53.53032779486274]]}}, {"type": "Feature", "id": "https://gdi-de.github.io/apworkshop2026/ENTW18", "name": "Baum ENTW18 (gdide:ENTW18)", "dateprops": [], "properties": {"http://www.w3.org/2000/01/rdf-schema#label": "Baum ENTW18", "http://rdfs.org/ns/void#inDataset.value": "72757", "http://www.w3.org/2000/01/rdf-schema#comment": "Bezirksamt", "http://www.wikidata.org/prop/direct/P2547.value": "8.0", "http://www.wikidata.org/prop/direct/P2547.unit": "http://www.ontology-of-units-of-measure.org/resource/om-2/meter", "http://www.wikidata.org/prop/direct/P3018": "Entenwerder", "https://gdi-de.github.io/apworkshop2026/ont#stammdurchmesser.value": "30.0", "https://gdi-de.github.io/apworkshop2026/ont#stammdurchmesser.unit": "http://www.ontology-of-units-of-measure.org/resource/om-2/centimeter"}, "geometry": {"type": "MultiPoint", "coordinates": [[10.040363713804696, 53.53021439845504]]}}, {"type": "Feature", "id": "https://gdi-de.github.io/apworkshop2026/ENTW19", "name": "Baum ENTW19 (gdide:ENTW19)", "dateprops": [], "properties": {"http://www.w3.org/2000/01/rdf-schema#label": "Baum ENTW19", "http://rdfs.org/ns/void#inDataset.value": "72757", "http://www.w3.org/2000/01/rdf-schema#comment": "Bezirksamt", "http://www.wikidata.org/prop/direct/P2547.value": "8.0", "http://www.wikidata.org/prop/direct/P2547.unit": "http://www.ontology-of-units-of-measure.org/resource/om-2/meter", "http://www.wikidata.org/prop/direct/P3018": "Entenwerder", "https://gdi-de.github.io/apworkshop2026/ont#stammdurchmesser.value": "38.0", "https://gdi-de.github.io/apworkshop2026/ont#stammdurchmesser.unit": "http://www.ontology-of-units-of-measure.org/resource/om-2/centimeter"}, "geometry": {"type": "MultiPoint", "coordinates": [[10.040562448095002, 53.53014706635764]]}}], "numberMatched": 9, "numberReturned": 9, "bbox": [10.014290058784209, 53.47449063308737, 10.041090379004327, 53.53039348743017], "crs": "http://www.opengis.net/def/crs/EPSG/0/4326"}