{"type": "FeatureCollection", "id": "https://gdi-de.github.io/apworkshop2026/Tree_collection", "name": "Tree Instances Collection", "features": [{"type": "Feature", "id": "https://gdi-de.github.io/apworkshop2026/nan", "name": " (gdide:nan)", "dateprops": [], "properties": {"http://rdfs.org/ns/void#inDataset.value": "72757", "http://www.w3.org/2000/01/rdf-schema#comment": "nan", "http://www.wikidata.org/prop/direct/P2547.value": "nan", "http://www.wikidata.org/prop/direct/P2547.unit": "http://www.ontology-of-units-of-measure.org/resource/om-2/meter", "https://gdi-de.github.io/apworkshop2026/ont#stammdurchmesser.value": "nan", "https://gdi-de.github.io/apworkshop2026/ont#stammdurchmesser.unit": "http://www.ontology-of-units-of-measure.org/resource/om-2/centimeter"}, "geometry": {"type": "MultiPoint", "coordinates": [[10.010164078717944, 53.47391439417472]]}}], "numberMatched": 1, "numberReturned": 1, "bbox": [10.010164078717944, 53.47391439417472, 10.010164078717944, 53.47391439417472], "crs": "http://www.opengis.net/def/crs/EPSG/0/4326"}