{"type": "FeatureCollection", "id": "https://gdi-de.github.io/apworkshop2026/Botsch_collection", "name": "Botsch Instances Collection", "features": [{"type": "Feature", "id": "https://gdi-de.github.io/apworkshop2026/32", "name": "Brunnen 32 (gdide:32)", "dateprops": ["timepoint", "begin", "end"], "properties": {"http://www.w3.org/2000/01/rdf-schema#label": "Brunnen 32", "http://rdfs.org/ns/void#inDataset.value": "6503", "http://www.w3.org/2000/01/rdf-schema#comment": "Betriebszeit: Mai bis Oktober, Link: https://www.bwb.de/de/trinkbrunnen.php  ", "http://www.w3.org/2004/02/skos/core#scopeNote": "nan", "timepoint": "http://www.w3.org/ns/time/gregorian/October", "begin": "http://www.w3.org/ns/time/gregorian/May", "end": "http://www.w3.org/ns/time/gregorian/October", "http://www.w3.org/ns/locn#postCode": "10559", "http://www.wikidata.org/prop/direct/P571": "2015", "http://xmlns.com/foaf/0.1/homepage": "https://www.bwb.de/de/trinkbrunnen.php"}, "geometry": {"type": "Point", "coordinates": [13.346287999999841, 52.526704036830296]}}, {"type": "Feature", "id": "https://gdi-de.github.io/apworkshop2026/55", "name": "Brunnen 55 (gdide:55)", "dateprops": ["timepoint", "begin", "end"], "properties": {"http://www.w3.org/2000/01/rdf-schema#label": "Brunnen 55", "http://rdfs.org/ns/void#inDataset.value": "6503", "http://www.w3.org/2000/01/rdf-schema#comment": "Betriebszeit: Mai bis Oktober, Link: https://www.bwb.de/de/trinkbrunnen.php  ", "http://www.w3.org/2004/02/skos/core#scopeNote": "nan", "timepoint": "http://www.w3.org/ns/time/gregorian/October", "begin": "http://www.w3.org/ns/time/gregorian/May", "end": "http://www.w3.org/ns/time/gregorian/October", "http://www.w3.org/ns/locn#postCode": "10117", "http://www.wikidata.org/prop/direct/P571": "2018", "http://xmlns.com/foaf/0.1/homepage": "https://www.bwb.de/de/trinkbrunnen.php"}, "geometry": {"type": "Point", "coordinates": [13.380463, 52.525697036831595]}}, {"type": "Feature", "id": "https://gdi-de.github.io/apworkshop2026/27", "name": "Brunnen 27 (gdide:27)", "dateprops": ["timepoint", "begin", "end"], "properties": {"http://www.w3.org/2000/01/rdf-schema#label": "Brunnen 27", "http://rdfs.org/ns/void#inDataset.value": "6503", "http://www.w3.org/2000/01/rdf-schema#comment": "Betriebszeit: Mai bis Oktober, Link: https://www.bwb.de/de/trinkbrunnen.php  ", "http://www.w3.org/2004/02/skos/core#scopeNote": "nan", "timepoint": "http://www.w3.org/ns/time/gregorian/October", "begin": "http://www.w3.org/ns/time/gregorian/May", "end": "http://www.w3.org/ns/time/gregorian/October", "http://www.w3.org/ns/locn#postCode": "10555", "http://www.wikidata.org/prop/direct/P571": "2014", "http://xmlns.com/foaf/0.1/homepage": "https://www.bwb.de/de/trinkbrunnen.php"}, "geometry": {"type": "Point", "coordinates": [13.342750999999895, 52.52553703683148]}}, {"type": "Feature", "id": "https://gdi-de.github.io/apworkshop2026/37", "name": "Brunnen 37 (gdide:37)", "dateprops": ["timepoint", "begin", "end"], "properties": {"http://www.w3.org/2000/01/rdf-schema#label": "Brunnen 37", "http://rdfs.org/ns/void#inDataset.value": "6503", "http://www.w3.org/2000/01/rdf-schema#comment": "Betriebszeit: Mai bis Oktober, Link: https://www.bwb.de/de/trinkbrunnen.php  ", "http://www.w3.org/2004/02/skos/core#scopeNote": "zur Zeit wegen Reparatur au\u00dfer Betrieb", "timepoint": "http://www.w3.org/ns/time/gregorian/October", "begin": "http://www.w3.org/ns/time/gregorian/May", "end": "http://www.w3.org/ns/time/gregorian/October", "http://www.w3.org/ns/locn#postCode": "13187", "http://www.wikidata.org/prop/direct/P571": "2016", "http://xmlns.com/foaf/0.1/homepage": "https://www.bwb.de/de/trinkbrunnen.php"}, "geometry": {"type": "Point", "coordinates": [13.404666, 52.5696940367854]}}, {"type": "Feature", "id": "https://gdi-de.github.io/apworkshop2026/29", "name": "Brunnen 29 (gdide:29)", "dateprops": ["timepoint", "begin", "end"], "properties": {"http://www.w3.org/2000/01/rdf-schema#label": "Brunnen 29", "http://rdfs.org/ns/void#inDataset.value": "6503", "http://www.w3.org/2000/01/rdf-schema#comment": "Betriebszeit: Mai bis Oktober, Link: https://www.bwb.de/de/trinkbrunnen.php  ", "http://www.w3.org/2004/02/skos/core#scopeNote": "nan", "timepoint": "http://www.w3.org/ns/time/gregorian/October", "begin": "http://www.w3.org/ns/time/gregorian/May", "end": "http://www.w3.org/ns/time/gregorian/October", "http://www.w3.org/ns/locn#postCode": "12555", "http://www.wikidata.org/prop/direct/P571": "2023", "http://xmlns.com/foaf/0.1/homepage": "https://www.bwb.de/de/trinkbrunnen.php"}, "geometry": {"type": "Point", "coordinates": [13.581090000000179, 52.458130036903206]}}, {"type": "Feature", "id": "https://gdi-de.github.io/apworkshop2026/41", "name": "Brunnen 41 (gdide:41)", "dateprops": ["timepoint", "begin", "end"], "properties": {"http://www.w3.org/2000/01/rdf-schema#label": "Brunnen 41", "http://rdfs.org/ns/void#inDataset.value": "6503", "http://www.w3.org/2000/01/rdf-schema#comment": "Betriebszeit: Mai bis Oktober, Link: https://www.bwb.de/de/trinkbrunnen.php  ", "http://www.w3.org/2004/02/skos/core#scopeNote": "nan", "timepoint": "http://www.w3.org/ns/time/gregorian/October", "begin": "http://www.w3.org/ns/time/gregorian/May", "end": "http://www.w3.org/ns/time/gregorian/October", "http://www.w3.org/ns/locn#postCode": "13187", "http://www.wikidata.org/prop/direct/P571": "2017", "http://xmlns.com/foaf/0.1/homepage": "https://www.bwb.de/de/trinkbrunnen.php"}, "geometry": {"type": "Point", "coordinates": [13.41139, 52.56733503678794]}}, {"type": "Feature", "id": "https://gdi-de.github.io/apworkshop2026/34", "name": "Brunnen 34 (gdide:34)", "dateprops": ["timepoint", "begin", "end"], "properties": {"http://www.w3.org/2000/01/rdf-schema#label": "Brunnen 34", "http://rdfs.org/ns/void#inDataset.value": "6503", "http://www.w3.org/2000/01/rdf-schema#comment": "Betriebszeit: Mai bis Oktober, Link: https://www.bwb.de/de/trinkbrunnen.php  ", "http://www.w3.org/2004/02/skos/core#scopeNote": "zur Zeit wegen Reparatur au\u00dfer Betrieb", "timepoint": "http://www.w3.org/ns/time/gregorian/October", "begin": "http://www.w3.org/ns/time/gregorian/May", "end": "http://www.w3.org/ns/time/gregorian/October", "http://www.w3.org/ns/locn#postCode": "10317", "http://www.wikidata.org/prop/direct/P571": "2016", "http://xmlns.com/foaf/0.1/homepage": "https://www.bwb.de/de/trinkbrunnen.php"}, "geometry": {"type": "Point", "coordinates": [13.499024, 52.51021803684845]}}, {"type": "Feature", "id": "https://gdi-de.github.io/apworkshop2026/48", "name": "Brunnen 48 (gdide:48)", "dateprops": ["timepoint", "begin", "end"], "properties": {"http://www.w3.org/2000/01/rdf-schema#label": "Brunnen 48", "http://rdfs.org/ns/void#inDataset.value": "6503", "http://www.w3.org/2000/01/rdf-schema#comment": "Betriebszeit: Mai bis Oktober, Link: https://www.bwb.de/de/trinkbrunnen.php  ", "http://www.w3.org/2004/02/skos/core#scopeNote": "nan", "timepoint": "http://www.w3.org/ns/time/gregorian/October", "begin": "http://www.w3.org/ns/time/gregorian/May", "end": "http://www.w3.org/ns/time/gregorian/October", "http://www.w3.org/ns/locn#postCode": "10369", "http://www.wikidata.org/prop/direct/P571": "2018", "http://xmlns.com/foaf/0.1/homepage": "https://www.bwb.de/de/trinkbrunnen.php"}, "geometry": {"type": "Point", "coordinates": [13.471391, 52.52996003682762]}}, {"type": "Feature", "id": "https://gdi-de.github.io/apworkshop2026/23", "name": "Brunnen 23 (gdide:23)", "dateprops": ["timepoint", "begin", "end"], "properties": {"http://www.w3.org/2000/01/rdf-schema#label": "Brunnen 23", "http://rdfs.org/ns/void#inDataset.value": "6503", "http://www.w3.org/2000/01/rdf-schema#comment": "Betriebszeit: Mai bis Oktober, Link: https://www.bwb.de/de/trinkbrunnen.php  ", "http://www.w3.org/2004/02/skos/core#scopeNote": "nan", "timepoint": "http://www.w3.org/ns/time/gregorian/October", "begin": "http://www.w3.org/ns/time/gregorian/May", "end": "http://www.w3.org/ns/time/gregorian/October", "http://www.w3.org/ns/locn#postCode": "12047", "http://www.wikidata.org/prop/direct/P571": "2010", "http://xmlns.com/foaf/0.1/homepage": "https://www.bwb.de/de/trinkbrunnen.php"}, "geometry": {"type": "Point", "coordinates": [13.426999, 52.488341036870985]}}, {"type": "Feature", "id": "https://gdi-de.github.io/apworkshop2026/40", "name": "Brunnen 40 (gdide:40)", "dateprops": ["timepoint", "begin", "end"], "properties": {"http://www.w3.org/2000/01/rdf-schema#label": "Brunnen 40", "http://rdfs.org/ns/void#inDataset.value": "6503", "http://www.w3.org/2000/01/rdf-schema#comment": "Betriebszeit: Mai bis Oktober, Link: https://www.bwb.de/de/trinkbrunnen.php  ", "http://www.w3.org/2004/02/skos/core#scopeNote": "nan", "timepoint": "http://www.w3.org/ns/time/gregorian/October", "begin": "http://www.w3.org/ns/time/gregorian/May", "end": "http://www.w3.org/ns/time/gregorian/October", "http://www.w3.org/ns/locn#postCode": "13355", "http://www.wikidata.org/prop/direct/P571": "2017", "http://xmlns.com/foaf/0.1/homepage": "https://www.bwb.de/de/trinkbrunnen.php"}, "geometry": {"type": "Point", "coordinates": [13.398702, 52.54119703681533]}}, {"type": "Feature", "id": "https://gdi-de.github.io/apworkshop2026/72", "name": "Brunnen 72 (gdide:72)", "dateprops": ["timepoint", "begin", "end"], "properties": {"http://www.w3.org/2000/01/rdf-schema#label": "Brunnen 72", "http://rdfs.org/ns/void#inDataset.value": "6503", "http://www.w3.org/2000/01/rdf-schema#comment": "Betriebszeit: Mai bis Oktober, Link: https://www.bwb.de/de/trinkbrunnen.php  ", "http://www.w3.org/2004/02/skos/core#scopeNote": "nan", "timepoint": "http://www.w3.org/ns/time/gregorian/October", "begin": "http://www.w3.org/ns/time/gregorian/May", "end": "http://www.w3.org/ns/time/gregorian/October", "http://www.w3.org/ns/locn#postCode": "12159", "http://www.wikidata.org/prop/direct/P571": "2019", "http://xmlns.com/foaf/0.1/homepage": "https://www.bwb.de/de/trinkbrunnen.php"}, "geometry": {"type": "Point", "coordinates": [13.335246999999827, 52.47203003688744]}}, {"type": "Feature", "id": "https://gdi-de.github.io/apworkshop2026/30", "name": "Brunnen 30 (gdide:30)", "dateprops": ["timepoint", "begin", "end"], "properties": {"http://www.w3.org/2000/01/rdf-schema#label": "Brunnen 30", "http://rdfs.org/ns/void#inDataset.value": "6503", "http://www.w3.org/2000/01/rdf-schema#comment": "Betriebszeit: Mai bis Oktober, Link: https://www.bwb.de/de/trinkbrunnen.php  ", "http://www.w3.org/2004/02/skos/core#scopeNote": "nan", "timepoint": "http://www.w3.org/ns/time/gregorian/October", "begin": "http://www.w3.org/ns/time/gregorian/May", "end": "http://www.w3.org/ns/time/gregorian/October", "http://www.w3.org/ns/locn#postCode": "12459", "http://www.wikidata.org/prop/direct/P571": "2023", "http://xmlns.com/foaf/0.1/homepage": "https://www.bwb.de/de/trinkbrunnen.php"}, "geometry": {"type": "Point", "coordinates": [13.526672, 52.458639036902476]}}, {"type": "Feature", "id": "https://gdi-de.github.io/apworkshop2026/42", "name": "Brunnen 42 (gdide:42)", "dateprops": ["timepoint", "begin", "end"], "properties": {"http://www.w3.org/2000/01/rdf-schema#label": "Brunnen 42", "http://rdfs.org/ns/void#inDataset.value": "6503", "http://www.w3.org/2000/01/rdf-schema#comment": "Betriebszeit: Mai bis Oktober, Link: https://www.bwb.de/de/trinkbrunnen.php  ", "http://www.w3.org/2004/02/skos/core#scopeNote": "nan", "timepoint": "http://www.w3.org/ns/time/gregorian/October", "begin": "http://www.w3.org/ns/time/gregorian/May", "end": "http://www.w3.org/ns/time/gregorian/October", "http://www.w3.org/ns/locn#postCode": "13507", "http://www.wikidata.org/prop/direct/P571": "2017", "http://xmlns.com/foaf/0.1/homepage": "https://www.bwb.de/de/trinkbrunnen.php"}, "geometry": {"type": "Point", "coordinates": [13.287351999999773, 52.58527203676812]}}, {"type": "Feature", "id": "https://gdi-de.github.io/apworkshop2026/38", "name": "Brunnen 38 (gdide:38)", "dateprops": ["timepoint", "begin", "end"], "properties": {"http://www.w3.org/2000/01/rdf-schema#label": "Brunnen 38", "http://rdfs.org/ns/void#inDataset.value": "6503", "http://www.w3.org/2000/01/rdf-schema#comment": "Betriebszeit: Mai bis Oktober, Link: https://www.bwb.de/de/trinkbrunnen.php  ", "http://www.w3.org/2004/02/skos/core#scopeNote": "nan", "timepoint": "http://www.w3.org/ns/time/gregorian/October", "begin": "http://www.w3.org/ns/time/gregorian/May", "end": "http://www.w3.org/ns/time/gregorian/October", "http://www.w3.org/ns/locn#postCode": "13357", "http://www.wikidata.org/prop/direct/P571": "2017", "http://xmlns.com/foaf/0.1/homepage": "https://www.bwb.de/de/trinkbrunnen.php"}, "geometry": {"type": "Point", "coordinates": [13.387266, 52.549126036806925]}}, {"type": "Feature", "id": "https://gdi-de.github.io/apworkshop2026/59", "name": "Brunnen 59 (gdide:59)", "dateprops": ["timepoint", "begin", "end"], "properties": {"http://www.w3.org/2000/01/rdf-schema#label": "Brunnen 59", "http://rdfs.org/ns/void#inDataset.value": "6503", "http://www.w3.org/2000/01/rdf-schema#comment": "Betriebszeit: Mai bis Oktober, Link: https://www.bwb.de/de/trinkbrunnen.php  ", "http://www.w3.org/2004/02/skos/core#scopeNote": "nan", "timepoint": "http://www.w3.org/ns/time/gregorian/October", "begin": "http://www.w3.org/ns/time/gregorian/May", "end": "http://www.w3.org/ns/time/gregorian/October", "http://www.w3.org/ns/locn#postCode": "13353", "http://www.wikidata.org/prop/direct/P571": "2018", "http://xmlns.com/foaf/0.1/homepage": "https://www.bwb.de/de/trinkbrunnen.php"}, "geometry": {"type": "Point", "coordinates": [13.364159999999865, 52.54376803681247]}}, {"type": "Feature", "id": "https://gdi-de.github.io/apworkshop2026/35", "name": "Brunnen 35 (gdide:35)", "dateprops": ["timepoint", "begin", "end"], "properties": {"http://www.w3.org/2000/01/rdf-schema#label": "Brunnen 35", "http://rdfs.org/ns/void#inDataset.value": "6503", "http://www.w3.org/2000/01/rdf-schema#comment": "Betriebszeit: Mai bis Oktober, Link: https://www.bwb.de/de/trinkbrunnen.php  ", "http://www.w3.org/2004/02/skos/core#scopeNote": "nan", "timepoint": "http://www.w3.org/ns/time/gregorian/October", "begin": "http://www.w3.org/ns/time/gregorian/May", "end": "http://www.w3.org/ns/time/gregorian/October", "http://www.w3.org/ns/locn#postCode": "12685", "http://www.wikidata.org/prop/direct/P571": "2016", "http://xmlns.com/foaf/0.1/homepage": "https://www.bwb.de/de/trinkbrunnen.php"}, "geometry": {"type": "Point", "coordinates": [13.575449000000134, 52.540248036817204]}}, {"type": "Feature", "id": "https://gdi-de.github.io/apworkshop2026/36", "name": "Brunnen 36 (gdide:36)", "dateprops": ["timepoint", "begin", "end"], "properties": {"http://www.w3.org/2000/01/rdf-schema#label": "Brunnen 36", "http://rdfs.org/ns/void#inDataset.value": "6503", "http://www.w3.org/2000/01/rdf-schema#comment": "Betriebszeit: Mai bis Oktober, Link: https://www.bwb.de/de/trinkbrunnen.php  ", "http://www.w3.org/2004/02/skos/core#scopeNote": "nan", "timepoint": "http://www.w3.org/ns/time/gregorian/October", "begin": "http://www.w3.org/ns/time/gregorian/May", "end": "http://www.w3.org/ns/time/gregorian/October", "http://www.w3.org/ns/locn#postCode": "10117", "http://www.wikidata.org/prop/direct/P571": "2016", "http://xmlns.com/foaf/0.1/homepage": "https://www.bwb.de/de/trinkbrunnen.php"}, "geometry": {"type": "Point", "coordinates": [13.401817, 52.511030036847075]}}, {"type": "Feature", "id": "https://gdi-de.github.io/apworkshop2026/31", "name": "Brunnen 31 (gdide:31)", "dateprops": ["timepoint", "begin", "end"], "properties": {"http://www.w3.org/2000/01/rdf-schema#label": "Brunnen 31", "http://rdfs.org/ns/void#inDataset.value": "6503", "http://www.w3.org/2000/01/rdf-schema#comment": "Betriebszeit: Mai bis Oktober, Link: https://www.bwb.de/de/trinkbrunnen.php  ", "http://www.w3.org/2004/02/skos/core#scopeNote": "nan", "timepoint": "http://www.w3.org/ns/time/gregorian/October", "begin": "http://www.w3.org/ns/time/gregorian/May", "end": "http://www.w3.org/ns/time/gregorian/October", "http://www.w3.org/ns/locn#postCode": "12587", "http://www.wikidata.org/prop/direct/P571": "2015", "http://xmlns.com/foaf/0.1/homepage": "https://www.bwb.de/de/trinkbrunnen.php"}, "geometry": {"type": "Point", "coordinates": [13.625264000000161, 52.45284303690888]}}, {"type": "Feature", "id": "https://gdi-de.github.io/apworkshop2026/22", "name": "Brunnen 22 (gdide:22)", "dateprops": ["timepoint", "begin", "end"], "properties": {"http://www.w3.org/2000/01/rdf-schema#label": "Brunnen 22", "http://rdfs.org/ns/void#inDataset.value": "6503", "http://www.w3.org/2000/01/rdf-schema#comment": "Betriebszeit: Mai bis Oktober, Link: https://www.bwb.de/de/trinkbrunnen.php  ", "http://www.w3.org/2004/02/skos/core#scopeNote": "nan", "timepoint": "http://www.w3.org/ns/time/gregorian/October", "begin": "http://www.w3.org/ns/time/gregorian/May", "end": "http://www.w3.org/ns/time/gregorian/October", "http://www.w3.org/ns/locn#postCode": "10719", "http://www.wikidata.org/prop/direct/P571": "2010", "http://xmlns.com/foaf/0.1/homepage": "https://www.bwb.de/de/trinkbrunnen.php"}, "geometry": {"type": "Point", "coordinates": [13.330357999999814, 52.503411036854615]}}, {"type": "Feature", "id": "https://gdi-de.github.io/apworkshop2026/24", "name": "Brunnen 24 (gdide:24)", "dateprops": ["timepoint", "begin", "end"], "properties": {"http://www.w3.org/2000/01/rdf-schema#label": "Brunnen 24", "http://rdfs.org/ns/void#inDataset.value": "6503", "http://www.w3.org/2000/01/rdf-schema#comment": "Betriebszeit: Mai bis Oktober, Link: https://www.bwb.de/de/trinkbrunnen.php  ", "http://www.w3.org/2004/02/skos/core#scopeNote": "nan", "timepoint": "http://www.w3.org/ns/time/gregorian/October", "begin": "http://www.w3.org/ns/time/gregorian/May", "end": "http://www.w3.org/ns/time/gregorian/October", "http://www.w3.org/ns/locn#postCode": "10963", "http://www.wikidata.org/prop/direct/P571": "2013", "http://xmlns.com/foaf/0.1/homepage": "https://www.bwb.de/de/trinkbrunnen.php"}, "geometry": {"type": "Point", "coordinates": [13.372957999999873, 52.499386036859114]}}], "numberMatched": 20, "numberReturned": 20, "bbox": [13.287351999999773, 52.45284303690888, 13.625264000000161, 52.58527203676812], "crs": "http://www.opengis.net/def/crs/EPSG/0/4326"}