{"type": "FeatureCollection", "id": "https://gdi-de.github.io/apworkshop2026/Brunnen_fuer_Jogger_collection", "name": "Brunnen_fuer_Jogger Instances Collection", "features": [{"type": "Feature", "id": "https://gdi-de.github.io/apworkshop2026/21", "name": "Brunnen 21 (gdide:21)", "dateprops": ["timepoint", "begin", "end"], "properties": {"http://www.w3.org/2000/01/rdf-schema#label": "Brunnen 21", "http://rdfs.org/ns/void#inDataset.value": "6503", "http://www.w3.org/2000/01/rdf-schema#comment": "Betriebszeit: Mai bis Oktober, Link: https://www.bwb.de/de/trinkbrunnen.php  ", "http://www.w3.org/2004/02/skos/core#scopeNote": "nan", "timepoint": "http://www.w3.org/ns/time/gregorian/October", "begin": "http://www.w3.org/ns/time/gregorian/May", "end": "http://www.w3.org/ns/time/gregorian/October", "http://www.w3.org/ns/locn#postCode": "14193", "http://www.wikidata.org/prop/direct/P571": "2008", "http://xmlns.com/foaf/0.1/homepage": "https://www.bwb.de/de/trinkbrunnen.php"}, "geometry": {"type": "Point", "coordinates": [13.210372999999553, 52.477762036880364]}}, {"type": "Feature", "id": "https://gdi-de.github.io/apworkshop2026/26", "name": "Brunnen 26 (gdide:26)", "dateprops": ["timepoint", "begin", "end"], "properties": {"http://www.w3.org/2000/01/rdf-schema#label": "Brunnen 26", "http://rdfs.org/ns/void#inDataset.value": "6503", "http://www.w3.org/2000/01/rdf-schema#comment": "Betriebszeit: Mai bis Oktober, Link: https://www.bwb.de/de/trinkbrunnen.php  ", "http://www.w3.org/2004/02/skos/core#scopeNote": "nan", "timepoint": "http://www.w3.org/ns/time/gregorian/October", "begin": "http://www.w3.org/ns/time/gregorian/May", "end": "http://www.w3.org/ns/time/gregorian/October", "http://www.w3.org/ns/locn#postCode": "14193", "http://www.wikidata.org/prop/direct/P571": "2014", "http://xmlns.com/foaf/0.1/homepage": "https://www.bwb.de/de/trinkbrunnen.php"}, "geometry": {"type": "Point", "coordinates": [13.235949999999645, 52.49224003686552]}}], "numberMatched": 2, "numberReturned": 2, "bbox": [13.210372999999553, 52.477762036880364, 13.235949999999645, 52.49224003686552], "crs": "http://www.opengis.net/def/crs/EPSG/0/4326"}